{
"type": "FeatureCollection",
"name": "geo_04_訪問入浴介護",
"crs": { "type": "name", "properties": { "name": "urn:ogc:def:crs:OGC:1.3:CRS84" } },
"features": [
{ "type": "Feature", "properties": { "内容": "アースサポート仙台青葉【訪問入浴介護】宮城県仙台市青葉区旭ヶ丘2丁目29-1", "url": "https://www.kaigokensaku.mhlw.go.jp/04/index.php?action_kouhyou_detail_004_kani=true&JigyosyoCd=0475101283-00&ServiceCd=120&Type=search", "url2": "http://www.earthsupport.co.jp" }, "geometry": { "type": "Point", "coordinates": [ 140.888154699999973, 38.2932987 ] } },
{ "type": "Feature", "properties": { "内容": "セントケア仙台【訪問入浴介護】宮城県仙台市青葉区北根黒松6-15", "url": "https://www.kaigokensaku.mhlw.go.jp/04/index.php?action_kouhyou_detail_004_kani=true&JigyosyoCd=0475102604-00&ServiceCd=120&Type=search", "url2": "http://www.saint-care.com/" }, "geometry": { "type": "Point", "coordinates": [ 140.880379700000049, 38.3057831 ] } },
{ "type": "Feature", "properties": { "内容": "アスケア訪問入浴　青葉【訪問入浴介護】宮城県仙台市青葉区木町9番15号", "url": "https://www.kaigokensaku.mhlw.go.jp/04/index.php?action_kouhyou_detail_004_kani=true&JigyosyoCd=0475103354-00&ServiceCd=120&Type=search", "url2": "http://www.aoba-ny@as-care.co.jp" }, "geometry": { "type": "Point", "coordinates": [ 140.861064299999953, 38.2782303 ] } },
{ "type": "Feature", "properties": { "内容": "アスケア訪問入浴　仙台【訪問入浴介護】宮城県仙台市青葉区落合4丁目2-22", "url": "https://www.kaigokensaku.mhlw.go.jp/04/index.php?action_kouhyou_detail_004_kani=true&JigyosyoCd=0475100491-00&ServiceCd=120&Type=search", "url2": "http://www.asahi-sun-clean.co.jp/" }, "geometry": { "type": "Point", "coordinates": [ 140.780218900000023, 38.2749727 ] } },
{ "type": "Feature", "properties": { "内容": "アースサポート仙台高砂【訪問入浴介護】宮城県仙台市宮城野区福室3丁目２４番１８号", "url": "https://www.kaigokensaku.mhlw.go.jp/04/index.php?action_kouhyou_detail_004_kani=true&JigyosyoCd=0475203188-00&ServiceCd=120&Type=search", "url2": "https://www.earthsupport.co.jp/" }, "geometry": { "type": "Point", "coordinates": [ 140.971566, 38.276087 ] } },
{ "type": "Feature", "properties": { "内容": "アスケア訪問入浴　宮城野【訪問入浴介護】仙台市宮城野区新田3-27-20メイユール101", "url": "https://www.kaigokensaku.mhlw.go.jp/04/index.php?action_kouhyou_detail_004_kani=true&JigyosyoCd=0475202099-00&ServiceCd=120&Type=search", "url2": "http://www.asahi-sun-clean.co.jp" }, "geometry": { "type": "Point", "coordinates": [ 140.9285959, 38.2798697 ] } },
{ "type": "Feature", "properties": { "内容": "セントケア若林訪問入浴【訪問入浴介護】宮城県仙台市若林区若林7丁目1-5", "url": "https://www.kaigokensaku.mhlw.go.jp/04/index.php?action_kouhyou_detail_004_kani=true&JigyosyoCd=0475302840-00&ServiceCd=120&Type=search", "url2": "https://www.saint-care.com/" }, "geometry": { "type": "Point", "coordinates": [ 140.9040493, 38.2277172 ] } },
{ "type": "Feature", "properties": { "内容": "アースサポート仙台【訪問入浴介護】宮城県仙台市太白区向山４－１９－１０", "url": "https://www.kaigokensaku.mhlw.go.jp/04/index.php?action_kouhyou_detail_004_kani=true&JigyosyoCd=0475400438-00&ServiceCd=120&Type=search", "url2": "http://www.earthsupport.co.jp/" }, "geometry": { "type": "Point", "coordinates": [ 140.879155699999956, 38.2441204 ] } },
{ "type": "Feature", "properties": { "内容": "ツクイ太白【訪問入浴介護】宮城県仙台市太白区富沢1-5-26", "url": "https://www.kaigokensaku.mhlw.go.jp/04/index.php?action_kouhyou_detail_004_kani=true&JigyosyoCd=0475404869-00&ServiceCd=120&Type=search", "url2": null }, "geometry": { "type": "Point", "coordinates": [ 140.86817322674645, 38.218856637715184 ] } },
{ "type": "Feature", "properties": { "内容": "アスケア　訪問入浴太白【訪問入浴介護】宮城県仙台市太白区富沢１-8-10ロジュマンⅡD棟１０５号", "url": "https://www.kaigokensaku.mhlw.go.jp/04/index.php?action_kouhyou_detail_004_kani=true&JigyosyoCd=0475401980-00&ServiceCd=120&Type=search", "url2": "http://www.asahi-sun-clean.co.jp/" }, "geometry": { "type": "Point", "coordinates": [ 140.866727, 38.2175564 ] } },
{ "type": "Feature", "properties": { "内容": "セントケア南中山【訪問入浴介護】仙台市泉区南中山2-25-2", "url": "https://www.kaigokensaku.mhlw.go.jp/04/index.php?action_kouhyou_detail_004_kani=true&JigyosyoCd=0475502290-00&ServiceCd=120&Type=search", "url2": "http://www.saint-care-tm.com" }, "geometry": { "type": "Point", "coordinates": [ 140.82598239999993, 38.3078395 ] } },
{ "type": "Feature", "properties": { "内容": "アスケア訪問入浴　泉【訪問入浴介護】宮城県仙台市泉区将監1-13-1", "url": "https://www.kaigokensaku.mhlw.go.jp/04/index.php?action_kouhyou_detail_004_kani=true&JigyosyoCd=0475501656-00&ServiceCd=120&Type=search", "url2": "http://www.asahi-sun-clean.co.jp/" }, "geometry": { "type": "Point", "coordinates": [ 140.8844034, 38.329522 ] } },
{ "type": "Feature", "properties": { "内容": "アースサポート仙台泉【訪問入浴介護】宮城県仙台市泉区七北田字古内130番地", "url": "https://www.kaigokensaku.mhlw.go.jp/04/index.php?action_kouhyou_detail_004_kani=true&JigyosyoCd=0475502027-00&ServiceCd=120&Type=search", "url2": "http://www.earthsupport.co.jp/" }, "geometry": { "type": "Point", "coordinates": [ 140.870974299999943, 38.3265331 ] } },
{ "type": "Feature", "properties": { "内容": "ぱんぷきん介護センター　本社事業本部【訪問入浴介護】宮城県石巻市丸井戸三丁目３番８号", "url": "https://www.kaigokensaku.mhlw.go.jp/04/index.php?action_kouhyou_detail_004_kani=true&JigyosyoCd=0470200106-00&ServiceCd=120&Type=search", "url2": "http://care-net.biz/04/pumpkin/" }, "geometry": { "type": "Point", "coordinates": [ 141.274801799999977, 38.4471641 ] } },
{ "type": "Feature", "properties": { "内容": "アースサポート石巻【訪問入浴介護】宮城県石巻市蛇田字下谷地1番地6", "url": "https://www.kaigokensaku.mhlw.go.jp/04/index.php?action_kouhyou_detail_004_kani=true&JigyosyoCd=0470201724-00&ServiceCd=120&Type=search", "url2": "http://www.earthsupport.co.jp" }, "geometry": { "type": "Point", "coordinates": [ 141.276940800000034, 38.4388207 ] } },
{ "type": "Feature", "properties": { "内容": "株式会社ＡＳＣａｒｅ　アスケア訪問入浴石巻【訪問入浴介護】宮城県石巻市中里３丁目５－５", "url": "https://www.kaigokensaku.mhlw.go.jp/04/index.php?action_kouhyou_detail_004_kani=true&JigyosyoCd=0470200379-00&ServiceCd=120&Type=search", "url2": "http://www.asahi-sun-clean.co.jp/" }, "geometry": { "type": "Point", "coordinates": [ 141.297822600000018, 38.4418709 ] } },
{ "type": "Feature", "properties": { "内容": "アースサポート塩釜【訪問入浴介護】宮城県塩釜市旭町18番13号", "url": "https://www.kaigokensaku.mhlw.go.jp/04/index.php?action_kouhyou_detail_004_kani=true&JigyosyoCd=0470300237-00&ServiceCd=120&Type=search", "url2": "http://www.earthsupport.co.jp" }, "geometry": { "type": "Point", "coordinates": [ 141.023474399999941, 38.3131959 ] } },
{ "type": "Feature", "properties": { "内容": "広域介護サービス気仙沼【訪問入浴介護】宮城県気仙沼市松川前１２１", "url": "https://www.kaigokensaku.mhlw.go.jp/04/index.php?action_kouhyou_detail_004_kani=true&JigyosyoCd=0470500646-00&ServiceCd=120&Type=search", "url2": null }, "geometry": { "type": "Point", "coordinates": [ 141.5467688, 38.9131082 ] } },
{ "type": "Feature", "properties": { "内容": "アースサポート気仙沼【訪問入浴介護】宮城県気仙沼市古町3丁目2番37号", "url": "https://www.kaigokensaku.mhlw.go.jp/04/index.php?action_kouhyou_detail_004_kani=true&JigyosyoCd=0470501107-00&ServiceCd=120&Type=search", "url2": "http://www.earthsupport.co.jp/" }, "geometry": { "type": "Point", "coordinates": [ 141.558179, 38.9095033 ] } },
{ "type": "Feature", "properties": { "内容": "訪問入浴サービスもとよし【訪問入浴介護】宮城県気仙沼市本吉町津谷舘岡51-6", "url": "https://www.kaigokensaku.mhlw.go.jp/04/index.php?action_kouhyou_detail_004_kani=true&JigyosyoCd=0470500687-00&ServiceCd=120&Type=search", "url2": null }, "geometry": { "type": "Point", "coordinates": [ 141.505618592043902, 38.795684254558402 ] } },
{ "type": "Feature", "properties": { "内容": "訪問入浴春夏秋冬【訪問入浴介護】宮城県気仙沼市田中前1丁目1番10号", "url": "https://www.kaigokensaku.mhlw.go.jp/04/index.php?action_kouhyou_detail_004_kani=true&JigyosyoCd=0470500943-00&ServiceCd=120&Type=search", "url2": "https://1go1yu.com" }, "geometry": { "type": "Point", "coordinates": [ 141.56536509999998, 38.89397740000004 ] } },
{ "type": "Feature", "properties": { "内容": "アースサポート名取【訪問入浴介護】宮城県名取市大手町四丁目14番9号", "url": "https://www.kaigokensaku.mhlw.go.jp/04/index.php?action_kouhyou_detail_004_kani=true&JigyosyoCd=0470701152-00&ServiceCd=120&Type=search", "url2": "http://www.earthsupport.co.jp/" }, "geometry": { "type": "Point", "coordinates": [ 140.8765482, 38.1668588 ] } },
{ "type": "Feature", "properties": { "内容": "ツクイ角田北郷【訪問入浴介護】宮城県角田市岡字内川232", "url": "https://www.kaigokensaku.mhlw.go.jp/04/index.php?action_kouhyou_detail_004_kani=true&JigyosyoCd=0470800012-00&ServiceCd=120&Type=search", "url2": "http://www.tsukui.net/" }, "geometry": { "type": "Point", "coordinates": [ 140.7742814, 38.0195608 ] } },
{ "type": "Feature", "properties": { "内容": "アスケア訪問入浴多賀城【訪問入浴介護】宮城県多賀城市留ヶ谷1丁目9-20", "url": "https://www.kaigokensaku.mhlw.go.jp/04/index.php?action_kouhyou_detail_004_kani=true&JigyosyoCd=0470901158-00&ServiceCd=120&Type=search", "url2": "https://www.as-care.co.jp/" }, "geometry": { "type": "Point", "coordinates": [ 141.007647600000013, 38.3001338 ] } },
{ "type": "Feature", "properties": { "内容": "セントケア岩沼【訪問入浴介護】宮城県岩沼市大手町８－１５", "url": "https://www.kaigokensaku.mhlw.go.jp/04/index.php?action_kouhyou_detail_004_kani=true&JigyosyoCd=0471100339-00&ServiceCd=120&Type=search", "url2": "http://www.saint-care.com" }, "geometry": { "type": "Point", "coordinates": [ 140.865817434640462, 38.107741415997367 ] } },
{ "type": "Feature", "properties": { "内容": "株式会社　宮城登米広域介護サービス【訪問入浴介護】宮城県登米市迫町佐沼光ヶ丘１４０－２", "url": "https://www.kaigokensaku.mhlw.go.jp/04/index.php?action_kouhyou_detail_004_kani=true&JigyosyoCd=0471200014-00&ServiceCd=120&Type=search", "url2": "http://www.kaigoservice.co.jp" }, "geometry": { "type": "Point", "coordinates": [ 141.204474600000026, 38.6869653 ] } },
{ "type": "Feature", "properties": { "内容": "アスケア訪問入浴登米【訪問入浴介護】宮城県登米市迫町佐沼字梅ノ木2-1-9", "url": "https://www.kaigokensaku.mhlw.go.jp/04/index.php?action_kouhyou_detail_004_kani=true&JigyosyoCd=0471200873-00&ServiceCd=120&Type=search", "url2": "http://www.as-care.co.jp" }, "geometry": { "type": "Point", "coordinates": [ 141.207071, 38.6959117 ] } },
{ "type": "Feature", "properties": { "内容": "セントケアはさま【訪問入浴介護】宮城県登米市迫町佐沼字梅ノ木一丁目3番地7", "url": "https://www.kaigokensaku.mhlw.go.jp/04/index.php?action_kouhyou_detail_004_kani=true&JigyosyoCd=0471200782-00&ServiceCd=120&Type=search", "url2": null }, "geometry": { "type": "Point", "coordinates": [ 141.2051097, 38.694688299999989 ] } },
{ "type": "Feature", "properties": { "内容": "アースサポート栗原【訪問入浴介護】宮城県栗原市志波姫堀口見渡19", "url": "https://www.kaigokensaku.mhlw.go.jp/04/index.php?action_kouhyou_detail_004_kani=true&JigyosyoCd=0471302422-00&ServiceCd=120&Type=search", "url2": "http://www.earthsupport.co.jp" }, "geometry": { "type": "Point", "coordinates": [ 141.0221237, 38.7379143 ] } },
{ "type": "Feature", "properties": { "内容": "セントケア栗駒【訪問入浴介護】宮城県栗原市栗駒岩ケ崎神南35番1号", "url": "https://www.kaigokensaku.mhlw.go.jp/04/index.php?action_kouhyou_detail_004_kani=true&JigyosyoCd=0471301127-00&ServiceCd=120&Type=search", "url2": "http://www.saint-care-tm.com/" }, "geometry": { "type": "Point", "coordinates": [ 140.999515069757251, 38.831752948469166 ] } },
{ "type": "Feature", "properties": { "内容": "アスケア訪問入浴　栗原【訪問入浴介護】宮城県栗原市若柳字川南堤通11-6", "url": "https://www.kaigokensaku.mhlw.go.jp/04/index.php?action_kouhyou_detail_004_kani=true&JigyosyoCd=0471300277-00&ServiceCd=120&Type=search", "url2": "http://www.asahi-sun-clean.co.jp" }, "geometry": { "type": "Point", "coordinates": [ 141.121711813780166, 38.771229588755162 ] } },
{ "type": "Feature", "properties": { "内容": "セントケア石巻矢本【訪問入浴介護】東松島市矢本字鹿石前164-1", "url": "https://www.kaigokensaku.mhlw.go.jp/04/index.php?action_kouhyou_detail_004_kani=true&JigyosyoCd=0471400473-00&ServiceCd=120&Type=search", "url2": null }, "geometry": { "type": "Point", "coordinates": [ 141.192443912567114, 38.403736905336665 ] } },
{ "type": "Feature", "properties": { "内容": "アスケア訪問入浴　東松島【訪問入浴介護】宮城県東松島市矢本字上河戸64-1", "url": "https://www.kaigokensaku.mhlw.go.jp/04/index.php?action_kouhyou_detail_004_kani=true&JigyosyoCd=0471400523-00&ServiceCd=120&Type=search", "url2": "https://www.as-care.co.jp/" }, "geometry": { "type": "Point", "coordinates": [ 141.2096196, 38.4244872 ] } },
{ "type": "Feature", "properties": { "内容": "アースサポート古川【訪問入浴介護】宮城県大崎市古川字上古川145番地", "url": "https://www.kaigokensaku.mhlw.go.jp/04/index.php?action_kouhyou_detail_004_kani=true&JigyosyoCd=0471500082-00&ServiceCd=120&Type=search", "url2": "http://www.earthsupport.co.jp" }, "geometry": { "type": "Point", "coordinates": [ 140.942886199999975, 38.587603 ] } },
{ "type": "Feature", "properties": { "内容": "アスケア訪問入浴　岩出山【訪問入浴介護】宮城県大崎市岩出山ニノ構79-2", "url": "https://www.kaigokensaku.mhlw.go.jp/04/index.php?action_kouhyou_detail_004_kani=true&JigyosyoCd=0471500728-00&ServiceCd=120&Type=search", "url2": "http://www.as-care.co.jp" }, "geometry": { "type": "Point", "coordinates": [ 140.865443484794582, 38.652650941285245 ] } },
{ "type": "Feature", "properties": { "内容": "セントケア大崎【訪問入浴介護】宮城県大崎市古川大宮二丁目1番23号", "url": "https://www.kaigokensaku.mhlw.go.jp/04/index.php?action_kouhyou_detail_004_kani=true&JigyosyoCd=0471501494-00&ServiceCd=120&Type=search", "url2": "http://www.saint-care.com" }, "geometry": { "type": "Point", "coordinates": [ 140.954128055383137, 38.583531232955082 ] } },
{ "type": "Feature", "properties": { "内容": "昭和タクシー　まごころケアサポート　結い【訪問入浴介護】宮城県大崎市古川字上古川１６５－１", "url": "https://www.kaigokensaku.mhlw.go.jp/04/index.php?action_kouhyou_detail_004_kani=true&JigyosyoCd=0471500157-00&ServiceCd=120&Type=search", "url2": "http://www.showa-taxi.net/yui_nyuyoku.html" }, "geometry": { "type": "Point", "coordinates": [ 140.9414418, 38.5892416 ] } },
{ "type": "Feature", "properties": { "内容": "有限会社　西古川タクシー　介護福祉事業部　四季のめぐみ【訪問入浴介護】宮城県大崎市古川新堀字北田42番１", "url": "https://www.kaigokensaku.mhlw.go.jp/04/index.php?action_kouhyou_detail_004_kani=true&JigyosyoCd=0471500173-00&ServiceCd=120&Type=search", "url2": "http://www.nishitaxi.com/" }, "geometry": { "type": "Point", "coordinates": [ 140.894928552917435, 38.581358172549969 ] } },
{ "type": "Feature", "properties": { "内容": "アースサポート富谷【訪問入浴介護】宮城県富谷市富谷清水仲119-4パルネットyou102", "url": "https://www.kaigokensaku.mhlw.go.jp/04/index.php?action_kouhyou_detail_004_kani=true&JigyosyoCd=0471600056-00&ServiceCd=120&Type=search", "url2": "http://www.earthsupport.co.jp" }, "geometry": { "type": "Point", "coordinates": [ 140.894684993254032, 38.396602529920045 ] } },
{ "type": "Feature", "properties": { "内容": "セントケア大河原【訪問入浴介護】宮城県柴田郡大河原町字町55-2サウスロアヴェール101", "url": "https://www.kaigokensaku.mhlw.go.jp/04/index.php?action_kouhyou_detail_004_kani=true&JigyosyoCd=0472200856-00&ServiceCd=120&Type=search", "url2": null }, "geometry": { "type": "Point", "coordinates": [ 140.7352151, 38.0501872 ] } },
{ "type": "Feature", "properties": { "内容": "アスケア訪問入浴　大河原【訪問入浴介護】宮城県柴田郡大河原町字新東92番地8", "url": "https://www.kaigokensaku.mhlw.go.jp/04/index.php?action_kouhyou_detail_004_kani=true&JigyosyoCd=0472201243-00&ServiceCd=120&Type=search", "url2": "http://www.as-care.co.jp/" }, "geometry": { "type": "Point", "coordinates": [ 140.73551729999997, 38.0611278 ] } },
{ "type": "Feature", "properties": { "内容": "アスケア訪問入浴　亘理【訪問入浴介護】宮城県亘理郡亘理町字中町東191佐々木第一ビル102号", "url": "https://www.kaigokensaku.mhlw.go.jp/04/index.php?action_kouhyou_detail_004_kani=true&JigyosyoCd=0472400662-00&ServiceCd=120&Type=search", "url2": "http://www.as-care.co.jp" }, "geometry": { "type": "Point", "coordinates": [ 140.858739199999945, 38.0337962 ] } },
{ "type": "Feature", "properties": { "内容": "ツクイ大和【訪問入浴介護】宮城県黒川郡大和町吉岡字天皇寺87", "url": "https://www.kaigokensaku.mhlw.go.jp/04/index.php?action_kouhyou_detail_004_kani=true&JigyosyoCd=0472700442-00&ServiceCd=120&Type=search", "url2": "https://www.tsukui.net/home-care/2062/" }, "geometry": { "type": "Point", "coordinates": [ 140.887006, 38.4418491 ] } },
{ "type": "Feature", "properties": { "内容": "ゆうらいふ訪問入浴サービス【訪問入浴介護】宮城県遠田郡涌谷町涌谷字新下町浦１９２", "url": "https://www.kaigokensaku.mhlw.go.jp/04/index.php?action_kouhyou_detail_004_kani=true&JigyosyoCd=0473100337-00&ServiceCd=120&Type=search", "url2": "http://www.wakuya-sfk.net/" }, "geometry": { "type": "Point", "coordinates": [ 141.141148700000031, 38.5394129 ] } },
{ "type": "Feature", "properties": { "内容": "アースサポート美里【訪問入浴介護】宮城県遠田郡美里町字素山町９番地", "url": "https://www.kaigokensaku.mhlw.go.jp/04/index.php?action_kouhyou_detail_004_kani=true&JigyosyoCd=0473101210-00&ServiceCd=120&Type=search", "url2": "http://www.earthsupport.co.jp" }, "geometry": { "type": "Point", "coordinates": [ 141.063424500000025, 38.538685099999981 ] } }
]
}
