{
"type": "FeatureCollection",
"name": "geo_04_特定施設入居者生活介護（有料老人ホーム）",
"crs": { "type": "name", "properties": { "name": "urn:ogc:def:crs:OGC:1.3:CRS84" } },
"features": [
{ "type": "Feature", "properties": { "内容": "グランダ上杉雨宮【特定施設入居者生活介護（有料老人ホーム）】宮城県仙台市青葉区堤通雨宮町10番26号", "url2": "https://www.kaigokensaku.mhlw.go.jp/04/index.php?action_kouhyou_detail_004_kani=true&JigyosyoCd=0475102430-00&ServiceCd=331&Type=search" }, "geometry": { "type": "Point", "coordinates": [ 140.868699600000014, 38.2787388 ] } },
{ "type": "Feature", "properties": { "内容": "ライブラリ上杉【特定施設入居者生活介護（有料老人ホーム）】宮城県仙台市青葉区上杉6丁目6-53", "url2": "https://www.kaigokensaku.mhlw.go.jp/04/index.php?action_kouhyou_detail_004_kani=true&JigyosyoCd=0475105490-00&ServiceCd=331&Type=search" }, "geometry": { "type": "Point", "coordinates": [ 140.8761854, 38.2788962 ] } },
{ "type": "Feature", "properties": { "内容": "ライブラリ仙台小田原【特定施設入居者生活介護（有料老人ホーム）】宮城県仙台市青葉区小田原5丁目3-45", "url2": "https://www.kaigokensaku.mhlw.go.jp/04/index.php?action_kouhyou_detail_004_kani=true&JigyosyoCd=0475105813-00&ServiceCd=331&Type=search" }, "geometry": { "type": "Point", "coordinates": [ 140.886122, 38.2690802 ] } },
{ "type": "Feature", "properties": { "内容": "ニチイケアセンター仙台中山吉成【特定施設入居者生活介護（有料老人ホーム）】宮城県仙台市青葉区中山吉成1丁目7－18", "url2": "https://www.kaigokensaku.mhlw.go.jp/04/index.php?action_kouhyou_detail_004_kani=true&JigyosyoCd=0475104386-00&ServiceCd=331&Type=search" }, "geometry": { "type": "Point", "coordinates": [ 140.820722400000022, 38.2987921 ] } },
{ "type": "Feature", "properties": { "内容": "介護付有料老人ホーム　アルカディア仙台敬寿園【特定施設入居者生活介護（有料老人ホーム）】宮城県仙台市青葉区八幡６丁目９番15号", "url2": "https://www.kaigokensaku.mhlw.go.jp/04/index.php?action_kouhyou_detail_004_kani=true&JigyosyoCd=0475104709-00&ServiceCd=331&Type=search" }, "geometry": { "type": "Point", "coordinates": [ 140.836014400000067, 38.2669725 ] } },
{ "type": "Feature", "properties": { "内容": "さくらハウス西花苑【特定施設入居者生活介護（有料老人ホーム）】西花苑1丁目39番7号", "url2": "https://www.kaigokensaku.mhlw.go.jp/04/index.php?action_kouhyou_detail_004_kani=true&JigyosyoCd=0475105938-00&ServiceCd=331&Type=search" }, "geometry": { "type": "Point", "coordinates": [ 140.7992714, 38.2655012 ] } },
{ "type": "Feature", "properties": { "内容": "ベストライフ仙台西【特定施設入居者生活介護（有料老人ホーム）】宮城県仙台市青葉区栗生6-7-1", "url2": "https://www.kaigokensaku.mhlw.go.jp/04/index.php?action_kouhyou_detail_004_kani=true&JigyosyoCd=0475105458-00&ServiceCd=331&Type=search" }, "geometry": { "type": "Point", "coordinates": [ 140.785426699999988, 38.2676107 ] } },
{ "type": "Feature", "properties": { "内容": "介護付有料老人ホーム　ラ・プラス仙台広瀬【特定施設入居者生活介護（有料老人ホーム）】宮城県仙台市青葉区愛子東三丁目１番２０号", "url2": "https://www.kaigokensaku.mhlw.go.jp/04/index.php?action_kouhyou_detail_004_kani=true&JigyosyoCd=0475104782-00&ServiceCd=331&Type=search" }, "geometry": { "type": "Point", "coordinates": [ 140.779513400000042, 38.2754892 ] } },
{ "type": "Feature", "properties": { "内容": "グランダ上杉雨宮弐番館【特定施設入居者生活介護（有料老人ホーム）】宮城県仙台市青葉区堤通雨宮町10番20号", "url2": "https://www.kaigokensaku.mhlw.go.jp/04/index.php?action_kouhyou_detail_004_kani=true&JigyosyoCd=0475106142-00&ServiceCd=331&Type=search" }, "geometry": { "type": "Point", "coordinates": [ 140.8687497, 38.2782981 ] } },
{ "type": "Feature", "properties": { "内容": "有料老人ホーム　クローバーズ・ピア本町【特定施設入居者生活介護（有料老人ホーム）】宮城県仙台市青葉区本町2丁目17番27号", "url2": "https://www.kaigokensaku.mhlw.go.jp/04/index.php?action_kouhyou_detail_004_kani=true&JigyosyoCd=0475101572-00&ServiceCd=331&Type=search" }, "geometry": { "type": "Point", "coordinates": [ 140.873362, 38.265371799999983 ] } },
{ "type": "Feature", "properties": { "内容": "まどか鶴ヶ谷【特定施設入居者生活介護（有料老人ホーム）】宮城県仙台市宮城野区鶴ヶ谷六丁目7番1号", "url2": "https://www.kaigokensaku.mhlw.go.jp/04/index.php?action_kouhyou_detail_004_kani=true&JigyosyoCd=0475200465-00&ServiceCd=331&Type=search" }, "geometry": { "type": "Point", "coordinates": [ 140.9238097, 38.2904807 ] } },
{ "type": "Feature", "properties": { "内容": "そんぽの家　仙台岩切【特定施設入居者生活介護（有料老人ホーム）】宮城県仙台市宮城野区岩切字青津目１２９番地１号", "url2": "https://www.kaigokensaku.mhlw.go.jp/04/index.php?action_kouhyou_detail_004_kani=true&JigyosyoCd=0475201661-00&ServiceCd=331&Type=search" }, "geometry": { "type": "Point", "coordinates": [ 140.954778300000044, 38.3057465 ] } },
{ "type": "Feature", "properties": { "内容": "ニチイケアセンター仙台栄【特定施設入居者生活介護（有料老人ホーム）】宮城県仙台市宮城野区栄１丁目４番３４号", "url2": "https://www.kaigokensaku.mhlw.go.jp/04/index.php?action_kouhyou_detail_004_kani=true&JigyosyoCd=0475203097-00&ServiceCd=331&Type=search" }, "geometry": { "type": "Point", "coordinates": [ 140.979356949073804, 38.278496288921247 ] } },
{ "type": "Feature", "properties": { "内容": "介護付き有料老人ホームツクイ・サンシャイン仙台【特定施設入居者生活介護（有料老人ホーム）】宮城県仙台市宮城野区新田東2-12-7", "url2": "https://www.kaigokensaku.mhlw.go.jp/04/index.php?action_kouhyou_detail_004_kani=true&JigyosyoCd=0475203725-00&ServiceCd=331&Type=search" }, "geometry": { "type": "Point", "coordinates": [ 140.9326318, 38.2751364 ] } },
{ "type": "Feature", "properties": { "内容": "フループライフガーデン【特定施設入居者生活介護（有料老人ホーム）】宮城県仙台市宮城野区福室7丁目６-２０", "url2": "https://www.kaigokensaku.mhlw.go.jp/04/index.php?action_kouhyou_detail_004_kani=true&JigyosyoCd=0475203717-00&ServiceCd=331&Type=search" }, "geometry": { "type": "Point", "coordinates": [ 140.9721587, 38.2830637 ] } },
{ "type": "Feature", "properties": { "内容": "介護付有料老人ホームＪ＆Ｂ【特定施設入居者生活介護（有料老人ホーム）】宮城県仙台市宮城野区清水沼3-7-8", "url2": "https://www.kaigokensaku.mhlw.go.jp/04/index.php?action_kouhyou_detail_004_kani=true&JigyosyoCd=0475201505-00&ServiceCd=331&Type=search" }, "geometry": { "type": "Point", "coordinates": [ 140.902410799999984, 38.268485399999989 ] } },
{ "type": "Feature", "properties": { "内容": "有料老人ホーム　サニーライフ仙台宮城野【特定施設入居者生活介護（有料老人ホーム）】宮城県仙台市宮城野区岩切分台2-11-20", "url2": "https://www.kaigokensaku.mhlw.go.jp/04/index.php?action_kouhyou_detail_004_kani=true&JigyosyoCd=0475203311-00&ServiceCd=331&Type=search" }, "geometry": { "type": "Point", "coordinates": [ 140.960964500000046, 38.3086305 ] } },
{ "type": "Feature", "properties": { "内容": "ベストライフ仙台東【特定施設入居者生活介護（有料老人ホーム）】宮城県仙台市宮城野区高砂1-30-20", "url2": "https://www.kaigokensaku.mhlw.go.jp/04/index.php?action_kouhyou_detail_004_kani=true&JigyosyoCd=0475203634-00&ServiceCd=331&Type=search" }, "geometry": { "type": "Point", "coordinates": [ 140.9739231, 38.2689579 ] } },
{ "type": "Feature", "properties": { "内容": "有料老人ホームこうよう【特定施設入居者生活介護（有料老人ホーム）】宮城県仙台市宮城野区東仙台四丁目1-20介護複合施設careN", "url2": "https://www.kaigokensaku.mhlw.go.jp/04/index.php?action_kouhyou_detail_004_kani=true&JigyosyoCd=0475203881-00&ServiceCd=331&Type=search" }, "geometry": { "type": "Point", "coordinates": [ 140.9082098, 38.2733397 ] } },
{ "type": "Feature", "properties": { "内容": "介護付有料老人ホーム　チアフルホーム福室【特定施設入居者生活介護（有料老人ホーム）】宮城県仙台市宮城野区福室４丁目５番５号", "url2": "https://www.kaigokensaku.mhlw.go.jp/04/index.php?action_kouhyou_detail_004_kani=true&JigyosyoCd=0475203485-00&ServiceCd=331&Type=search" }, "geometry": { "type": "Point", "coordinates": [ 140.974541561376981, 38.277916789204944 ] } },
{ "type": "Feature", "properties": { "内容": "SOMPOケア　ラヴィーレ仙台東【特定施設入居者生活介護（有料老人ホーム）】宮城県仙台市宮城野区苦竹１丁目９番１号", "url2": "https://www.kaigokensaku.mhlw.go.jp/04/index.php?action_kouhyou_detail_004_kani=true&JigyosyoCd=0475203972-00&ServiceCd=331&Type=search" }, "geometry": { "type": "Point", "coordinates": [ 140.91785680000001, 38.2690761 ] } },
{ "type": "Feature", "properties": { "内容": "ニチイケアセンター仙台若林【特定施設入居者生活介護（有料老人ホーム）】宮城県仙台市若林区荒井3丁目27-７", "url2": "https://www.kaigokensaku.mhlw.go.jp/04/index.php?action_kouhyou_detail_004_kani=true&JigyosyoCd=0475301594-00&ServiceCd=331&Type=search" }, "geometry": { "type": "Point", "coordinates": [ 140.944128299999988, 38.2387896 ] } },
{ "type": "Feature", "properties": { "内容": "六郷の杜【特定施設入居者生活介護（有料老人ホーム）】仙台市若林区下飯田遠谷地171番地", "url2": "https://www.kaigokensaku.mhlw.go.jp/04/index.php?action_kouhyou_detail_004_kani=true&JigyosyoCd=0475300620-00&ServiceCd=331&Type=search" }, "geometry": { "type": "Point", "coordinates": [ 140.933224600000017, 38.2169365 ] } },
{ "type": "Feature", "properties": { "内容": "介護付有料老人ホーム　オー・ド・エクラ【特定施設入居者生活介護（有料老人ホーム）】宮城県仙台市太白区茂庭２丁目3番地の3", "url2": "https://www.kaigokensaku.mhlw.go.jp/04/index.php?action_kouhyou_detail_004_kani=true&JigyosyoCd=0475404000-00&ServiceCd=331&Type=search" }, "geometry": { "type": "Point", "coordinates": [ 140.785705, 38.2303737 ] } },
{ "type": "Feature", "properties": { "内容": "まどか長町【特定施設入居者生活介護（有料老人ホーム）】宮城県仙台市太白区長町一丁目6番3号", "url2": "https://www.kaigokensaku.mhlw.go.jp/04/index.php?action_kouhyou_detail_004_kani=true&JigyosyoCd=0475400677-00&ServiceCd=331&Type=search" }, "geometry": { "type": "Point", "coordinates": [ 140.88704945762484, 38.234392477622826 ] } },
{ "type": "Feature", "properties": { "内容": "ラ・ナシカ　せんだい【特定施設入居者生活介護（有料老人ホーム）】宮城県仙台市太白区八本松一丁目7番10号", "url2": "https://www.kaigokensaku.mhlw.go.jp/04/index.php?action_kouhyou_detail_004_kani=true&JigyosyoCd=0475402400-00&ServiceCd=331&Type=search" }, "geometry": { "type": "Point", "coordinates": [ 140.891159250926194, 38.23138099388629 ] } },
{ "type": "Feature", "properties": { "内容": "アースサポートクオリア仙台富沢【特定施設入居者生活介護（有料老人ホーム）】宮城県仙台市太白区大野田四丁目７番地の１４", "url2": "https://www.kaigokensaku.mhlw.go.jp/04/index.php?action_kouhyou_detail_004_kani=true&JigyosyoCd=0475403358-00&ServiceCd=331&Type=search" }, "geometry": { "type": "Point", "coordinates": [ 140.876067499999976, 38.211317 ] } },
{ "type": "Feature", "properties": { "内容": "ベストライフ仙台南【特定施設入居者生活介護（有料老人ホーム）】宮城県仙台市太白区袋原1-26-1", "url2": "https://www.kaigokensaku.mhlw.go.jp/04/index.php?action_kouhyou_detail_004_kani=true&JigyosyoCd=0475404265-00&ServiceCd=331&Type=search" }, "geometry": { "type": "Point", "coordinates": [ 140.907428399999986, 38.2003569 ] } },
{ "type": "Feature", "properties": { "内容": "有料老人ホームサニーライフ仙台【特定施設入居者生活介護（有料老人ホーム）】宮城県仙台市太白区泉崎1-21-40", "url2": "https://www.kaigokensaku.mhlw.go.jp/04/index.php?action_kouhyou_detail_004_kani=true&JigyosyoCd=0475401352-00&ServiceCd=331&Type=search" }, "geometry": { "type": "Point", "coordinates": [ 140.868296200000032, 38.2207589 ] } },
{ "type": "Feature", "properties": { "内容": "介護付き有料老人ホーム夢眠せんだいにし【特定施設入居者生活介護（有料老人ホーム）】宮城県仙台市太白区ひより台3番16号", "url2": "https://www.kaigokensaku.mhlw.go.jp/04/index.php?action_kouhyou_detail_004_kani=true&JigyosyoCd=0475404638-00&ServiceCd=331&Type=search" }, "geometry": { "type": "Point", "coordinates": [ 140.828714, 38.2282604 ] } },
{ "type": "Feature", "properties": { "内容": "まえだの家　仙台中田【特定施設入居者生活介護（有料老人ホーム）】宮城県仙台市太白区中田７丁目２３番７号", "url2": "https://www.kaigokensaku.mhlw.go.jp/04/index.php?action_kouhyou_detail_004_kani=true&JigyosyoCd=0475401295-00&ServiceCd=331&Type=search" }, "geometry": { "type": "Point", "coordinates": [ 140.889370699999972, 38.1896265 ] } },
{ "type": "Feature", "properties": { "内容": "介護付有料老人ホーム　グリーンライフ仙台【特定施設入居者生活介護（有料老人ホーム）】宮城県仙台市太白区あすと長町一丁目3番1号", "url2": "https://www.kaigokensaku.mhlw.go.jp/04/index.php?action_kouhyou_detail_004_kani=true&JigyosyoCd=0475405049-00&ServiceCd=331&Type=search" }, "geometry": { "type": "Point", "coordinates": [ 140.8892167, 38.230518 ] } },
{ "type": "Feature", "properties": { "内容": "ギャラリー杜の音　四季彩館【特定施設入居者生活介護（有料老人ホーム）】宮城県仙台市泉区上谷刈字赤坂6-102", "url2": "https://www.kaigokensaku.mhlw.go.jp/04/index.php?action_kouhyou_detail_004_kani=true&JigyosyoCd=0475503678-00&ServiceCd=331&Type=search" }, "geometry": { "type": "Point", "coordinates": [ 140.8546288, 38.3100021 ] } },
{ "type": "Feature", "properties": { "内容": "エバーグリーンシティ・寺岡【特定施設入居者生活介護（有料老人ホーム）】宮城県仙台市泉区寺岡１丁目２５－１", "url2": "https://www.kaigokensaku.mhlw.go.jp/04/index.php?action_kouhyou_detail_004_kani=true&JigyosyoCd=0475501615-00&ServiceCd=331&Type=search" }, "geometry": { "type": "Point", "coordinates": [ 140.835829900000022, 38.3346783 ] } },
{ "type": "Feature", "properties": { "内容": "ニチイケアセンター仙台松森【特定施設入居者生活介護（有料老人ホーム）】宮城県仙台市泉区松森字台95番地の1", "url2": "https://www.kaigokensaku.mhlw.go.jp/04/index.php?action_kouhyou_detail_004_kani=true&JigyosyoCd=0475502134-00&ServiceCd=331&Type=search" }, "geometry": { "type": "Point", "coordinates": [ 140.925761, 38.3133366 ] } },
{ "type": "Feature", "properties": { "内容": "ベストライフ仙台【特定施設入居者生活介護（有料老人ホーム）】宮城県仙台市泉区泉中央2-22-1", "url2": "https://www.kaigokensaku.mhlw.go.jp/04/index.php?action_kouhyou_detail_004_kani=true&JigyosyoCd=0475504098-00&ServiceCd=331&Type=search" }, "geometry": { "type": "Point", "coordinates": [ 140.8776383, 38.3264281 ] } },
{ "type": "Feature", "properties": { "内容": "SOMPOケア　ラヴィーレ泉パークタウン朝日【特定施設入居者生活介護（有料老人ホーム）】仙台市泉区根白石字行木沢東1番8SOMPOケア　ラヴィーレ泉パークタウン朝日", "url2": "https://www.kaigokensaku.mhlw.go.jp/04/index.php?action_kouhyou_detail_004_kani=true&JigyosyoCd=0475504486-00&ServiceCd=331&Type=search" }, "geometry": { "type": "Point", "coordinates": [ 140.8203532, 38.3377102 ] } },
{ "type": "Feature", "properties": { "内容": "ニチイケアセンター仙台市名坂【特定施設入居者生活介護（有料老人ホーム）】宮城県仙台市泉区市名坂字東裏２５－１ニチイケアセンター仙台市名坂", "url2": "https://www.kaigokensaku.mhlw.go.jp/04/index.php?action_kouhyou_detail_004_kani=true&JigyosyoCd=0475502647-00&ServiceCd=331&Type=search" }, "geometry": { "type": "Point", "coordinates": [ 140.890336400000024, 38.3213815 ] } },
{ "type": "Feature", "properties": { "内容": "暖暖の里　仙台南【特定施設入居者生活介護（有料老人ホーム）】宮城県名取市みどり台２－４－４暖暖の里　仙台南", "url2": "https://www.kaigokensaku.mhlw.go.jp/04/index.php?action_kouhyou_detail_004_kani=true&JigyosyoCd=0470701012-00&ServiceCd=331&Type=search" }, "geometry": { "type": "Point", "coordinates": [ 140.833815110975593, 38.19981001190736 ] } },
{ "type": "Feature", "properties": { "内容": "介護付有料老人ホームウェルフェアー美田園【特定施設入居者生活介護（有料老人ホーム）】宮城県名取市美田園3丁目１－４", "url2": "https://www.kaigokensaku.mhlw.go.jp/04/index.php?action_kouhyou_detail_004_kani=true&JigyosyoCd=0470701400-00&ServiceCd=331&Type=search" }, "geometry": { "type": "Point", "coordinates": [ 140.9229796, 38.1595862 ] } },
{ "type": "Feature", "properties": { "内容": "介護付き有料老人ホーム　ウェルフェアー多賀城【特定施設入居者生活介護（有料老人ホーム）】宮城県多賀城市町前2丁目2-5ウェルフェア―多賀城", "url2": "https://www.kaigokensaku.mhlw.go.jp/04/index.php?action_kouhyou_detail_004_kani=true&JigyosyoCd=0470900366-00&ServiceCd=331&Type=search" }, "geometry": { "type": "Point", "coordinates": [ 141.003764199999978, 38.2847847 ] } },
{ "type": "Feature", "properties": { "内容": "高齢者複合型施設カーサ岩沼介護付有料老人ホーム【特定施設入居者生活介護（有料老人ホーム）】宮城県岩沼市中央三丁目7-16高齢者複合型施設カーサ岩沼", "url2": "https://www.kaigokensaku.mhlw.go.jp/04/index.php?action_kouhyou_detail_004_kani=true&JigyosyoCd=0471100719-00&ServiceCd=331&Type=search" }, "geometry": { "type": "Point", "coordinates": [ 140.869157200000018, 38.1135025 ] } },
{ "type": "Feature", "properties": { "内容": "有料老人ホームサン・パレ加瀬【特定施設入居者生活介護（有料老人ホーム）】宮城県宮城郡利府町加瀬字野中沢４８－２", "url2": "https://www.kaigokensaku.mhlw.go.jp/04/index.php?action_kouhyou_detail_004_kani=true&JigyosyoCd=0472600030-00&ServiceCd=331&Type=search" }, "geometry": { "type": "Point", "coordinates": [ 140.9983456, 38.325838 ] } },
{ "type": "Feature", "properties": { "内容": "介護付き有料老人ホームのぞみ【特定施設入居者生活介護（有料老人ホーム）】宮城県遠田郡美里町中埣字上戸35番１のぞみ", "url2": "https://www.kaigokensaku.mhlw.go.jp/04/index.php?action_kouhyou_detail_004_kani=true&JigyosyoCd=0473101152-00&ServiceCd=331&Type=search" }, "geometry": { "type": "Point", "coordinates": [ 141.034550699999954, 38.5804856 ] } }
]
}
