{
"type": "FeatureCollection",
"name": "geo_4_1",
"crs": { "type": "name", "properties": { "name": "urn:ogc:def:crs:OGC:1.3:CRS84" } },
"features": [
{ "type": "Feature", "properties": { "ID": 41705053, "正式名称": "医療法人　松涛会　南浜中央病院", "機関区分": 1, "都道府県コード": 4, "市区町村コード": 211, "所在地": "宮城県岩沼市寺島字北新田１１１番地", "緯度": 38.083679, "経度": 140.918943, "url": "https://www.iryou.teikyouseido.mhlw.go.jp/znk-web/juminkanja/S2430/initialize?prefCd=04&kikanCd=705053&kikanKbn=1", "url2": "https://www.minamihama.or.jp", "内容": "医療法人　松涛会　南浜中央病院【1:病院】【診療科目:内科_精神科_歯科】【一般病床数:0療養病床数:0精神病床数:197感染症病床数:0合計病床数:197】宮城県岩沼市寺島字北新田１１１番地" }, "geometry": { "type": "Point", "coordinates": [ 140.918943, 38.083679 ] } },
{ "type": "Feature", "properties": { "ID": 41705059, "正式名称": "医療法人寶樹会　仙塩利府病院", "機関区分": 1, "都道府県コード": 4, "市区町村コード": 406, "所在地": "宮城県宮城郡利府町青葉台２丁目２－１０８", "緯度": 38.339767, "経度": 140.964508, "url": "https://www.iryou.teikyouseido.mhlw.go.jp/znk-web/juminkanja/S2430/initialize?prefCd=04&kikanCd=705059&kikanKbn=1", "url2": "http://www.sen-en.jp/", "内容": "医療法人寶樹会　仙塩利府病院【1:病院】【診療科目:内科_呼吸器内科_循環器内科_消化器内科_神経内科_内視鏡内科_外科_整形外科_形成外科_眼科_耳鼻いんこう科_皮膚科_泌尿器科_リハビリテーション科_放射線科_麻酔科】【一般病床数:108療養病床数:0精神病床数:0感染症病床数:0合計病床数:108】宮城県宮城郡利府町青葉台２丁目２－１０８" }, "geometry": { "type": "Point", "coordinates": [ 140.964508, 38.339767 ] } },
{ "type": "Feature", "properties": { "ID": 41705084, "正式名称": "医療法人社団　蔵王会　佐藤病院", "機関区分": 1, "都道府県コード": 4, "市区町村コード": 216, "所在地": "宮城県富谷市三ノ関坂ノ下１１６番地１", "緯度": 38.408051, "経度": 140.891708, "url": "https://www.iryou.teikyouseido.mhlw.go.jp/znk-web/juminkanja/S2430/initialize?prefCd=04&kikanCd=705084&kikanKbn=1", "url2": "https://satoh-hospital.jimdosite.com/", "内容": "医療法人社団　蔵王会　佐藤病院【1:病院】【診療科目:神経内科_精神科】【一般病床数:0療養病床数:0精神病床数:120感染症病床数:0合計病床数:120】宮城県富谷市三ノ関坂ノ下１１６番地１" }, "geometry": { "type": "Point", "coordinates": [ 140.891708, 38.408051 ] } },
{ "type": "Feature", "properties": { "ID": 41705240, "正式名称": "石巻市立病院", "機関区分": 1, "都道府県コード": 4, "市区町村コード": 202, "所在地": "宮城県石巻市穀町１５－１", "緯度": 38.434947, "経度": 141.301517, "url": "https://www.iryou.teikyouseido.mhlw.go.jp/znk-web/juminkanja/S2430/initialize?prefCd=04&kikanCd=705240&kikanKbn=1", "url2": "https://ishinomaki-city-hospital.jp", "内容": "石巻市立病院【1:病院】【診療科目:内科_循環器内科_消化器内科_緩和ケア内科_外科_整形外科_眼科_耳鼻いんこう科_皮膚科_リハビリテーション科_放射線診断科_麻酔科】【一般病床数:140療養病床数:40精神病床数:0感染症病床数:0合計病床数:180】宮城県石巻市穀町１５－１" }, "geometry": { "type": "Point", "coordinates": [ 141.301517, 38.434947 ] } },
{ "type": "Feature", "properties": { "ID": 41800076, "正式名称": "公益財団法人宮城厚生協会泉病院", "機関区分": 1, "都道府県コード": 4, "市区町村コード": 105, "所在地": "宮城県仙台市泉区長命ケ丘２丁目１－１", "緯度": 38.31699, "経度": 140.843307, "url": "https://www.iryou.teikyouseido.mhlw.go.jp/znk-web/juminkanja/S2430/initialize?prefCd=04&kikanCd=800076&kikanKbn=1", "url2": "https://www.m-kousei.com/izumi/", "内容": "公益財団法人宮城厚生協会泉病院【1:病院】【診療科目:内科_脳神経内科_脳神経外科_リハビリテーション科_放射線科】【一般病床数:94療養病床数:0精神病床数:0感染症病床数:0合計病床数:94】宮城県仙台市泉区長命ケ丘２丁目１－１" }, "geometry": { "type": "Point", "coordinates": [ 140.843307, 38.31699 ] } },
{ "type": "Feature", "properties": { "ID": 41800201, "正式名称": "台原高柳病院", "機関区分": 1, "都道府県コード": 4, "市区町村コード": 101, "所在地": "宮城県仙台市青葉区台原", "緯度": 38.280846, "経度": 140.877325, "url": "https://www.iryou.teikyouseido.mhlw.go.jp/znk-web/juminkanja/S2430/initialize?prefCd=04&kikanCd=800201&kikanKbn=1", "url2": "http://www.dainohara-takayanagi-hp.com", "内容": "台原高柳病院【1:病院】【診療科目:内科_消化器内科_精神科_心療内科】【一般病床数:0療養病床数:0精神病床数:120感染症病床数:0合計病床数:120】宮城県仙台市青葉区台原" }, "geometry": { "type": "Point", "coordinates": [ 140.877325, 38.280846 ] } },
{ "type": "Feature", "properties": { "ID": 41800202, "正式名称": "医療法人　東北会　東北会病院", "機関区分": 1, "都道府県コード": 4, "市区町村コード": 101, "所在地": "宮城県仙台市青葉区柏木１丁目８－７", "緯度": 38.275439, "経度": 140.86052, "url": "https://www.iryou.teikyouseido.mhlw.go.jp/znk-web/juminkanja/S2430/initialize?prefCd=04&kikanCd=800202&kikanKbn=1", "url2": "http://www.tohokukai.com/", "内容": "医療法人　東北会　東北会病院【1:病院】【診療科目:精神科】【一般病床数:0療養病床数:0精神病床数:213感染症病床数:0合計病床数:213】宮城県仙台市青葉区柏木１丁目８－７" }, "geometry": { "type": "Point", "coordinates": [ 140.86052, 38.275439 ] } },
{ "type": "Feature", "properties": { "ID": 41800203, "正式名称": "国見台病院", "機関区分": 1, "都道府県コード": 4, "市区町村コード": 101, "所在地": "宮城県仙台市青葉区国見１丁目１５－２２", "緯度": 38.278107, "経度": 140.844635, "url": "https://www.iryou.teikyouseido.mhlw.go.jp/znk-web/juminkanja/S2430/initialize?prefCd=04&kikanCd=800203&kikanKbn=1", "url2": "https://www.kunimidai.com", "内容": "国見台病院【1:病院】【診療科目:精神科】【一般病床数:0療養病床数:0精神病床数:286感染症病床数:0合計病床数:286】宮城県仙台市青葉区国見１丁目１５－２２" }, "geometry": { "type": "Point", "coordinates": [ 140.844635, 38.278107 ] } },
{ "type": "Feature", "properties": { "ID": 41800204, "正式名称": "独立行政法人地域医療機能推進機構仙台病院", "機関区分": 1, "都道府県コード": 4, "市区町村コード": 105, "所在地": "宮城県仙台市泉区紫山２丁目１－１", "緯度": 38.291021, "経度": 140.870532, "url": "https://www.iryou.teikyouseido.mhlw.go.jp/znk-web/juminkanja/S2430/initialize?prefCd=04&kikanCd=800204&kikanKbn=1", "url2": "http://sendai.jcho.go.jp", "内容": "独立行政法人地域医療機能推進機構仙台病院【1:病院】【診療科目:内科_糖尿病内科_呼吸器内科_循環器内科_消化器内科_腎臓内科_外科_心臓血管外科_乳腺外科_移植外科_整形外科_小児科_婦人科_眼科_耳鼻いんこう科_皮膚科_泌尿器科_歯科口腔外科_リハビリテーション科_放射線科_麻酔科】【一般病床数:384療養病床数:0精神病床数:0感染症病床数:0合計病床数:384】宮城県仙台市泉区紫山２丁目１－１" }, "geometry": { "type": "Point", "coordinates": [ 140.870532, 38.291021 ] } },
{ "type": "Feature", "properties": { "ID": 41800228, "正式名称": "医療法人宏人会木町病院", "機関区分": 1, "都道府県コード": 4, "市区町村コード": 101, "所在地": "宮城県仙台市青葉区木町通１丁目７番１３号", "緯度": 38.270161, "経度": 140.863425, "url": "https://www.iryou.teikyouseido.mhlw.go.jp/znk-web/juminkanja/S2430/initialize?prefCd=04&kikanCd=800228&kikanKbn=1", "url2": "http://www.koujinkai-med.or.jp", "内容": "医療法人宏人会木町病院【1:病院】【診療科目:内科_泌尿器科】【一般病床数:53療養病床数:0精神病床数:0感染症病床数:0合計病床数:53】宮城県仙台市青葉区木町通１丁目７番１３号" }, "geometry": { "type": "Point", "coordinates": [ 140.863425, 38.270161 ] } },
{ "type": "Feature", "properties": { "ID": 41800229, "正式名称": "医療法人光成会　宮城中央病院", "機関区分": 1, "都道府県コード": 4, "市区町村コード": 101, "所在地": "宮城県仙台市青葉区上杉１丁目９－１７", "緯度": 38.271201, "経度": 140.871311, "url": "https://www.iryou.teikyouseido.mhlw.go.jp/znk-web/juminkanja/S2430/initialize?prefCd=04&kikanCd=800229&kikanKbn=1", "url2": "http://www.miyachu-hp.or.jp", "内容": "医療法人光成会　宮城中央病院【1:病院】【診療科目:内科_循環器内科_消化器内科_整形外科_泌尿器科_精神科_リハビリテーション科】【一般病床数:55療養病床数:0精神病床数:0感染症病床数:0合計病床数:55】宮城県仙台市青葉区上杉１丁目９－１７" }, "geometry": { "type": "Point", "coordinates": [ 140.871311, 38.271201 ] } },
{ "type": "Feature", "properties": { "ID": 41800239, "正式名称": "貝山中央病院", "機関区分": 1, "都道府県コード": 4, "市区町村コード": 101, "所在地": "宮城県仙台市青葉区大町２丁目１２番８号", "緯度": 38.260604, "経度": 140.866569, "url": "https://www.iryou.teikyouseido.mhlw.go.jp/znk-web/juminkanja/S2430/initialize?prefCd=04&kikanCd=800239&kikanKbn=1", "url2": "http://www.kaiyama.com", "内容": "貝山中央病院【1:病院】【診療科目:内科_糖尿病内科_呼吸器内科_整形外科_心療内科_アレルギー科_リウマチ科_リハビリテーション科】【一般病床数:0療養病床数:60精神病床数:0感染症病床数:0合計病床数:60】宮城県仙台市青葉区大町２丁目１２番８号" }, "geometry": { "type": "Point", "coordinates": [ 140.866569, 38.260604 ] } },
{ "type": "Feature", "properties": { "ID": 41800240, "正式名称": "ＪＲ仙台病院", "機関区分": 1, "都道府県コード": 4, "市区町村コード": 101, "所在地": "宮城県仙台市青葉区五橋１丁目１－５", "緯度": 38.25565, "経度": 140.880774, "url": "https://www.iryou.teikyouseido.mhlw.go.jp/znk-web/juminkanja/S2430/initialize?prefCd=04&kikanCd=800240&kikanKbn=1", "url2": "https://jrsendai-hospital.jp/", "内容": "ＪＲ仙台病院【1:病院】【診療科目:内科_循環器内科_消化器内科_腫瘍内科_緩和ケア内科_外科_整形外科_小児科_婦人科_眼科_耳鼻いんこう科_皮膚科_泌尿器科_精神科_神経科】【一般病床数:164療養病床数:0精神病床数:0感染症病床数:0合計病床数:164】宮城県仙台市青葉区五橋１丁目１－５" }, "geometry": { "type": "Point", "coordinates": [ 140.880774, 38.25565 ] } },
{ "type": "Feature", "properties": { "ID": 41800243, "正式名称": "仙台厚生病院", "機関区分": 1, "都道府県コード": 4, "市区町村コード": 101, "所在地": "宮城県仙台市青葉区堤通雨宮町１番２０号", "緯度": 38.276104, "経度": 140.870083, "url": "https://www.iryou.teikyouseido.mhlw.go.jp/znk-web/juminkanja/S2430/initialize?prefCd=04&kikanCd=800243&kikanKbn=1", "url2": "http://www.sendai-kousei-hospital.jp/", "内容": "仙台厚生病院【1:病院】【診療科目:内科_糖尿病・代謝内科_呼吸器内科_循環器内科_消化器内科_肝臓内科_外科_呼吸器外科_心臓血管外科_消化器外科_形成外科_放射線科_病理診断科_臨床検査科_麻酔科】【一般病床数:409療養病床数:0精神病床数:0感染症病床数:0合計病床数:409】宮城県仙台市青葉区堤通雨宮町１番２０号" }, "geometry": { "type": "Point", "coordinates": [ 140.870083, 38.276104 ] } },
{ "type": "Feature", "properties": { "ID": 41800245, "正式名称": "医療法人財団　明理会　イムス明理会仙台総合病院", "機関区分": 1, "都道府県コード": 4, "市区町村コード": 101, "所在地": "宮城県仙台市青葉区中央４－５－１", "緯度": 38.257603, "経度": 140.877365, "url": "https://www.iryou.teikyouseido.mhlw.go.jp/znk-web/juminkanja/S2430/initialize?prefCd=04&kikanCd=800245&kikanKbn=1", "url2": "http://www.ims.gr.jp/sendai/", "内容": "医療法人財団　明理会　イムス明理会仙台総合病院【1:病院】【診療科目:内科_消化器内科_神経内科_外科_脳神経外科_整形外科_形成外科_婦人科_眼科_耳鼻いんこう科_皮膚科_泌尿器科_心療内科_リハビリテーション科_麻酔科】【一般病床数:130療養病床数:0精神病床数:0感染症病床数:0合計病床数:130】宮城県仙台市青葉区中央４－５－１" }, "geometry": { "type": "Point", "coordinates": [ 140.877365, 38.257603 ] } },
{ "type": "Feature", "properties": { "ID": 41800246, "正式名称": "国家公務員共済組合連合会東北公済病院", "機関区分": 1, "都道府県コード": 4, "市区町村コード": 101, "所在地": "宮城県仙台市青葉区国分町２－３－１１", "緯度": 38.262615, "経度": 140.868088, "url": "https://www.iryou.teikyouseido.mhlw.go.jp/znk-web/juminkanja/S2430/initialize?prefCd=04&kikanCd=800246&kikanKbn=1", "url2": "https://tohokukosai.kkr.or.jp", "内容": "国家公務員共済組合連合会東北公済病院【1:病院】【診療科目:内科_呼吸器内科_循環器内科_脳神経外科_消化器外科_乳腺外科_整形外科_形成外科_小児科_産科_婦人科_眼科_耳鼻いんこう科_泌尿器科_歯科口腔外科_リハビリテーション科_放射線科_病理診断科_麻酔科】【一般病床数:375療養病床数:0精神病床数:0感染症病床数:0合計病床数:375】宮城県仙台市青葉区国分町２－３－１１" }, "geometry": { "type": "Point", "coordinates": [ 140.868088, 38.262615 ] } },
{ "type": "Feature", "properties": { "ID": 41800247, "正式名称": "一般財団法人周行会　内科佐藤病院", "機関区分": 1, "都道府県コード": 4, "市区町村コード": 101, "所在地": "宮城県仙台市青葉区上杉２－３－１７", "緯度": 38.272758, "経度": 140.869171, "url": "https://www.iryou.teikyouseido.mhlw.go.jp/znk-web/juminkanja/S2430/initialize?prefCd=04&kikanCd=800247&kikanKbn=1", "url2": "https://shukokai.or.jp", "内容": "一般財団法人周行会　内科佐藤病院【1:病院】【診療科目:内科_糖尿病内科_脳神経内科_呼吸器内科_循環器内科_消化器内科_児童精神科_小児心療内科_リハビリテーション科】【一般病床数:40療養病床数:41精神病床数:0感染症病床数:0合計病床数:81】宮城県仙台市青葉区上杉２－３－１７" }, "geometry": { "type": "Point", "coordinates": [ 140.869171, 38.272758 ] } },
{ "type": "Feature", "properties": { "ID": 41800248, "正式名称": "早坂愛生会病院", "機関区分": 1, "都道府県コード": 4, "市区町村コード": 101, "所在地": "宮城県仙台市青葉区川内澱橋通３８", "緯度": 38.265129, "経度": 140.85585, "url": "https://www.iryou.teikyouseido.mhlw.go.jp/znk-web/juminkanja/S2430/initialize?prefCd=04&kikanCd=800248&kikanKbn=1", "url2": "http://www.ai-byoin.jp", "内容": "早坂愛生会病院【1:病院】【診療科目:内科_外科】【一般病床数:0療養病床数:52精神病床数:0感染症病床数:0合計病床数:52】宮城県仙台市青葉区川内澱橋通３８" }, "geometry": { "type": "Point", "coordinates": [ 140.85585, 38.265129 ] } },
{ "type": "Feature", "properties": { "ID": 41800261, "正式名称": "医療法人泉仁会　仙台中江病院", "機関区分": 1, "都道府県コード": 4, "市区町村コード": 101, "所在地": "宮城県仙台市青葉区中江１丁目１０－１８", "緯度": 38.274445, "経度": 140.889664, "url": "https://www.iryou.teikyouseido.mhlw.go.jp/znk-web/juminkanja/S2430/initialize?prefCd=04&kikanCd=800261&kikanKbn=1", "url2": "http://sendainakae-hp.jp", "内容": "医療法人泉仁会　仙台中江病院【1:病院】【診療科目:内科_神経内科_リハビリテーション科】【一般病床数:30療養病床数:30精神病床数:0感染症病床数:0合計病床数:60】宮城県仙台市青葉区中江１丁目１０－１８" }, "geometry": { "type": "Point", "coordinates": [ 140.889664, 38.274445 ] } },
{ "type": "Feature", "properties": { "ID": 41800264, "正式名称": "医療法人　社団　初心会　杜のホスピタル・あおば", "機関区分": 1, "都道府県コード": 4, "市区町村コード": 101, "所在地": "宮城県仙台市青葉区八幡６丁目９－３", "緯度": 38.266098, "経度": 140.835068, "url": "https://www.iryou.teikyouseido.mhlw.go.jp/znk-web/juminkanja/S2430/initialize?prefCd=04&kikanCd=800264&kikanKbn=1", "url2": "http://shosinkai.jp", "内容": "医療法人　社団　初心会　杜のホスピタル・あおば【1:病院】【診療科目:内科_精神科】【一般病床数:0療養病床数:0精神病床数:99感染症病床数:0合計病床数:99】宮城県仙台市青葉区八幡６丁目９－３" }, "geometry": { "type": "Point", "coordinates": [ 140.835068, 38.266098 ] } },
{ "type": "Feature", "properties": { "ID": 41800265, "正式名称": "医療法人松田会　伊藤病院", "機関区分": 1, "都道府県コード": 4, "市区町村コード": 101, "所在地": "宮城県仙台市青葉区二日町８－８", "緯度": 38.269825, "経度": 140.866388, "url": "https://www.iryou.teikyouseido.mhlw.go.jp/znk-web/juminkanja/S2430/initialize?prefCd=04&kikanCd=800265&kikanKbn=1", "url2": "http://www.matsudakai.jp/ihp/", "内容": "医療法人松田会　伊藤病院【1:病院】【診療科目:循環器内科_外科_整形外科_リハビリテーション科】【一般病床数:40療養病床数:0精神病床数:0感染症病床数:0合計病床数:40】宮城県仙台市青葉区二日町８－８" }, "geometry": { "type": "Point", "coordinates": [ 140.866388, 38.269825 ] } },
{ "type": "Feature", "properties": { "ID": 41800303, "正式名称": "岩切病院", "機関区分": 1, "都道府県コード": 4, "市区町村コード": 102, "所在地": "宮城県仙台市宮城野区岩切字稲荷２１", "緯度": 38.300708, "経度": 140.938212, "url": "https://www.iryou.teikyouseido.mhlw.go.jp/znk-web/juminkanja/S2430/initialize?prefCd=04&kikanCd=800303&kikanKbn=1", "url2": "http://www.iwakiri-hp.jp", "内容": "岩切病院【1:病院】【診療科目:内科_呼吸器内科_循環器内科_消化器内科_整形外科_形成外科_小児科_皮膚科_精神科_アレルギー科_リハビリテーション科】【一般病床数:42療養病床数:58精神病床数:0感染症病床数:0合計病床数:100】宮城県仙台市宮城野区岩切字稲荷２１" }, "geometry": { "type": "Point", "coordinates": [ 140.938212, 38.300708 ] } },
{ "type": "Feature", "properties": { "ID": 41800304, "正式名称": "仙台東脳神経外科病院", "機関区分": 1, "都道府県コード": 4, "市区町村コード": 102, "所在地": "宮城県仙台市宮城野区岩切１丁目１２番１号", "緯度": 38.291233, "経度": 140.936356, "url": "https://www.iryou.teikyouseido.mhlw.go.jp/znk-web/juminkanja/S2430/initialize?prefCd=04&kikanCd=800304&kikanKbn=1", "url2": "http://www.noukenkai.jp/", "内容": "仙台東脳神経外科病院【1:病院】【診療科目:内科_脳神経内科_脳神経外科_整形外科_リハビリテーション科_放射線科_麻酔科】【一般病床数:93療養病床数:0精神病床数:0感染症病床数:0合計病床数:93】宮城県仙台市宮城野区岩切１丁目１２番１号" }, "geometry": { "type": "Point", "coordinates": [ 140.936356, 38.291233 ] } },
{ "type": "Feature", "properties": { "ID": 41800305, "正式名称": "安田病院", "機関区分": 1, "都道府県コード": 4, "市区町村コード": 102, "所在地": "宮城県仙台市宮城野区小田原２－２－４０", "緯度": 38.263809, "経度": 140.895523, "url": "https://www.iryou.teikyouseido.mhlw.go.jp/znk-web/juminkanja/S2430/initialize?prefCd=04&kikanCd=800305&kikanKbn=1", "url2": "http://www.hospyd.com/", "内容": "安田病院【1:病院】【診療科目:外科_精神科】【一般病床数:20療養病床数:0精神病床数:104感染症病床数:0合計病床数:124】宮城県仙台市宮城野区小田原２－２－４０" }, "geometry": { "type": "Point", "coordinates": [ 140.895523, 38.263809 ] } },
{ "type": "Feature", "properties": { "ID": 41800306, "正式名称": "光ヶ丘スペルマン病院", "機関区分": 1, "都道府県コード": 4, "市区町村コード": 102, "所在地": "宮城県仙台市宮城野区東仙台６－７－１", "緯度": 38.279097, "経度": 140.91116, "url": "https://www.iryou.teikyouseido.mhlw.go.jp/znk-web/juminkanja/S2430/initialize?prefCd=04&kikanCd=800306&kikanKbn=1", "url2": "http://spellman.or.jp", "内容": "光ヶ丘スペルマン病院【1:病院】【診療科目:内科_呼吸器内科_神経内科_漢方内科_老年内科_緩和ケア内科_小児科_産婦人科_皮膚科_アレルギー科_リウマチ科】【一般病床数:140療養病床数:0精神病床数:0感染症病床数:0合計病床数:140】宮城県仙台市宮城野区東仙台６－７－１" }, "geometry": { "type": "Point", "coordinates": [ 140.91116, 38.279097 ] } },
{ "type": "Feature", "properties": { "ID": 41800313, "正式名称": "大崎市民病院岩出山分院", "機関区分": 1, "都道府県コード": 4, "市区町村コード": 215, "所在地": "宮城県大崎市岩出山下川原町８４番地２９", "緯度": 38.657571, "経度": 140.869688, "url": "https://www.iryou.teikyouseido.mhlw.go.jp/znk-web/juminkanja/S2430/initialize?prefCd=04&kikanCd=800313&kikanKbn=1", "url2": "https://www.h-osaki.jp/iwadeyama/", "内容": "大崎市民病院岩出山分院【1:病院】【診療科目:内科_外科_眼科_精神科】【一般病床数:40療養病床数:0精神病床数:0感染症病床数:0合計病床数:40】宮城県大崎市岩出山下川原町８４番地２９" }, "geometry": { "type": "Point", "coordinates": [ 140.869688, 38.657571 ] } },
{ "type": "Feature", "properties": { "ID": 41800323, "正式名称": "医療法人社団　仁徳会　徳永整形外科病院", "機関区分": 1, "都道府県コード": 4, "市区町村コード": 215, "所在地": "宮城県大崎市古川北町２－５－１２", "緯度": 38.57971, "経度": 140.965171, "url": "https://www.iryou.teikyouseido.mhlw.go.jp/znk-web/juminkanja/S2430/initialize?prefCd=04&kikanCd=800323&kikanKbn=1", "url2": "https://www.nintokukai.or.jp", "内容": "医療法人社団　仁徳会　徳永整形外科病院【1:病院】【診療科目:内科_整形外科_リウマチ科_リハビリテーション科】【一般病床数:0療養病床数:57精神病床数:0感染症病床数:0合計病床数:57】宮城県大崎市古川北町２－５－１２" }, "geometry": { "type": "Point", "coordinates": [ 140.965171, 38.57971 ] } },
{ "type": "Feature", "properties": { "ID": 41800324, "正式名称": "医療法人社団慈篤会　三浦病院", "機関区分": 1, "都道府県コード": 4, "市区町村コード": 215, "所在地": "宮城県大崎市古川三日町二丁目３番４５号", "緯度": 38.573006, "経度": 140.955688, "url": "https://www.iryou.teikyouseido.mhlw.go.jp/znk-web/juminkanja/S2430/initialize?prefCd=04&kikanCd=800324&kikanKbn=1", "url2": "https://www.miura-hospital.com/", "内容": "医療法人社団慈篤会　三浦病院【1:病院】【診療科目:内科_脳神経内科_消化器内科_外科_リハビリテーション科】【一般病床数:39療養病床数:37精神病床数:0感染症病床数:0合計病床数:76】宮城県大崎市古川三日町二丁目３番４５号" }, "geometry": { "type": "Point", "coordinates": [ 140.955688, 38.573006 ] } },
{ "type": "Feature", "properties": { "ID": 41800325, "正式名称": "古川星陵病院", "機関区分": 1, "都道府県コード": 4, "市区町村コード": 215, "所在地": "宮城県大崎市古川南町三丁目１番３ー５号", "緯度": 38.570183, "経度": 140.953766, "url": "https://www.iryou.teikyouseido.mhlw.go.jp/znk-web/juminkanja/S2430/initialize?prefCd=04&kikanCd=800325&kikanKbn=1", "url2": null, "内容": "古川星陵病院【1:病院】【診療科目:内科_呼吸器内科_循環器内科_脳神経外科_放射線科】【一般病床数:99療養病床数:0精神病床数:0感染症病床数:0合計病床数:99】宮城県大崎市古川南町三丁目１番３ー５号" }, "geometry": { "type": "Point", "coordinates": [ 140.953766, 38.570183 ] } },
{ "type": "Feature", "properties": { "ID": 41800326, "正式名称": "自衛隊仙台病院", "機関区分": 1, "都道府県コード": 4, "市区町村コード": 102, "所在地": "宮城県仙台市宮城野区南目館１－１", "緯度": 38.262072, "経度": 140.916008, "url": "https://www.iryou.teikyouseido.mhlw.go.jp/znk-web/juminkanja/S2430/initialize?prefCd=04&kikanCd=800326&kikanKbn=1", "url2": "http://www.mod.go.jp/gsdf/neae/sendaihosp/sendaihosp/", "内容": "自衛隊仙台病院【1:病院】【診療科目:内科_外科_整形外科_小児科_眼科_麻酔科】【一般病床数:135療養病床数:0精神病床数:15感染症病床数:0合計病床数:150】宮城県仙台市宮城野区南目館１－１" }, "geometry": { "type": "Point", "coordinates": [ 140.916008, 38.262072 ] } },
{ "type": "Feature", "properties": { "ID": 41800328, "正式名称": "中嶋病院", "機関区分": 1, "都道府県コード": 4, "市区町村コード": 102, "所在地": "宮城県仙台市宮城野区大梶１５番２７号", "緯度": 38.272406, "経度": 140.906806, "url": "https://www.iryou.teikyouseido.mhlw.go.jp/znk-web/juminkanja/S2430/initialize?prefCd=04&kikanCd=800328&kikanKbn=1", "url2": "https://www.nakajima-hs.or.jp/", "内容": "中嶋病院【1:病院】【診療科目:内科_循環器内科_消化器内科_外科_脳神経外科_消化器外科_肛門外科_整形外科_リハビリテーション科_麻酔科】【一般病床数:101療養病床数:50精神病床数:0感染症病床数:0合計病床数:151】宮城県仙台市宮城野区大梶１５番２７号" }, "geometry": { "type": "Point", "coordinates": [ 140.906806, 38.272406 ] } },
{ "type": "Feature", "properties": { "ID": 41800329, "正式名称": "公益財団法人　仙台市医療センター　仙台オープン病院", "機関区分": 1, "都道府県コード": 4, "市区町村コード": 102, "所在地": "宮城県仙台市宮城野区鶴ケ谷５－２２－１", "緯度": 38.294479, "経度": 140.917176, "url": "https://www.iryou.teikyouseido.mhlw.go.jp/znk-web/juminkanja/S2430/initialize?prefCd=04&kikanCd=800329&kikanKbn=1", "url2": "https://www.openhp.or.jp", "内容": "公益財団法人　仙台市医療センター　仙台オープン病院【1:病院】【診療科目:内科_呼吸器内科_循環器内科_消化器内科_腫瘍内科_緩和ケア内科_外科_脳神経外科_呼吸器外科_心臓血管外科_消化器外科_乳腺外科_整形外科_小児科_婦人科_眼科_耳鼻いんこう科_皮膚科_泌尿器科_歯科_放射線科_病理診断科_救急科_麻酔科】【一般病床数:330療養病床数:0精神病床数:0感染症病床数:0合計病床数:330】宮城県仙台市宮城野区鶴ケ谷５－２２－１" }, "geometry": { "type": "Point", "coordinates": [ 140.917176, 38.294479 ] } },
{ "type": "Feature", "properties": { "ID": 41800333, "正式名称": "医療法人　啓仁会　石巻ロイヤル病院", "機関区分": 1, "都道府県コード": 4, "市区町村コード": 202, "所在地": "宮城県石巻市広渕字焼巻２番地", "緯度": 38.471687, "経度": 141.213898, "url": "https://www.iryou.teikyouseido.mhlw.go.jp/znk-web/juminkanja/S2430/initialize?prefCd=04&kikanCd=800333&kikanKbn=1", "url2": "https://www.wam-town.jp/ishinomaki/", "内容": "医療法人　啓仁会　石巻ロイヤル病院【1:病院】【診療科目:内科_循環器内科_消化器内科_神経内科_外科_整形外科_婦人科_リウマチ科_リハビリテーション科】【一般病床数:60療養病床数:170精神病床数:0感染症病床数:0合計病床数:230】宮城県石巻市広渕字焼巻２番地" }, "geometry": { "type": "Point", "coordinates": [ 141.213898, 38.471687 ] } },
{ "type": "Feature", "properties": { "ID": 41800370, "正式名称": "医療法人社団仙石病院", "機関区分": 1, "都道府県コード": 4, "市区町村コード": 214, "所在地": "宮城県東松島市赤井字台５３－７", "緯度": 38.431641, "経度": 141.258069, "url": "https://www.iryou.teikyouseido.mhlw.go.jp/znk-web/juminkanja/S2430/initialize?prefCd=04&kikanCd=800370&kikanKbn=1", "url2": "https://senseki.com/", "内容": "医療法人社団仙石病院【1:病院】【診療科目:循環器内科_消化器内科_脳神経外科_泌尿器科_麻酔科】【一般病床数:120療養病床数:0精神病床数:0感染症病床数:0合計病床数:120】宮城県東松島市赤井字台５３－７" }, "geometry": { "type": "Point", "coordinates": [ 141.258069, 38.431641 ] } },
{ "type": "Feature", "properties": { "ID": 41800371, "正式名称": "医療法人医徳会　真壁病院", "機関区分": 1, "都道府県コード": 4, "市区町村コード": 214, "所在地": "宮城県東松島市矢本字鹿石前１０９－４", "緯度": 38.403761, "経度": 141.188659, "url": "https://www.iryou.teikyouseido.mhlw.go.jp/znk-web/juminkanja/S2430/initialize?prefCd=04&kikanCd=800371&kikanKbn=1", "url2": "http://www.itokukai.or.jp/makabe/mindex.htm", "内容": "医療法人医徳会　真壁病院【1:病院】【診療科目:内科_循環器内科_消化器内科_人工透析内科_外科_心臓血管外科_消化器外科_整形外科_小児科_泌尿器科_リハビリテーション科】【一般病床数:48療養病床数:91精神病床数:0感染症病床数:0合計病床数:139】宮城県東松島市矢本字鹿石前１０９－４" }, "geometry": { "type": "Point", "coordinates": [ 141.188659, 38.403761 ] } },
{ "type": "Feature", "properties": { "ID": 41800383, "正式名称": "公立加美病院", "機関区分": 1, "都道府県コード": 4, "市区町村コード": 444, "所在地": "宮城県加美郡色麻町四竃字杉成９", "緯度": 38.551971, "経度": 140.849106, "url": "https://www.iryou.teikyouseido.mhlw.go.jp/znk-web/juminkanja/S2430/initialize?prefCd=04&kikanCd=800383&kikanKbn=1", "url2": "https://kami-hospital.jp", "内容": "公立加美病院【1:病院】【診療科目:内科_循環器内科_外科_小児科_耳鼻いんこう科_皮膚科_リハビリテーション科】【一般病床数:40療養病床数:50精神病床数:0感染症病床数:0合計病床数:90】宮城県加美郡色麻町四竃字杉成９" }, "geometry": { "type": "Point", "coordinates": [ 140.849106, 38.551971 ] } },
{ "type": "Feature", "properties": { "ID": 41800414, "正式名称": "星陵あすか病院", "機関区分": 1, "都道府県コード": 4, "市区町村コード": 215, "所在地": "宮城県大崎市古川稲葉２－３－１５", "緯度": 38.556101, "経度": 140.952761, "url": "https://www.iryou.teikyouseido.mhlw.go.jp/znk-web/juminkanja/S2430/initialize?prefCd=04&kikanCd=800414&kikanKbn=1", "url2": null, "内容": "星陵あすか病院【1:病院】【診療科目:内科_人工透析内科_リハビリテーション科】【一般病床数:0療養病床数:300精神病床数:0感染症病床数:0合計病床数:300】宮城県大崎市古川稲葉２－３－１５" }, "geometry": { "type": "Point", "coordinates": [ 140.952761, 38.556101 ] } },
{ "type": "Feature", "properties": { "ID": 41800528, "正式名称": "医療法人　ベテール　てんかん病院　ベーテル", "機関区分": 1, "都道府県コード": 4, "市区町村コード": 211, "所在地": "宮城県岩沼市北長谷字畑向山南２７番地４", "緯度": 38.108425, "経度": 140.840698, "url": "https://www.iryou.teikyouseido.mhlw.go.jp/znk-web/juminkanja/S2430/initialize?prefCd=04&kikanCd=800528&kikanKbn=1", "url2": "http://www.bethel-japan.com/", "内容": "医療法人　ベテール　てんかん病院　ベーテル【1:病院】【診療科目:神経内科_小児科_精神科】【一般病床数:0療養病床数:0精神病床数:41感染症病床数:0合計病床数:41】宮城県岩沼市北長谷字畑向山南２７番地４" }, "geometry": { "type": "Point", "coordinates": [ 140.840698, 38.108425 ] } },
{ "type": "Feature", "properties": { "ID": 41800529, "正式名称": "医療法人社団スズキ病院　スズキ記念病院", "機関区分": 1, "都道府県コード": 4, "市区町村コード": 211, "所在地": "宮城県岩沼市里の杜３丁目５－５", "緯度": 38.109232, "経度": 140.878923, "url": "https://www.iryou.teikyouseido.mhlw.go.jp/znk-web/juminkanja/S2430/initialize?prefCd=04&kikanCd=800529&kikanKbn=1", "url2": "http://suzukihp.or.jp", "内容": "医療法人社団スズキ病院　スズキ記念病院【1:病院】【診療科目:小児科_小児外科_産科_婦人科_産婦人科（生殖医療）】【一般病床数:74療養病床数:0精神病床数:0感染症病床数:0合計病床数:74】宮城県岩沼市里の杜３丁目５－５" }, "geometry": { "type": "Point", "coordinates": [ 140.878923, 38.109232 ] } },
{ "type": "Feature", "properties": { "ID": 41800530, "正式名称": "総合南東北病院", "機関区分": 1, "都道府県コード": 4, "市区町村コード": 211, "所在地": "宮城県岩沼市里の杜１丁目２－５", "緯度": 38.108588, "経度": 140.876166, "url": "https://www.iryou.teikyouseido.mhlw.go.jp/znk-web/juminkanja/S2430/initialize?prefCd=04&kikanCd=800530&kikanKbn=1", "url2": "http://www.minamitohoku.jp", "内容": "総合南東北病院【1:病院】【診療科目:内科_呼吸器内科_循環器内科_消化器内科_神経内科_外科_脳神経外科_整形外科_形成外科_泌尿器科_リハビリテーション科_救急科_麻酔科】【一般病床数:271療養病床数:0精神病床数:0感染症病床数:0合計病床数:271】宮城県岩沼市里の杜１丁目２－５" }, "geometry": { "type": "Point", "coordinates": [ 140.876166, 38.108588 ] } },
{ "type": "Feature", "properties": { "ID": 41800532, "正式名称": "医療法人　小島慈恵会　小島病院", "機関区分": 1, "都道府県コード": 4, "市区町村コード": 211, "所在地": "宮城県岩沼市桜一丁目２番２５号", "緯度": 38.104505, "経度": 140.868775, "url": "https://www.iryou.teikyouseido.mhlw.go.jp/znk-web/juminkanja/S2430/initialize?prefCd=04&kikanCd=800532&kikanKbn=1", "url2": "http://www.ojima.or.jp", "内容": "医療法人　小島慈恵会　小島病院【1:病院】【診療科目:内科_精神科_心療内科】【一般病床数:0療養病床数:0精神病床数:150感染症病床数:0合計病床数:150】宮城県岩沼市桜一丁目２番２５号" }, "geometry": { "type": "Point", "coordinates": [ 140.868775, 38.104505 ] } },
{ "type": "Feature", "properties": { "ID": 41800583, "正式名称": "医療法人社団　脳健会　仙台リハビリテーション病院", "機関区分": 1, "都道府県コード": 4, "市区町村コード": 216, "所在地": "宮城県富谷市成田１丁目３－１", "緯度": 38.366535, "経度": 140.890991, "url": "https://www.iryou.teikyouseido.mhlw.go.jp/znk-web/juminkanja/S2430/initialize?prefCd=04&kikanCd=800583&kikanKbn=1", "url2": "http://www.sendai-reha.or.jp", "内容": "医療法人社団　脳健会　仙台リハビリテーション病院【1:病院】【診療科目:内科_脳神経外科_リハビリテーション科】【一般病床数:0療養病床数:82精神病床数:0感染症病床数:0合計病床数:82】宮城県富谷市成田１丁目３－１" }, "geometry": { "type": "Point", "coordinates": [ 140.890991, 38.366535 ] } },
{ "type": "Feature", "properties": { "ID": 41800584, "正式名称": "医療法人　盟陽会　富谷中央病院", "機関区分": 1, "都道府県コード": 4, "市区町村コード": 216, "所在地": "宮城県富谷市上桜木２丁目１番地６", "緯度": 38.362502, "経度": 140.87946, "url": "https://www.iryou.teikyouseido.mhlw.go.jp/znk-web/juminkanja/S2430/initialize?prefCd=04&kikanCd=800584&kikanKbn=1", "url2": "http://www.cl-meiyo.org", "内容": "医療法人　盟陽会　富谷中央病院【1:病院】【診療科目:内科_糖尿病内科_呼吸器内科_循環器内科_消化器内科_人工透析内科_眼科_皮膚科_歯科】【一般病床数:54療養病床数:110精神病床数:0感染症病床数:0合計病床数:164】宮城県富谷市上桜木２丁目１番地６" }, "geometry": { "type": "Point", "coordinates": [ 140.87946, 38.362502 ] } },
{ "type": "Feature", "properties": { "ID": 41800658, "正式名称": "南三陸病院", "機関区分": 1, "都道府県コード": 4, "市区町村コード": 606, "所在地": "宮城県本吉郡南三陸町志津川沼田１４番地３", "緯度": 38.678781, "経度": 141.462454, "url": "https://www.iryou.teikyouseido.mhlw.go.jp/znk-web/juminkanja/S2430/initialize?prefCd=04&kikanCd=800658&kikanKbn=1", "url2": "http://www.minamisanriku-hp.jp", "内容": "南三陸病院【1:病院】【診療科目:内科_外科_整形外科_小児科_婦人科_眼科_耳鼻いんこう科_皮膚科_泌尿器科_歯科口腔外科】【一般病床数:40療養病床数:50精神病床数:0感染症病床数:0合計病床数:90】宮城県本吉郡南三陸町志津川沼田１４番地３" }, "geometry": { "type": "Point", "coordinates": [ 141.462454, 38.678781 ] } },
{ "type": "Feature", "properties": { "ID": 41800670, "正式名称": "栗原市立栗駒病院", "機関区分": 1, "都道府県コード": 4, "市区町村コード": 213, "所在地": "宮城県栗原市栗駒岩ケ崎松木田１０－１", "緯度": 38.827026, "経度": 140.990707, "url": "https://www.iryou.teikyouseido.mhlw.go.jp/znk-web/juminkanja/S2430/initialize?prefCd=04&kikanCd=800670&kikanKbn=1", "url2": "http://www.kurikoma-hp.jp", "内容": "栗原市立栗駒病院【1:病院】【診療科目:内科_外科_整形外科_眼科_泌尿器科】【一般病床数:0療養病床数:45精神病床数:0感染症病床数:0合計病床数:45】宮城県栗原市栗駒岩ケ崎松木田１０－１" }, "geometry": { "type": "Point", "coordinates": [ 140.990707, 38.827026 ] } },
{ "type": "Feature", "properties": { "ID": 41800694, "正式名称": "医療法人財団弘慈会石橋病院", "機関区分": 1, "都道府県コード": 4, "市区町村コード": 213, "所在地": "宮城県栗原市若柳字川北堤下２７", "緯度": 38.775163, "経度": 141.127096, "url": "https://www.iryou.teikyouseido.mhlw.go.jp/znk-web/juminkanja/S2430/initialize?prefCd=04&kikanCd=800694&kikanKbn=1", "url2": "http://www.kojikai.jp", "内容": "医療法人財団弘慈会石橋病院【1:病院】【診療科目:内科_呼吸器内科_緩和ケア内科_整形外科_精神科_老年精神科_リウマチ科_リハビリテーション科】【一般病床数:0療養病床数:64精神病床数:46感染症病床数:0合計病床数:110】宮城県栗原市若柳字川北堤下２７" }, "geometry": { "type": "Point", "coordinates": [ 141.127096, 38.775163 ] } },
{ "type": "Feature", "properties": { "ID": 41800695, "正式名称": "栗原市立若柳病院", "機関区分": 1, "都道府県コード": 4, "市区町村コード": 213, "所在地": "宮城県栗原市若柳川北原畑２３－４", "緯度": 38.7701, "経度": 141.138123, "url": "https://www.iryou.teikyouseido.mhlw.go.jp/znk-web/juminkanja/S2430/initialize?prefCd=04&kikanCd=800695&kikanKbn=1", "url2": "http://wakayanagi.kuriharashi-nk.com/", "内容": "栗原市立若柳病院【1:病院】【診療科目:内科_外科_整形外科_形成外科_皮膚科_リハビリテーション科】【一般病床数:45療養病床数:30精神病床数:0感染症病床数:0合計病床数:75】宮城県栗原市若柳川北原畑２３－４" }, "geometry": { "type": "Point", "coordinates": [ 141.138123, 38.7701 ] } },
{ "type": "Feature", "properties": { "ID": 41800866, "正式名称": "石巻市立牡鹿病院", "機関区分": 1, "都道府県コード": 4, "市区町村コード": 202, "所在地": "宮城県石巻市鮎川浜清崎山７", "緯度": 38.299819, "経度": 141.499245, "url": "https://www.iryou.teikyouseido.mhlw.go.jp/znk-web/juminkanja/S2430/initialize?prefCd=04&kikanCd=800866&kikanKbn=1", "url2": null, "内容": "石巻市立牡鹿病院【1:病院】【診療科目:内科_外科_歯科】【一般病床数:25療養病床数:0精神病床数:0感染症病床数:0合計病床数:25】宮城県石巻市鮎川浜清崎山７" }, "geometry": { "type": "Point", "coordinates": [ 141.499245, 38.299819 ] } },
{ "type": "Feature", "properties": { "ID": 41800869, "正式名称": "医療法人海邦会鹿島記念病院", "機関区分": 1, "都道府県コード": 4, "市区町村コード": 202, "所在地": "宮城県石巻市広渕字長山１００番地", "緯度": 38.472695, "経度": 141.196853, "url": "https://www.iryou.teikyouseido.mhlw.go.jp/znk-web/juminkanja/S2430/initialize?prefCd=04&kikanCd=800869&kikanKbn=1", "url2": "http://www.kashima-m-h.com", "内容": "医療法人海邦会鹿島記念病院【1:病院】【診療科目:精神科_心療内科】【一般病床数:0療養病床数:0精神病床数:113感染症病床数:0合計病床数:113】宮城県石巻市広渕字長山１００番地" }, "geometry": { "type": "Point", "coordinates": [ 141.196853, 38.472695 ] } },
{ "type": "Feature", "properties": { "ID": 41800871, "正式名称": "大崎市民病院鳴子温泉分院", "機関区分": 1, "都道府県コード": 4, "市区町村コード": 215, "所在地": "宮城県大崎市鳴子温泉末沢１", "緯度": 38.751008, "経度": 140.726005, "url": "https://www.iryou.teikyouseido.mhlw.go.jp/znk-web/juminkanja/S2430/initialize?prefCd=04&kikanCd=800871&kikanKbn=1", "url2": "http://www.h-osaki.jp/naruko/", "内容": "大崎市民病院鳴子温泉分院【1:病院】【診療科目:内科_外科_整形外科_眼科_耳鼻いんこう科】【一般病床数:40療養病床数:0精神病床数:0感染症病床数:0合計病床数:40】宮城県大崎市鳴子温泉末沢１" }, "geometry": { "type": "Point", "coordinates": [ 140.726005, 38.751008 ] } },
{ "type": "Feature", "properties": { "ID": 41800880, "正式名称": "医療法人　有恒会　こだまホスピタル", "機関区分": 1, "都道府県コード": 4, "市区町村コード": 202, "所在地": "宮城県石巻市山下町二丁目５番７号", "緯度": 38.429787, "経度": 141.291916, "url": "https://www.iryou.teikyouseido.mhlw.go.jp/znk-web/juminkanja/S2430/initialize?prefCd=04&kikanCd=800880&kikanKbn=1", "url2": "https://www.kodama-hp.com", "内容": "医療法人　有恒会　こだまホスピタル【1:病院】【診療科目:老年内科_精神科_心療内科】【一般病床数:0療養病床数:0精神病床数:330感染症病床数:0合計病床数:330】宮城県石巻市山下町二丁目５番７号" }, "geometry": { "type": "Point", "coordinates": [ 141.291916, 38.429787 ] } },
{ "type": "Feature", "properties": { "ID": 41800881, "正式名称": "石巻赤十字病院", "機関区分": 1, "都道府県コード": 4, "市区町村コード": 202, "所在地": "宮城県石巻市蛇田字西道下７１", "緯度": 38.459173, "経度": 141.279638, "url": "https://www.iryou.teikyouseido.mhlw.go.jp/znk-web/juminkanja/S2430/initialize?prefCd=04&kikanCd=800881&kikanKbn=1", "url2": "http://www.ishinomaki.jrc.or.jp/", "内容": "石巻赤十字病院【1:病院】【診療科目:内科_感染症内科_血液内科_糖尿病内科_脳神経内科_呼吸器内科_循環器内科_消化器内科_腎臓内科_外科_脳神経外科_呼吸器外科_心臓血管外科_乳腺外科_整形外科_形成外科_小児科_小児外科_産婦人科_眼科_耳鼻いんこう科_皮膚科_泌尿器科_心療内科_歯科_歯科口腔外科_リハビリテーション科_放射線診断科_放射線治療科_病理診断科_救急科_麻酔科】【一般病床数:456療養病床数:0精神病床数:0感染症病床数:4合計病床数:460】宮城県石巻市蛇田字西道下７１" }, "geometry": { "type": "Point", "coordinates": [ 141.279638, 38.459173 ] } },
{ "type": "Feature", "properties": { "ID": 41800883, "正式名称": "医療法人社団仁明会齋藤病院", "機関区分": 1, "都道府県コード": 4, "市区町村コード": 202, "所在地": "宮城県石巻市山下町１－７－２４", "緯度": 38.432423, "経度": 141.293407, "url": "https://www.iryou.teikyouseido.mhlw.go.jp/znk-web/juminkanja/S2430/initialize?prefCd=04&kikanCd=800883&kikanKbn=1", "url2": "https://www.jinmei.or.jp/", "内容": "医療法人社団仁明会齋藤病院【1:病院】【診療科目:内科_糖尿病内科_脳神経内科_呼吸器内科_循環器内科_消化器内科_心臓血管外科_リハビリテーション科】【一般病床数:93療養病床数:85精神病床数:0感染症病床数:0合計病床数:178】宮城県石巻市山下町１－７－２４" }, "geometry": { "type": "Point", "coordinates": [ 141.293407, 38.432423 ] } },
{ "type": "Feature", "properties": { "ID": 41800884, "正式名称": "医療法人社団健育会石巻健育会病院", "機関区分": 1, "都道府県コード": 4, "市区町村コード": 202, "所在地": "宮城県石巻市大街道西３丁目３番２７号", "緯度": 38.431396, "経度": 141.271423, "url": "https://www.iryou.teikyouseido.mhlw.go.jp/znk-web/juminkanja/S2430/initialize?prefCd=04&kikanCd=800884&kikanKbn=1", "url2": "https://www.ishinomaki.gr.jp", "内容": "医療法人社団健育会石巻健育会病院【1:病院】【診療科目:内科_循環器内科_神経内科_リハビリテーション科】【一般病床数:52療養病床数:116精神病床数:0感染症病床数:0合計病床数:168】宮城県石巻市大街道西３丁目３番２７号" }, "geometry": { "type": "Point", "coordinates": [ 141.271423, 38.431396 ] } },
{ "type": "Feature", "properties": { "ID": 41800921, "正式名称": "医療法人　寶樹会　仙塩総合病院", "機関区分": 1, "都道府県コード": 4, "市区町村コード": 209, "所在地": "宮城県多賀城市桜木２丁目１ー１", "緯度": 38.291389, "経度": 141.015171, "url": "https://www.iryou.teikyouseido.mhlw.go.jp/znk-web/juminkanja/S2430/initialize?prefCd=04&kikanCd=800921&kikanKbn=1", "url2": "https://www.sen-en.jp/sougou/", "内容": "医療法人　寶樹会　仙塩総合病院【1:病院】【診療科目:内科_整形外科_形成外科】【一般病床数:96療養病床数:52精神病床数:0感染症病床数:0合計病床数:148】宮城県多賀城市桜木２丁目１ー１" }, "geometry": { "type": "Point", "coordinates": [ 141.015171, 38.291389 ] } },
{ "type": "Feature", "properties": { "ID": 41800922, "正式名称": "赤石病院", "機関区分": 1, "都道府県コード": 4, "市区町村コード": 203, "所在地": "宮城県塩竈市花立町２２－４２", "緯度": 38.307084, "経度": 141.018719, "url": "https://www.iryou.teikyouseido.mhlw.go.jp/znk-web/juminkanja/S2430/initialize?prefCd=04&kikanCd=800922&kikanKbn=1", "url2": "http://www.akaishi-h.or.jp", "内容": "赤石病院【1:病院】【診療科目:内科_消化器内科_漢方内科_外科_脳神経外科_呼吸器外科_気管食道外科_消化器外科_乳腺外科_肛門外科_整形外科_形成外科_小児科_小児外科_リハビリテーション科_放射線科_救急科_麻酔科】【一般病床数:51療養病床数:28精神病床数:0感染症病床数:0合計病床数:79】宮城県塩竈市花立町２２－４２" }, "geometry": { "type": "Point", "coordinates": [ 141.018719, 38.307084 ] } },
{ "type": "Feature", "properties": { "ID": 41800924, "正式名称": "公益財団法人宮城厚生協会坂総合病院", "機関区分": 1, "都道府県コード": 4, "市区町村コード": 203, "所在地": "宮城県塩竈市錦町１６－５", "緯度": 38.306587, "経度": 141.015531, "url": "https://www.iryou.teikyouseido.mhlw.go.jp/znk-web/juminkanja/S2430/initialize?prefCd=04&kikanCd=800924&kikanKbn=1", "url2": "https://www.m-kousei.com/saka/", "内容": "公益財団法人宮城厚生協会坂総合病院【1:病院】【診療科目:内科_糖尿病・代謝内科_呼吸器内科_循環器内科_消化器内科_肝臓内科_神経内科_漢方内科_緩和ケア内科_外科_脳神経外科_呼吸器外科_血管外科_心臓血管外科_肛門外科_胸部外科_整形外科_形成外科_小児科_産婦人科_眼科_耳鼻いんこう科_皮膚科_泌尿器科_精神科_リハビリテーション科_放射線科_病理診断科_救急科_麻酔科_リハビリテーション科】【一般病床数:357療養病床数:0精神病床数:0感染症病床数:0合計病床数:357】宮城県塩竈市錦町１６－５" }, "geometry": { "type": "Point", "coordinates": [ 141.015531, 38.306587 ] } },
{ "type": "Feature", "properties": { "ID": 41800925, "正式名称": "塩竈市立病院", "機関区分": 1, "都道府県コード": 4, "市区町村コード": 203, "所在地": "宮城県塩竈市香津町７－１", "緯度": 38.311214, "経度": 141.014755, "url": "https://www.iryou.teikyouseido.mhlw.go.jp/znk-web/juminkanja/S2430/initialize?prefCd=04&kikanCd=800925&kikanKbn=1", "url2": "https://www.city-hospital-shiogama.jp/", "内容": "塩竈市立病院【1:病院】【診療科目:内科_糖尿病内科_脳神経内科_呼吸器内科_循環器内科_消化器内科_腎臓内科_肝臓内科_神経内科_緩和ケア内科_外科_整形外科_小児科_眼科_耳鼻いんこう科_皮膚科_泌尿器科_心療内科_リウマチ科_リハビリテーション科_放射線科_臨床検査科_麻酔科】【一般病床数:161療養病床数:0精神病床数:0感染症病床数:0合計病床数:161】宮城県塩竈市香津町７－１" }, "geometry": { "type": "Point", "coordinates": [ 141.014755, 38.311214 ] } },
{ "type": "Feature", "properties": { "ID": 41800934, "正式名称": "青葉病院", "機関区分": 1, "都道府県コード": 4, "市区町村コード": 102, "所在地": "宮城県仙台市宮城野区幸町三丁目１５番２０号", "緯度": 38.277439, "経度": 140.903824, "url": "https://www.iryou.teikyouseido.mhlw.go.jp/znk-web/juminkanja/S2430/initialize?prefCd=04&kikanCd=800934&kikanKbn=1", "url2": "http://www.aobahp.or.jp", "内容": "青葉病院【1:病院】【診療科目:神経内科_精神科】【一般病床数:0療養病床数:0精神病床数:280感染症病床数:0合計病床数:280】宮城県仙台市宮城野区幸町三丁目１５番２０号" }, "geometry": { "type": "Point", "coordinates": [ 140.903824, 38.277439 ] } },
{ "type": "Feature", "properties": { "ID": 41800936, "正式名称": "東北医科薬科大学病院", "機関区分": 1, "都道府県コード": 4, "市区町村コード": 102, "所在地": "宮城県仙台市宮城野区福室一丁目１２番１号", "緯度": 38.269441, "経度": 140.966892, "url": "https://www.iryou.teikyouseido.mhlw.go.jp/znk-web/juminkanja/S2430/initialize?prefCd=04&kikanCd=800936&kikanKbn=1", "url2": "https://www.hosp.tohoku-mpu.ac.jp/", "内容": "東北医科薬科大学病院【1:病院】【診療科目:内科_感染症内科_血液内科_糖尿病・代謝内科_脳神経内科_呼吸器内科_循環器内科_消化器内科_腎臓内科_腫瘍内科_緩和ケア内科_脳神経外科_呼吸器外科_心臓血管外科_消化器外科_肝臓・胆のう・膵臓外科_乳腺・内分泌外科_整形外科_形成外科_小児科_産科_婦人科_眼科_耳鼻いんこう科_皮膚科_泌尿器科_精神科_歯科口腔外科_リウマチ科_リハビリテーション科_放射線科_病理診断科_救急科_麻酔科】【一般病床数:542療養病床数:0精神病床数:46感染症病床数:0合計病床数:588】宮城県仙台市宮城野区福室一丁目１２番１号" }, "geometry": { "type": "Point", "coordinates": [ 140.966892, 38.269441 ] } },
{ "type": "Feature", "properties": { "ID": 41800943, "正式名称": "川崎こころ病院", "機関区分": 1, "都道府県コード": 4, "市区町村コード": 324, "所在地": "宮城県柴田郡川崎町川内", "緯度": 38.186886, "経度": 140.635529, "url": "https://www.iryou.teikyouseido.mhlw.go.jp/znk-web/juminkanja/S2430/initialize?prefCd=04&kikanCd=800943&kikanKbn=1", "url2": "https://www.kokoro-hp.jp/", "内容": "川崎こころ病院【1:病院】【診療科目:精神科_心療内科_老年精神科_リハビリテーション科】【一般病床数:54療養病床数:0精神病床数:204感染症病床数:0合計病床数:258】宮城県柴田郡川崎町川内" }, "geometry": { "type": "Point", "coordinates": [ 140.635529, 38.186886 ] } },
{ "type": "Feature", "properties": { "ID": 41800944, "正式名称": "国民健康保険川崎病院", "機関区分": 1, "都道府県コード": 4, "市区町村コード": 324, "所在地": "宮城県柴田郡川崎町大字前川字北原２３－１", "緯度": 38.182159, "経度": 140.630173, "url": "https://www.iryou.teikyouseido.mhlw.go.jp/znk-web/juminkanja/S2430/initialize?prefCd=04&kikanCd=800944&kikanKbn=1", "url2": "https://www.town.kawasaki.miyagi.jp/site/hospital/", "内容": "国民健康保険川崎病院【1:病院】【診療科目:内科_外科_整形外科_皮膚科_歯科】【一般病床数:30療養病床数:28精神病床数:0感染症病床数:0合計病床数:58】宮城県柴田郡川崎町大字前川字北原２３－１" }, "geometry": { "type": "Point", "coordinates": [ 140.630173, 38.182159 ] } },
{ "type": "Feature", "properties": { "ID": 41800960, "正式名称": "蔵王町国民健康保険蔵王病院", "機関区分": 1, "都道府県コード": 4, "市区町村コード": 301, "所在地": "宮城県刈田郡蔵王町大字円田字和田１３０", "緯度": 38.102695, "経度": 140.678894, "url": "https://www.iryou.teikyouseido.mhlw.go.jp/znk-web/juminkanja/S2430/initialize?prefCd=04&kikanCd=800960&kikanKbn=1", "url2": "https://www.town.zao.miyagi.jp/section/hospital/index.html", "内容": "蔵王町国民健康保険蔵王病院【1:病院】【診療科目:内科】【一般病床数:0療養病床数:26精神病床数:0感染症病床数:0合計病床数:26】宮城県刈田郡蔵王町大字円田字和田１３０" }, "geometry": { "type": "Point", "coordinates": [ 140.678894, 38.102695 ] } },
{ "type": "Feature", "properties": { "ID": 41800963, "正式名称": "医療法人浄仁会　大泉記念病院", "機関区分": 1, "都道府県コード": 4, "市区町村コード": 206, "所在地": "宮城県白石市福岡深谷字一本松５番地１", "緯度": 38.039326, "経度": 140.643921, "url": "https://www.iryou.teikyouseido.mhlw.go.jp/znk-web/juminkanja/S2430/initialize?prefCd=04&kikanCd=800963&kikanKbn=1", "url2": "https://www.ooizumi.or.jp", "内容": "医療法人浄仁会　大泉記念病院【1:病院】【診療科目:内科_呼吸器内科_循環器内科_神経内科_外科_脳神経外科_心臓血管外科_整形外科_婦人科_精神科】【一般病床数:48療養病床数:144精神病床数:0感染症病床数:0合計病床数:192】宮城県白石市福岡深谷字一本松５番地１" }, "geometry": { "type": "Point", "coordinates": [ 140.643921, 38.039326 ] } },
{ "type": "Feature", "properties": { "ID": 41800965, "正式名称": "医療法人　金上仁友会　金上病院", "機関区分": 1, "都道府県コード": 4, "市区町村コード": 208, "所在地": "宮城県角田市角田字田町１２３", "緯度": 37.97449, "経度": 140.785958, "url": "https://www.iryou.teikyouseido.mhlw.go.jp/znk-web/juminkanja/S2430/initialize?prefCd=04&kikanCd=800965&kikanKbn=1", "url2": "http://www.kanagami.or.jp", "内容": "医療法人　金上仁友会　金上病院【1:病院】【診療科目:内科_外科_整形外科_皮膚科_リハビリテーション科】【一般病床数:60療養病床数:26精神病床数:0感染症病床数:0合計病床数:86】宮城県角田市角田字田町１２３" }, "geometry": { "type": "Point", "coordinates": [ 140.785958, 37.97449 ] } },
{ "type": "Feature", "properties": { "ID": 41800983, "正式名称": "医療法人本多友愛会仙南病院", "機関区分": 1, "都道府県コード": 4, "市区町村コード": 208, "所在地": "宮城県角田市角田字牛舘１６", "緯度": 37.971664, "経度": 140.783127, "url": "https://www.iryou.teikyouseido.mhlw.go.jp/znk-web/juminkanja/S2430/initialize?prefCd=04&kikanCd=800983&kikanKbn=1", "url2": "http://www.sennan.or.jp/", "内容": "医療法人本多友愛会仙南病院【1:病院】【診療科目:内科_呼吸器内科_循環器内科_消化器内科_外科】【一般病床数:35療養病床数:60精神病床数:0感染症病床数:0合計病床数:95】宮城県角田市角田字牛舘１６" }, "geometry": { "type": "Point", "coordinates": [ 140.783127, 37.971664 ] } },
{ "type": "Feature", "properties": { "ID": 41800984, "正式名称": "医療法人安達同済会同済病院", "機関区分": 1, "都道府県コード": 4, "市区町村コード": 208, "所在地": "宮城県角田市佐倉字上土浮２", "緯度": 37.995049, "経度": 140.789871, "url": "https://www.iryou.teikyouseido.mhlw.go.jp/znk-web/juminkanja/S2430/initialize?prefCd=04&kikanCd=800984&kikanKbn=1", "url2": null, "内容": "医療法人安達同済会同済病院【1:病院】【診療科目:内科_外科_小児科_婦人科】【一般病床数:24療養病床数:0精神病床数:0感染症病床数:0合計病床数:24】宮城県角田市佐倉字上土浮２" }, "geometry": { "type": "Point", "coordinates": [ 140.789871, 37.995049 ] } },
{ "type": "Feature", "properties": { "ID": 41801005, "正式名称": "大崎市民病院", "機関区分": 1, "都道府県コード": 4, "市区町村コード": 215, "所在地": "宮城県大崎市古川穂波三丁目８番１号", "緯度": 38.566029, "経度": 140.94397, "url": "https://www.iryou.teikyouseido.mhlw.go.jp/znk-web/juminkanja/S2430/initialize?prefCd=04&kikanCd=801005&kikanKbn=1", "url2": "https://www.h-osaki.jp/", "内容": "大崎市民病院【1:病院】【診療科目:内科_感染症内科_血液内科_糖尿病・代謝内科_脳神経内科_呼吸器内科_循環器内科_心臓血管内科_消化器内科_腎臓内科_肝臓内科_神経内科_腫瘍内科_疼痛緩和内科_外科_脳神経外科_呼吸器外科_食道外科_血管外科_心臓血管外科_消化器外科_肝臓外科_乳腺外科_肛門外科_内視鏡外科_整形外科_形成外科_小児科_小児外科_産科_婦人科_眼科_耳鼻いんこう科_皮膚科_泌尿器科_精神科_歯科口腔外科_リウマチ科_リハビリテーション科_放射線診断科_放射線治療科_病理診断科_臨床検査科_救急科_麻酔科】【一般病床数:494療養病床数:0精神病床数:0感染症病床数:6合計病床数:500】宮城県大崎市古川穂波三丁目８番１号" }, "geometry": { "type": "Point", "coordinates": [ 140.94397, 38.566029 ] } },
{ "type": "Feature", "properties": { "ID": 41801006, "正式名称": "一般財団法人　佐藤病院", "機関区分": 1, "都道府県コード": 4, "市区町村コード": 215, "所在地": "宮城県大崎市古川中里", "緯度": 38.574108, "経度": 140.9608, "url": "https://www.iryou.teikyouseido.mhlw.go.jp/znk-web/juminkanja/S2430/initialize?prefCd=04&kikanCd=801006&kikanKbn=1", "url2": "http://www.sato-hpz.or.jp/", "内容": "一般財団法人　佐藤病院【1:病院】【診療科目:内科_小児科_皮膚科】【一般病床数:38療養病床数:30精神病床数:0感染症病床数:0合計病床数:68】宮城県大崎市古川中里" }, "geometry": { "type": "Point", "coordinates": [ 140.9608, 38.574108 ] } },
{ "type": "Feature", "properties": { "ID": 41801017, "正式名称": "一般財団法人　片倉病院", "機関区分": 1, "都道府県コード": 4, "市区町村コード": 215, "所在地": "宮城県大崎市古川浦町１－３７", "緯度": 38.577998, "経度": 140.957592, "url": "https://www.iryou.teikyouseido.mhlw.go.jp/znk-web/juminkanja/S2430/initialize?prefCd=04&kikanCd=801017&kikanKbn=1", "url2": "http://www.katakura-hospital.com/", "内容": "一般財団法人　片倉病院【1:病院】【診療科目:内科_呼吸器内科_神経内科_外科_脳神経外科_整形外科_小児科_リハビリテーション科】【一般病床数:32療養病床数:40精神病床数:0感染症病床数:0合計病床数:72】宮城県大崎市古川浦町１－３７" }, "geometry": { "type": "Point", "coordinates": [ 140.957592, 38.577998 ] } },
{ "type": "Feature", "properties": { "ID": 41801018, "正式名称": "こころのホスピタル・古川グリーンヒルズ", "機関区分": 1, "都道府県コード": 4, "市区町村コード": 215, "所在地": "宮城県大崎市古川西館３丁目６－６０", "緯度": 38.573787, "経度": 140.9488, "url": "https://www.iryou.teikyouseido.mhlw.go.jp/znk-web/juminkanja/S2430/initialize?prefCd=04&kikanCd=801018&kikanKbn=1", "url2": "https://kanno-hospital.jp/", "内容": "こころのホスピタル・古川グリーンヒルズ【1:病院】【診療科目:内科_児童精神科_精神科】【一般病床数:0療養病床数:0精神病床数:240感染症病床数:0合計病床数:240】宮城県大崎市古川西館３丁目６－６０" }, "geometry": { "type": "Point", "coordinates": [ 140.9488, 38.573787 ] } },
{ "type": "Feature", "properties": { "ID": 41801019, "正式名称": "医療法人社団　清靖会　ＰＦＣ　ＨＯＳＰＩＴＡＬ", "機関区分": 1, "都道府県コード": 4, "市区町村コード": 215, "所在地": "宮城県大崎市古川中島町１ー８", "緯度": 38.56654, "経度": 140.956528, "url": "https://www.iryou.teikyouseido.mhlw.go.jp/znk-web/juminkanja/S2430/initialize?prefCd=04&kikanCd=801019&kikanKbn=1", "url2": "http://www.seisei-kai.or.jp", "内容": "医療法人社団　清靖会　ＰＦＣ　ＨＯＳＰＩＴＡＬ【1:病院】【診療科目:内科_神経内科_精神科_心療内科】【一般病床数:0療養病床数:0精神病床数:133感染症病床数:0合計病床数:133】宮城県大崎市古川中島町１ー８" }, "geometry": { "type": "Point", "coordinates": [ 140.956528, 38.56654 ] } },
{ "type": "Feature", "properties": { "ID": 41801020, "正式名称": "医療法人永仁会永仁会病院", "機関区分": 1, "都道府県コード": 4, "市区町村コード": 215, "所在地": "宮城県大崎市古川旭２丁目５－１", "緯度": 38.564789, "経度": 140.971317, "url": "https://www.iryou.teikyouseido.mhlw.go.jp/znk-web/juminkanja/S2430/initialize?prefCd=04&kikanCd=801020&kikanKbn=1", "url2": "http://www.eijinkai-hp.or.jp/", "内容": "医療法人永仁会永仁会病院【1:病院】【診療科目:消化器内科_腎臓内科_人工透析内科_消化器外科_乳腺外科_歯科_矯正歯科】【一般病床数:46療養病床数:0精神病床数:0感染症病床数:0合計病床数:46】宮城県大崎市古川旭２丁目５－１" }, "geometry": { "type": "Point", "coordinates": [ 140.971317, 38.564789 ] } },
{ "type": "Feature", "properties": { "ID": 41801025, "正式名称": "医療法人　朋心会　旭山病院", "機関区分": 1, "都道府県コード": 4, "市区町村コード": 215, "所在地": "宮城県大崎市鹿島台平渡字大沢２１番地の１８", "緯度": 38.489429, "経度": 141.093124, "url": "https://www.iryou.teikyouseido.mhlw.go.jp/znk-web/juminkanja/S2430/initialize?prefCd=04&kikanCd=801025&kikanKbn=1", "url2": "https://www.hohshinkai-hospital.com", "内容": "医療法人　朋心会　旭山病院【1:病院】【診療科目:内科_精神科】【一般病床数:0療養病床数:0精神病床数:100感染症病床数:0合計病床数:100】宮城県大崎市鹿島台平渡字大沢２１番地の１８" }, "geometry": { "type": "Point", "coordinates": [ 141.093124, 38.489429 ] } },
{ "type": "Feature", "properties": { "ID": 41801026, "正式名称": "大崎市民病院鹿島台分院", "機関区分": 1, "都道府県コード": 4, "市区町村コード": 215, "所在地": "宮城県大崎市鹿島台平渡字東要害２０", "緯度": 38.479325, "経度": 141.098063, "url": "https://www.iryou.teikyouseido.mhlw.go.jp/znk-web/juminkanja/S2430/initialize?prefCd=04&kikanCd=801026&kikanKbn=1", "url2": "http://www.h-osaki.jp/kashimadai/", "内容": "大崎市民病院鹿島台分院【1:病院】【診療科目:内科_外科_整形外科】【一般病床数:40療養病床数:18精神病床数:0感染症病床数:0合計病床数:58】宮城県大崎市鹿島台平渡字東要害２０" }, "geometry": { "type": "Point", "coordinates": [ 141.098063, 38.479325 ] } },
{ "type": "Feature", "properties": { "ID": 41801035, "正式名称": "美里町立南郷病院", "機関区分": 1, "都道府県コード": 4, "市区町村コード": 505, "所在地": "宮城県遠田郡美里町木間塚字原田５", "緯度": 38.490273, "経度": 141.132292, "url": "https://www.iryou.teikyouseido.mhlw.go.jp/znk-web/juminkanja/S2430/initialize?prefCd=04&kikanCd=801035&kikanKbn=1", "url2": "http://www.town.misato.miyagi.jp", "内容": "美里町立南郷病院【1:病院】【診療科目:内科_外科_整形外科_小児科_眼科】【一般病床数:50療養病床数:0精神病床数:0感染症病床数:0合計病床数:50】宮城県遠田郡美里町木間塚字原田５" }, "geometry": { "type": "Point", "coordinates": [ 141.132292, 38.490273 ] } },
{ "type": "Feature", "properties": { "ID": 41801046, "正式名称": "登米市立登米市民病院", "機関区分": 1, "都道府県コード": 4, "市区町村コード": 212, "所在地": "宮城県登米市迫町佐沼字下田中２５", "緯度": 38.687606, "経度": 141.192802, "url": "https://www.iryou.teikyouseido.mhlw.go.jp/znk-web/juminkanja/S2430/initialize?prefCd=04&kikanCd=801046&kikanKbn=1", "url2": "http://www.city.tome.miyagi.jp/iryou/tomehp/", "内容": "登米市立登米市民病院【1:病院】【診療科目:内科_消化器内科_人工透析内科_外科_乳腺外科_整形外科_小児科_産婦人科_眼科_耳鼻いんこう科_皮膚科_泌尿器科_リハビリテーション科】【一般病床数:198療養病床数:0精神病床数:0感染症病床数:0合計病床数:198】宮城県登米市迫町佐沼字下田中２５" }, "geometry": { "type": "Point", "coordinates": [ 141.192802, 38.687606 ] } },
{ "type": "Feature", "properties": { "ID": 41801055, "正式名称": "涌谷町国民健康保険病院", "機関区分": 1, "都道府県コード": 4, "市区町村コード": 501, "所在地": "宮城県遠田郡涌谷町涌谷字中江南２７８番地", "緯度": 38.540277, "経度": 141.148175, "url": "https://www.iryou.teikyouseido.mhlw.go.jp/znk-web/juminkanja/S2430/initialize?prefCd=04&kikanCd=801055&kikanKbn=1", "url2": "http://wakuya-mwc.jp", "内容": "涌谷町国民健康保険病院【1:病院】【診療科目:内科_消化器内科_神経内科_整形外科_眼科_耳鼻いんこう科_皮膚科_泌尿器科】【一般病床数:60療養病床数:39精神病床数:0感染症病床数:0合計病床数:99】宮城県遠田郡涌谷町涌谷字中江南２７８番地" }, "geometry": { "type": "Point", "coordinates": [ 141.148175, 38.540277 ] } },
{ "type": "Feature", "properties": { "ID": 41801056, "正式名称": "医療法人社団常仁会　東泉堂病院", "機関区分": 1, "都道府県コード": 4, "市区町村コード": 501, "所在地": "宮城県遠田郡涌谷町追廻町７０－３", "緯度": 38.54261, "経度": 141.130295, "url": "https://www.iryou.teikyouseido.mhlw.go.jp/znk-web/juminkanja/S2430/initialize?prefCd=04&kikanCd=801056&kikanKbn=1", "url2": "https://www.tohsendo.jp/", "内容": "医療法人社団常仁会　東泉堂病院【1:病院】【診療科目:内科_呼吸器内科_循環器内科_消化器内科_胃腸内科_外科_肛門外科_整形外科_小児科_皮膚科_泌尿器科_放射線科】【一般病床数:0療養病床数:35精神病床数:0感染症病床数:0合計病床数:35】宮城県遠田郡涌谷町追廻町７０－３" }, "geometry": { "type": "Point", "coordinates": [ 141.130295, 38.54261 ] } },
{ "type": "Feature", "properties": { "ID": 41801057, "正式名称": "医療法人　社団　禄静会　岡本病院", "機関区分": 1, "都道府県コード": 4, "市区町村コード": 501, "所在地": "宮城県遠田郡涌谷町涌谷字白畠２９", "緯度": 38.541595, "経度": 141.14505, "url": "https://www.iryou.teikyouseido.mhlw.go.jp/znk-web/juminkanja/S2430/initialize?prefCd=04&kikanCd=801057&kikanKbn=1", "url2": "http://www.okamotohospital.jp", "内容": "医療法人　社団　禄静会　岡本病院【1:病院】【診療科目:精神科_神経科_心療内科】【一般病床数:0療養病床数:0精神病床数:173感染症病床数:0合計病床数:173】宮城県遠田郡涌谷町涌谷字白畠２９" }, "geometry": { "type": "Point", "coordinates": [ 141.14505, 38.541595 ] } },
{ "type": "Feature", "properties": { "ID": 41801071, "正式名称": "野崎病院", "機関区分": 1, "都道府県コード": 4, "市区町村コード": 505, "所在地": "宮城県遠田郡美里町字藤ケ崎町１７１", "緯度": 38.540462, "経度": 141.05986, "url": "https://www.iryou.teikyouseido.mhlw.go.jp/znk-web/juminkanja/S2430/initialize?prefCd=04&kikanCd=801071&kikanKbn=1", "url2": "https://care-net.biz/04/hakuryokai/", "内容": "野崎病院【1:病院】【診療科目:内科_消化器内科_外科_整形外科】【一般病床数:0療養病床数:109精神病床数:0感染症病床数:0合計病床数:109】宮城県遠田郡美里町字藤ケ崎町１７１" }, "geometry": { "type": "Point", "coordinates": [ 141.05986, 38.540462 ] } },
{ "type": "Feature", "properties": { "ID": 41801077, "正式名称": "公益財団法人宮城厚生協会古川民主病院", "機関区分": 1, "都道府県コード": 4, "市区町村コード": 215, "所在地": "宮城県大崎市古川駅東二丁目１１－１４", "緯度": 38.573219, "経度": 140.974304, "url": "https://www.iryou.teikyouseido.mhlw.go.jp/znk-web/juminkanja/S2430/initialize?prefCd=04&kikanCd=801077&kikanKbn=1", "url2": "http://www.m-kousei.com/furukawa/", "内容": "公益財団法人宮城厚生協会古川民主病院【1:病院】【診療科目:内科_呼吸器内科_循環器内科_消化器内科_歯科_矯正歯科_歯科口腔外科_小児歯科】【一般病床数:53療養病床数:0精神病床数:0感染症病床数:0合計病床数:53】宮城県大崎市古川駅東二丁目１１－１４" }, "geometry": { "type": "Point", "coordinates": [ 140.974304, 38.573219 ] } },
{ "type": "Feature", "properties": { "ID": 41801108, "正式名称": "医療法人松田会　エバーグリーン病院", "機関区分": 1, "都道府県コード": 4, "市区町村コード": 105, "所在地": "宮城県仙台市泉区実沢１７－１", "緯度": 38.333959, "経度": 140.837906, "url": "https://www.iryou.teikyouseido.mhlw.go.jp/znk-web/juminkanja/S2430/initialize?prefCd=04&kikanCd=801108&kikanKbn=1", "url2": "http://www.ninchisyo-sendai.jp/index.html", "内容": "医療法人松田会　エバーグリーン病院【1:病院】【診療科目:神経内科_精神科_リハビリテーション科】【一般病床数:0療養病床数:0精神病床数:200感染症病床数:0合計病床数:200】宮城県仙台市泉区実沢１７－１" }, "geometry": { "type": "Point", "coordinates": [ 140.837906, 38.333959 ] } },
{ "type": "Feature", "properties": { "ID": 41801109, "正式名称": "医療法人　松田会　松田病院", "機関区分": 1, "都道府県コード": 4, "市区町村コード": 105, "所在地": "宮城県仙台市泉区実沢字立田屋敷１７ー１", "緯度": 38.334597, "経度": 140.838072, "url": "https://www.iryou.teikyouseido.mhlw.go.jp/znk-web/juminkanja/S2430/initialize?prefCd=04&kikanCd=801109&kikanKbn=1", "url2": "http://www.matsuda-hp.com/", "内容": "医療法人　松田会　松田病院【1:病院】【診療科目:内科_脳神経内科_消化器内科_整形外科_形成外科_美容外科_小児耳鼻いんこう科_眼科_耳鼻いんこう科_皮膚科_泌尿器科_歯科_矯正歯科_リハビリテーション科】【一般病床数:77療養病床数:48精神病床数:0感染症病床数:0合計病床数:125】宮城県仙台市泉区実沢字立田屋敷１７ー１" }, "geometry": { "type": "Point", "coordinates": [ 140.838072, 38.334597 ] } },
{ "type": "Feature", "properties": { "ID": 41801147, "正式名称": "医療法人　泉整形外科病院", "機関区分": 1, "都道府県コード": 4, "市区町村コード": 105, "所在地": "宮城県仙台市泉区上谷刈字丸山６－１", "緯度": 38.311913, "経度": 140.867752, "url": "https://www.iryou.teikyouseido.mhlw.go.jp/znk-web/juminkanja/S2430/initialize?prefCd=04&kikanCd=801147&kikanKbn=1", "url2": "http://www.izumiseikei.com", "内容": "医療法人　泉整形外科病院【1:病院】【診療科目:内科_整形外科_リウマチ科_リハビリテーション科_麻酔科】【一般病床数:54療養病床数:0精神病床数:0感染症病床数:0合計病床数:54】宮城県仙台市泉区上谷刈字丸山６－１" }, "geometry": { "type": "Point", "coordinates": [ 140.867752, 38.311913 ] } },
{ "type": "Feature", "properties": { "ID": 41801148, "正式名称": "泉ヶ丘クリニック", "機関区分": 1, "都道府県コード": 4, "市区町村コード": 105, "所在地": "宮城県仙台市泉区桂１丁目１８－１", "緯度": 38.332088, "経度": 140.86351, "url": "https://www.iryou.teikyouseido.mhlw.go.jp/znk-web/juminkanja/S2430/initialize?prefCd=04&kikanCd=801148&kikanKbn=1", "url2": "http://www.cl-meiyo.org", "内容": "泉ヶ丘クリニック【1:病院】【診療科目:内科_循環器内科_腎臓内科_人工透析内科】【一般病床数:38療養病床数:60精神病床数:0感染症病床数:0合計病床数:98】宮城県仙台市泉区桂１丁目１８－１" }, "geometry": { "type": "Point", "coordinates": [ 140.86351, 38.332088 ] } },
{ "type": "Feature", "properties": { "ID": 41801149, "正式名称": "泌尿器科泉中央病院", "機関区分": 1, "都道府県コード": 4, "市区町村コード": 105, "所在地": "宮城県仙台市泉区上谷刈４丁目１６ー１４", "緯度": 38.315289, "経度": 140.875458, "url": "https://www.iryou.teikyouseido.mhlw.go.jp/znk-web/juminkanja/S2430/initialize?prefCd=04&kikanCd=801149&kikanKbn=1", "url2": "https://izumi-chuo.com", "内容": "泌尿器科泉中央病院【1:病院】【診療科目:泌尿器科】【一般病床数:34療養病床数:0精神病床数:0感染症病床数:0合計病床数:34】宮城県仙台市泉区上谷刈４丁目１６ー１４" }, "geometry": { "type": "Point", "coordinates": [ 140.875458, 38.315289 ] } },
{ "type": "Feature", "properties": { "ID": 41801151, "正式名称": "一般財団法人宮城県成人病予防協会附属仙台循環器病センター", "機関区分": 1, "都道府県コード": 4, "市区町村コード": 105, "所在地": "宮城県仙台市泉区泉中央一丁目６－１２", "緯度": 38.324951, "経度": 140.881058, "url": "https://www.iryou.teikyouseido.mhlw.go.jp/znk-web/juminkanja/S2430/initialize?prefCd=04&kikanCd=801151&kikanKbn=1", "url2": "https://www.mygsji.or.jp/jyunkanki/", "内容": "一般財団法人宮城県成人病予防協会附属仙台循環器病センター【1:病院】【診療科目:内科_呼吸器内科_循環器内科_外科_心臓血管外科_消化器外科_泌尿器科_麻酔科】【一般病床数:116療養病床数:0精神病床数:0感染症病床数:0合計病床数:116】宮城県仙台市泉区泉中央一丁目６－１２" }, "geometry": { "type": "Point", "coordinates": [ 140.881058, 38.324951 ] } },
{ "type": "Feature", "properties": { "ID": 41801222, "正式名称": "医療法人社団　蔵王会　精神科病院　仙南サナトリウム＋", "機関区分": 1, "都道府県コード": 4, "市区町村コード": 206, "所在地": "宮城県白石市大鷹沢三沢字中山７４－１０", "緯度": 37.976109, "経度": 140.660416, "url": "https://www.iryou.teikyouseido.mhlw.go.jp/znk-web/juminkanja/S2430/initialize?prefCd=04&kikanCd=801222&kikanKbn=1", "url2": "http://www.zao-kai.com/", "内容": "医療法人社団　蔵王会　精神科病院　仙南サナトリウム＋【1:病院】【診療科目:神経内科_精神科_心療内科】【一般病床数:0療養病床数:0精神病床数:212感染症病床数:0合計病床数:212】宮城県白石市大鷹沢三沢字中山７４－１０" }, "geometry": { "type": "Point", "coordinates": [ 140.660416, 37.976109 ] } },
{ "type": "Feature", "properties": { "ID": 41801223, "正式名称": "公立刈田綜合病院", "機関区分": 1, "都道府県コード": 4, "市区町村コード": 206, "所在地": "宮城県白石市福岡蔵本字下原沖３６", "緯度": 38.011982, "経度": 140.609312, "url": "https://www.iryou.teikyouseido.mhlw.go.jp/znk-web/juminkanja/S2430/initialize?prefCd=04&kikanCd=801223&kikanKbn=1", "url2": "https://www.katta-hosp.jp", "内容": "公立刈田綜合病院【1:病院】【診療科目:内科_循環器内科_消化器内科_神経内科_外科_整形外科_小児科_産婦人科_眼科_耳鼻いんこう科_皮膚科_泌尿器科_リハビリテーション科_麻酔科】【一般病床数:199療養病床数:0精神病床数:0感染症病床数:0合計病床数:199】宮城県白石市福岡蔵本字下原沖３６" }, "geometry": { "type": "Point", "coordinates": [ 140.609312, 38.011982 ] } },
{ "type": "Feature", "properties": { "ID": 41801229, "正式名称": "丸森町国民健康保険丸森病院", "機関区分": 1, "都道府県コード": 4, "市区町村コード": 341, "所在地": "宮城県伊具郡丸森町鳥屋２７", "緯度": 37.912525, "経度": 140.766388, "url": "https://www.iryou.teikyouseido.mhlw.go.jp/znk-web/juminkanja/S2430/initialize?prefCd=04&kikanCd=801229&kikanKbn=1", "url2": "http://www.town.marumori.miyagi.jp", "内容": "丸森町国民健康保険丸森病院【1:病院】【診療科目:内科_外科_整形外科_歯科】【一般病床数:55療養病床数:35精神病床数:0感染症病床数:0合計病床数:90】宮城県伊具郡丸森町鳥屋２７" }, "geometry": { "type": "Point", "coordinates": [ 140.766388, 37.912525 ] } },
{ "type": "Feature", "properties": { "ID": 41801443, "正式名称": "みやぎ県南中核病院", "機関区分": 1, "都道府県コード": 4, "市区町村コード": 321, "所在地": "宮城県柴田郡大河原町字西３８－１", "緯度": 38.062065, "経度": 140.735031, "url": "https://www.iryou.teikyouseido.mhlw.go.jp/znk-web/juminkanja/S2430/initialize?prefCd=04&kikanCd=801443&kikanKbn=1", "url2": "https://www.southmiyagi-mc.jp/", "内容": "みやぎ県南中核病院【1:病院】【診療科目:内科_血液内科_糖尿病・内分泌内科_脳神経内科_呼吸器内科_循環器内科_消化器内科_腎臓内科_腫瘍内科_緩和ケア内科_腎臓・膠原病内科_外科_脳神経外科_呼吸器外科_血管外科_消化器外科_乳腺外科_整形外科_形成外科_小児科_産婦人科_眼科_耳鼻いんこう科_皮膚科_泌尿器科_精神科_歯科口腔外科_リハビリテーション科_放射線診断科_放射線治療科_病理診断科_救急科_麻酔科】【一般病床数:306療養病床数:0精神病床数:0感染症病床数:4合計病床数:310】宮城県柴田郡大河原町字西３８－１" }, "geometry": { "type": "Point", "coordinates": [ 140.735031, 38.062065 ] } },
{ "type": "Feature", "properties": { "ID": 41801455, "正式名称": "医療法人　吉田報恩会　春日療養園", "機関区分": 1, "都道府県コード": 4, "市区町村コード": 104, "所在地": "宮城県仙台市太白区中田５丁目５－１", "緯度": 38.196327, "経度": 140.88568, "url": "https://www.iryou.teikyouseido.mhlw.go.jp/znk-web/juminkanja/S2430/initialize?prefCd=04&kikanCd=801455&kikanKbn=1", "url2": "http://kasuga.la.coocan.jp", "内容": "医療法人　吉田報恩会　春日療養園【1:病院】【診療科目:精神科】【一般病床数:0療養病床数:0精神病床数:250感染症病床数:0合計病床数:250】宮城県仙台市太白区中田５丁目５－１" }, "geometry": { "type": "Point", "coordinates": [ 140.88568, 38.196327 ] } },
{ "type": "Feature", "properties": { "ID": 41801456, "正式名称": "独立行政法人地域医療機能推進機構仙台南病院", "機関区分": 1, "都道府県コード": 4, "市区町村コード": 104, "所在地": "宮城県仙台市太白区中田町字前沖１４３番地", "緯度": 38.190668, "経度": 140.899703, "url": "https://www.iryou.teikyouseido.mhlw.go.jp/znk-web/juminkanja/S2430/initialize?prefCd=04&kikanCd=801456&kikanKbn=1", "url2": "http://sendaiminami.jcho.go.jp", "内容": "独立行政法人地域医療機能推進機構仙台南病院【1:病院】【診療科目:内科_循環器内科_消化器内科_外科_整形外科_小児科_産婦人科_泌尿器科_リハビリテーション科_放射線科_麻酔科】【一般病床数:196療養病床数:0精神病床数:0感染症病床数:0合計病床数:196】宮城県仙台市太白区中田町字前沖１４３番地" }, "geometry": { "type": "Point", "coordinates": [ 140.899703, 38.190668 ] } },
{ "type": "Feature", "properties": { "ID": 41801471, "正式名称": "医療法人　翠十字　杜都千愛病院", "機関区分": 1, "都道府県コード": 4, "市区町村コード": 104, "所在地": "宮城県仙台市太白区茂庭", "緯度": 38.215637, "経度": 140.801214, "url": "https://www.iryou.teikyouseido.mhlw.go.jp/znk-web/juminkanja/S2430/initialize?prefCd=04&kikanCd=801471&kikanKbn=1", "url2": "http://www.midorijuji.or.jp", "内容": "医療法人　翠十字　杜都千愛病院【1:病院】【診療科目:内科_皮膚科_精神科_リハビリテーション科】【一般病床数:0療養病床数:156精神病床数:200感染症病床数:0合計病床数:356】宮城県仙台市太白区茂庭" }, "geometry": { "type": "Point", "coordinates": [ 140.801214, 38.215637 ] } },
{ "type": "Feature", "properties": { "ID": 41801472, "正式名称": "公益財団法人宮城厚生協会長町病院", "機関区分": 1, "都道府県コード": 4, "市区町村コード": 104, "所在地": "宮城県仙台市太白区長町３丁目７－２６", "緯度": 38.229782, "経度": 140.883881, "url": "https://www.iryou.teikyouseido.mhlw.go.jp/znk-web/juminkanja/S2430/initialize?prefCd=04&kikanCd=801472&kikanKbn=1", "url2": "http://www.m-kousei.com/nagamati/", "内容": "公益財団法人宮城厚生協会長町病院【1:病院】【診療科目:内科_糖尿病・代謝内科_呼吸器内科_循環器内科_消化器内科_リハビリテーション科】【一般病床数:45療養病床数:90精神病床数:0感染症病床数:0合計病床数:135】宮城県仙台市太白区長町３丁目７－２６" }, "geometry": { "type": "Point", "coordinates": [ 140.883881, 38.229782 ] } },
{ "type": "Feature", "properties": { "ID": 41801473, "正式名称": "一般財団法人　広南会　広南病院", "機関区分": 1, "都道府県コード": 4, "市区町村コード": 104, "所在地": "宮城県仙台市太白区長町南４丁目２０－１", "緯度": 38.219735, "経度": 140.871981, "url": "https://www.iryou.teikyouseido.mhlw.go.jp/znk-web/juminkanja/S2430/initialize?prefCd=04&kikanCd=801473&kikanKbn=1", "url2": "https://www.kohnan-sendai.or.jp/", "内容": "一般財団法人　広南会　広南病院【1:病院】【診療科目:内科_脳神経内科_脳神経外科_眼科_リハビリテーション科_麻酔科】【一般病床数:209療養病床数:0精神病床数:0感染症病床数:0合計病床数:209】宮城県仙台市太白区長町南４丁目２０－１" }, "geometry": { "type": "Point", "coordinates": [ 140.871981, 38.219735 ] } },
{ "type": "Feature", "properties": { "ID": 41801474, "正式名称": "仙台赤十字病院", "機関区分": 1, "都道府県コード": 4, "市区町村コード": 104, "所在地": "宮城県仙台市太白区八木山本町２丁目４３－３", "緯度": 38.23695, "経度": 140.839401, "url": "https://www.iryou.teikyouseido.mhlw.go.jp/znk-web/juminkanja/S2430/initialize?prefCd=04&kikanCd=801474&kikanKbn=1", "url2": "https://www.sendai.jrc.or.jp/", "内容": "仙台赤十字病院【1:病院】【診療科目:内科_糖尿病・代謝内科_呼吸器内科_循環器内科_消化器内科_腎臓内科_外科_整形外科_小児科_小児外科_新生児内科_産科_婦人科_眼科_耳鼻いんこう科_皮膚科_泌尿器科_精神科_歯科口腔外科_リハビリテーション科_放射線科_病理診断科_麻酔科】【一般病床数:350療養病床数:0精神病床数:0感染症病床数:0合計病床数:350】宮城県仙台市太白区八木山本町２丁目４３－３" }, "geometry": { "type": "Point", "coordinates": [ 140.839401, 38.23695 ] } },
{ "type": "Feature", "properties": { "ID": 41801500, "正式名称": "医療法人社団　葵会　葵会仙台病院", "機関区分": 1, "都道府県コード": 4, "市区町村コード": 103, "所在地": "宮城県仙台市若林区荒井東１丁目６番地８", "緯度": 38.240313, "経度": 140.94994, "url": "https://www.iryou.teikyouseido.mhlw.go.jp/znk-web/juminkanja/S2430/initialize?prefCd=04&kikanCd=801500&kikanKbn=1", "url2": "http://www.aoikai.jp/sendai-hsp/", "内容": "医療法人社団　葵会　葵会仙台病院【1:病院】【診療科目:内科_内分泌内科_呼吸器内科_循環器内科_消化器内科_腎臓内科_外科_心臓血管外科_整形外科_リウマチ科_リハビリテーション科】【一般病床数:125療養病床数:0精神病床数:0感染症病床数:0合計病床数:125】宮城県仙台市若林区荒井東１丁目６番地８" }, "geometry": { "type": "Point", "coordinates": [ 140.94994, 38.240313 ] } },
{ "type": "Feature", "properties": { "ID": 41801662, "正式名称": "医療法人菅野愛生会　緑ヶ丘病院", "機関区分": 1, "都道府県コード": 4, "市区町村コード": 203, "所在地": "宮城県塩竈市西玉川町１―１６", "緯度": 38.310365, "経度": 141.00169, "url": "https://www.iryou.teikyouseido.mhlw.go.jp/znk-web/juminkanja/S2430/initialize?prefCd=04&kikanCd=801662&kikanKbn=1", "url2": "http://www.midorigaoka-shiogama.com", "内容": "医療法人菅野愛生会　緑ヶ丘病院【1:病院】【診療科目:内科_精神科_心療内科】【一般病床数:0療養病床数:0精神病床数:288感染症病床数:0合計病床数:288】宮城県塩竈市西玉川町１―１６" }, "geometry": { "type": "Point", "coordinates": [ 141.00169, 38.310365 ] } },
{ "type": "Feature", "properties": { "ID": 41801683, "正式名称": "独立行政法人労働者健康安全機構東北労災病院", "機関区分": 1, "都道府県コード": 4, "市区町村コード": 101, "所在地": "宮城県仙台市青葉区台原四丁目３番２１号", "緯度": 38.284511, "経度": 140.875033, "url": "https://www.iryou.teikyouseido.mhlw.go.jp/znk-web/juminkanja/S2430/initialize?prefCd=04&kikanCd=801683&kikanKbn=1", "url2": "https://www.tohokuh.johas.go.jp", "内容": "独立行政法人労働者健康安全機構東北労災病院【1:病院】【診療科目:糖尿病・内分泌内科_呼吸器内科_循環器内科_消化器内科_腫瘍内科_外科_脳神経外科_呼吸器外科_整形外科_小児科_産婦人科_眼科_耳鼻いんこう科_皮膚科_泌尿器科_心療内科_歯科_リウマチ科_リハビリテーション科_放射線診断科_放射線治療科_病理診断科_救急科_麻酔科】【一般病床数:538療養病床数:0精神病床数:0感染症病床数:0合計病床数:538】宮城県仙台市青葉区台原四丁目３番２１号" }, "geometry": { "type": "Point", "coordinates": [ 140.875033, 38.284511 ] } },
{ "type": "Feature", "properties": { "ID": 41801741, "正式名称": "東北福祉大学せんだんホスピタル", "機関区分": 1, "都道府県コード": 4, "市区町村コード": 101, "所在地": "宮城県仙台市青葉区国見ケ丘６丁目６５番８号", "緯度": 38.287232, "経度": 140.833426, "url": "https://www.iryou.teikyouseido.mhlw.go.jp/znk-web/juminkanja/S2430/initialize?prefCd=04&kikanCd=801741&kikanKbn=1", "url2": "https://www.tfu.ac.jp/hospital/index.html", "内容": "東北福祉大学せんだんホスピタル【1:病院】【診療科目:内科_神経内科_児童精神科_精神科】【一般病床数:0療養病床数:0精神病床数:144感染症病床数:0合計病床数:144】宮城県仙台市青葉区国見ケ丘６丁目６５番８号" }, "geometry": { "type": "Point", "coordinates": [ 140.833426, 38.287232 ] } },
{ "type": "Feature", "properties": { "ID": 41801752, "正式名称": "地方独立行政法人　宮城県立こども病院", "機関区分": 1, "都道府県コード": 4, "市区町村コード": 101, "所在地": "宮城県仙台市青葉区落合", "緯度": 38.274792, "経度": 140.782471, "url": "https://www.iryou.teikyouseido.mhlw.go.jp/znk-web/juminkanja/S2430/initialize?prefCd=04&kikanCd=801752&kikanKbn=1", "url2": "https://www.miyagi-children.or.jp/", "内容": "地方独立行政法人　宮城県立こども病院【1:病院】【診療科目:感染症内科_血液・腫瘍内科_循環器内科_消化器内科_腎臓内科_脳神経外科_心臓血管外科_整形外科_形成外科_小児科_小児外科_産科_眼科_耳鼻いんこう科_泌尿器科_神経科_矯正歯科_歯科口腔外科_小児歯科_アレルギー科_リウマチ科_リハビリテーション科_放射線科_麻酔科】【一般病床数:241療養病床数:0精神病床数:0感染症病床数:0合計病床数:241】宮城県仙台市青葉区落合" }, "geometry": { "type": "Point", "coordinates": [ 140.782471, 38.274792 ] } },
{ "type": "Feature", "properties": { "ID": 41801753, "正式名称": "平成眼科病院", "機関区分": 1, "都道府県コード": 4, "市区町村コード": 101, "所在地": "宮城県仙台市青葉区郷六字沼田１３－３", "緯度": 38.263309, "経度": 140.814854, "url": "https://www.iryou.teikyouseido.mhlw.go.jp/znk-web/juminkanja/S2430/initialize?prefCd=04&kikanCd=801753&kikanKbn=1", "url2": "http://www.heisei-oph.or.jp", "内容": "平成眼科病院【1:病院】【診療科目:眼科】【一般病床数:30療養病床数:0精神病床数:0感染症病床数:0合計病床数:30】宮城県仙台市青葉区郷六字沼田１３－３" }, "geometry": { "type": "Point", "coordinates": [ 140.814854, 38.263309 ] } },
{ "type": "Feature", "properties": { "ID": 41801754, "正式名称": "医療法人　ひろせ会　広瀬病院", "機関区分": 1, "都道府県コード": 4, "市区町村コード": 101, "所在地": "宮城県仙台市青葉区郷六字大森４－２", "緯度": 38.254947, "経度": 140.810925, "url": "https://www.iryou.teikyouseido.mhlw.go.jp/znk-web/juminkanja/S2430/initialize?prefCd=04&kikanCd=801754&kikanKbn=1", "url2": "https://hirosehp.jp/", "内容": "医療法人　ひろせ会　広瀬病院【1:病院】【診療科目:内科_呼吸器内科_循環器内科_消化器内科_心療内科_リハビリテーション科】【一般病床数:47療養病床数:46精神病床数:0感染症病床数:0合計病床数:93】宮城県仙台市青葉区郷六字大森４－２" }, "geometry": { "type": "Point", "coordinates": [ 140.810925, 38.254947 ] } },
{ "type": "Feature", "properties": { "ID": 41801785, "正式名称": "医療法人財団明理会　西仙台病院", "機関区分": 1, "都道府県コード": 4, "市区町村コード": 101, "所在地": "宮城県仙台市青葉区芋沢字新田５４－４", "緯度": 38.275624, "経度": 140.743122, "url": "https://www.iryou.teikyouseido.mhlw.go.jp/znk-web/juminkanja/S2430/initialize?prefCd=04&kikanCd=801785&kikanKbn=1", "url2": "http://www.ims.gr.jp/nishisendai-hp/", "内容": "医療法人財団明理会　西仙台病院【1:病院】【診療科目:内科_脳神経内科_精神科_リハビリテーション科】【一般病床数:60療養病床数:282精神病床数:162感染症病床数:0合計病床数:504】宮城県仙台市青葉区芋沢字新田５４－４" }, "geometry": { "type": "Point", "coordinates": [ 140.743122, 38.275624 ] } },
{ "type": "Feature", "properties": { "ID": 41801848, "正式名称": "東北大学病院", "機関区分": 1, "都道府県コード": 4, "市区町村コード": 101, "所在地": "宮城県仙台市青葉区星陵町１－１", "緯度": 38.271997, "経度": 140.861268, "url": "https://www.iryou.teikyouseido.mhlw.go.jp/znk-web/juminkanja/S2430/initialize?prefCd=04&kikanCd=801848&kikanKbn=1", "url2": "http://www.hosp.tohoku.ac.jp", "内容": "東北大学病院【1:病院】【診療科目:内科_感染症内科_血液内科_脳神経内科_呼吸器内科_循環器内科_消化器内科_腎臓内科_腫瘍内科_漢方内科_老年内科_糖尿病・代謝・内分泌内科_外科_脳神経外科_呼吸器外科_心臓血管外科_消化器外科_胃腸外科_肝臓・胆のう・膵臓外科_乳腺・内分泌外科_頭頸部外科_整形外科_形成外科_移植・食道・血管外科_小児科_小児外科_小児腫瘍外科_産婦人科_眼科_耳鼻いんこう科_皮膚科_泌尿器科_精神科_心療内科_歯科_矯正歯科_歯科口腔外科_小児歯科_リウマチ科_リハビリテーション科_放射線科_病理診断科_救急科_麻酔科】【一般病床数:1102療養病床数:0精神病床数:40感染症病床数:2合計病床数:1144】宮城県仙台市青葉区星陵町１－１" }, "geometry": { "type": "Point", "coordinates": [ 140.861268, 38.271997 ] } },
{ "type": "Feature", "properties": { "ID": 41801901, "正式名称": "登米市立豊里病院", "機関区分": 1, "都道府県コード": 4, "市区町村コード": 212, "所在地": "宮城県登米市豊里町土手下７４番地１", "緯度": 38.586628, "経度": 141.253128, "url": "https://www.iryou.teikyouseido.mhlw.go.jp/znk-web/juminkanja/S2430/initialize?prefCd=04&kikanCd=801901&kikanKbn=1", "url2": "http://www.city.tome.miyagi.jp/iryou/toyosatohp/", "内容": "登米市立豊里病院【1:病院】【診療科目:内科_外科_整形外科_皮膚科_歯科】【一般病床数:60療養病床数:30精神病床数:0感染症病床数:0合計病床数:90】宮城県登米市豊里町土手下７４番地１" }, "geometry": { "type": "Point", "coordinates": [ 141.253128, 38.586628 ] } },
{ "type": "Feature", "properties": { "ID": 41801908, "正式名称": "医療法人財団　大浦会　姉歯石越病院", "機関区分": 1, "都道府県コード": 4, "市区町村コード": 212, "所在地": "宮城県登米市石越町南郷小谷地前２４５", "緯度": 38.771122, "経度": 141.157806, "url": "https://www.iryou.teikyouseido.mhlw.go.jp/znk-web/juminkanja/S2430/initialize?prefCd=04&kikanCd=801908&kikanKbn=1", "url2": "https://ourakai.jp/", "内容": "医療法人財団　大浦会　姉歯石越病院【1:病院】【診療科目:内科_精神科_神経科】【一般病床数:0療養病床数:0精神病床数:120感染症病床数:0合計病床数:120】宮城県登米市石越町南郷小谷地前２４５" }, "geometry": { "type": "Point", "coordinates": [ 141.157806, 38.771122 ] } },
{ "type": "Feature", "properties": { "ID": 41801942, "正式名称": "気仙沼市立病院", "機関区分": 1, "都道府県コード": 4, "市区町村コード": 205, "所在地": "宮城県気仙沼市赤岩杉ノ沢８番地２", "緯度": 38.887431, "経度": 141.566226, "url": "https://www.iryou.teikyouseido.mhlw.go.jp/znk-web/juminkanja/S2430/initialize?prefCd=04&kikanCd=801942&kikanKbn=1", "url2": "http://www.kesennuma-hospital.jp/", "内容": "気仙沼市立病院【1:病院】【診療科目:内科_呼吸器内科_循環器内科_消化器内科_外科_脳神経外科_整形外科_形成外科_小児科_産婦人科_眼科_耳鼻いんこう科_皮膚科_泌尿器科_心療内科_歯科口腔外科_リハビリテーション科_放射線科_病理診断科_麻酔科】【一般病床数:336療養病床数:0精神病床数:0感染症病床数:4合計病床数:340】宮城県気仙沼市赤岩杉ノ沢８番地２" }, "geometry": { "type": "Point", "coordinates": [ 141.566226, 38.887431 ] } },
{ "type": "Feature", "properties": { "ID": 41801943, "正式名称": "医療法人くさの実会　光ヶ丘保養園", "機関区分": 1, "都道府県コード": 4, "市区町村コード": 205, "所在地": "宮城県気仙沼市浪板１４０", "緯度": 38.911033, "経度": 141.589203, "url": "https://www.iryou.teikyouseido.mhlw.go.jp/znk-web/juminkanja/S2430/initialize?prefCd=04&kikanCd=801943&kikanKbn=1", "url2": "http://hikari.kusanomikai.or.jp/", "内容": "医療法人くさの実会　光ヶ丘保養園【1:病院】【診療科目:精神科_心療内科】【一般病床数:0療養病床数:0精神病床数:240感染症病床数:0合計病床数:240】宮城県気仙沼市浪板１４０" }, "geometry": { "type": "Point", "coordinates": [ 141.589203, 38.911033 ] } },
{ "type": "Feature", "properties": { "ID": 41801948, "正式名称": "医療法人　移川哲仁会　三峰病院", "機関区分": 1, "都道府県コード": 4, "市区町村コード": 205, "所在地": "宮城県気仙沼市松崎柳沢２１６－５", "緯度": 38.876322, "経度": 141.551184, "url": "https://www.iryou.teikyouseido.mhlw.go.jp/znk-web/juminkanja/S2430/initialize?prefCd=04&kikanCd=801948&kikanKbn=1", "url2": "http://www.mitsumine-hp.com/", "内容": "医療法人　移川哲仁会　三峰病院【1:病院】【診療科目:内科_精神科_神経科】【一般病床数:0療養病床数:0精神病床数:169感染症病床数:0合計病床数:169】宮城県気仙沼市松崎柳沢２１６－５" }, "geometry": { "type": "Point", "coordinates": [ 141.551184, 38.876322 ] } },
{ "type": "Feature", "properties": { "ID": 41801951, "正式名称": "気仙沼市立病院附属本吉医院", "機関区分": 1, "都道府県コード": 4, "市区町村コード": 205, "所在地": "宮城県気仙沼市本吉町津谷明戸２２２－２", "緯度": 38.787988, "経度": 141.502017, "url": "https://www.iryou.teikyouseido.mhlw.go.jp/znk-web/juminkanja/S2430/initialize?prefCd=04&kikanCd=801951&kikanKbn=1", "url2": "http://www.kesennuma.miyagi.jp/mt-hospital/", "内容": "気仙沼市立病院附属本吉医院【1:病院】【診療科目:内科_外科_整形外科_小児科_精神科】【一般病床数:0療養病床数:0精神病床数:0感染症病床数:0合計病床数:0】宮城県気仙沼市本吉町津谷明戸２２２－２" }, "geometry": { "type": "Point", "coordinates": [ 141.502017, 38.787988 ] } },
{ "type": "Feature", "properties": { "ID": 41801970, "正式名称": "独立行政法人　国立病院機構　宮城病院", "機関区分": 1, "都道府県コード": 4, "市区町村コード": 362, "所在地": "宮城県亘理郡山元町高瀬字合戦原１００番地", "緯度": 37.942166, "経度": 140.892734, "url": "https://www.iryou.teikyouseido.mhlw.go.jp/znk-web/juminkanja/S2430/initialize?prefCd=04&kikanCd=801970&kikanKbn=1", "url2": "https://miyagi.hosp.go.jp", "内容": "独立行政法人　国立病院機構　宮城病院【1:病院】【診療科目:内科_脳神経内科_呼吸器内科_循環器内科_消化器内科_外科_脳神経外科_整形外科_形成外科_小児科_皮膚科_歯科_アレルギー科_リハビリテーション科_放射線科_麻酔科】【一般病床数:290療養病床数:0精神病床数:0感染症病床数:0合計病床数:290】宮城県亘理郡山元町高瀬字合戦原１００番地" }, "geometry": { "type": "Point", "coordinates": [ 140.892734, 37.942166 ] } },
{ "type": "Feature", "properties": { "ID": 41802001, "正式名称": "宮城県立精神医療センター", "機関区分": 1, "都道府県コード": 4, "市区町村コード": 207, "所在地": "宮城県名取市手倉田", "緯度": 38.161887, "経度": 140.871821, "url": "https://www.iryou.teikyouseido.mhlw.go.jp/znk-web/juminkanja/S2430/initialize?prefCd=04&kikanCd=802001&kikanKbn=1", "url2": "http://www.miyagi-pho.jp/mpc/", "内容": "宮城県立精神医療センター【1:病院】【診療科目:精神科】【一般病床数:0療養病床数:0精神病床数:258感染症病床数:0合計病床数:258】宮城県名取市手倉田" }, "geometry": { "type": "Point", "coordinates": [ 140.871821, 38.161887 ] } },
{ "type": "Feature", "properties": { "ID": 41802034, "正式名称": "名取熊野堂病院", "機関区分": 1, "都道府県コード": 4, "市区町村コード": 207, "所在地": "宮城県名取市高舘熊野堂字岩口下６８－１", "緯度": 38.197823, "経度": 140.849915, "url": "https://www.iryou.teikyouseido.mhlw.go.jp/znk-web/juminkanja/S2430/initialize?prefCd=04&kikanCd=802034&kikanKbn=1", "url2": "https://natori-kumanodo.jp/", "内容": "名取熊野堂病院【1:病院】【診療科目:内科_精神科】【一般病床数:0療養病床数:0精神病床数:112感染症病床数:0合計病床数:112】宮城県名取市高舘熊野堂字岩口下６８－１" }, "geometry": { "type": "Point", "coordinates": [ 140.849915, 38.197823 ] } },
{ "type": "Feature", "properties": { "ID": 41802047, "正式名称": "公益社団法人日本海員掖済会　宮城利府掖済会病院", "機関区分": 1, "都道府県コード": 4, "市区町村コード": 406, "所在地": "宮城県宮城郡利府町森郷字新太子堂５１", "緯度": 38.33523, "経度": 140.987527, "url": "https://www.iryou.teikyouseido.mhlw.go.jp/znk-web/juminkanja/S2430/initialize?prefCd=04&kikanCd=802047&kikanKbn=1", "url2": "http://www.rifuekisaikai.com/", "内容": "公益社団法人日本海員掖済会　宮城利府掖済会病院【1:病院】【診療科目:内科_呼吸器内科_循環器内科_消化器内科_漢方内科_外科_肛門外科_整形外科_泌尿器科_リハビリテーション科_放射線科】【一般病床数:100療養病床数:0精神病床数:0感染症病床数:0合計病床数:100】宮城県宮城郡利府町森郷字新太子堂５１" }, "geometry": { "type": "Point", "coordinates": [ 140.987527, 38.33523 ] } },
{ "type": "Feature", "properties": { "ID": 41802052, "正式名称": "公立黒川病院", "機関区分": 1, "都道府県コード": 4, "市区町村コード": 421, "所在地": "宮城県黒川郡大和町吉岡字西桧木６０", "緯度": 38.43751, "経度": 140.889315, "url": "https://www.iryou.teikyouseido.mhlw.go.jp/znk-web/juminkanja/S2430/initialize?prefCd=04&kikanCd=802052&kikanKbn=1", "url2": "https://www.jadecom.or.jp/jadecomhp/kurokawa/html/", "内容": "公立黒川病院【1:病院】【診療科目:内科_呼吸器内科_循環器内科_消化器内科_外科_肛門外科_整形外科_小児科_産婦人科_眼科_耳鼻いんこう科_皮膚科_泌尿器科_心療内科_リウマチ科_リハビリテーション科_麻酔科】【一般病床数:110療養病床数:60精神病床数:0感染症病床数:0合計病床数:170】宮城県黒川郡大和町吉岡字西桧木６０" }, "geometry": { "type": "Point", "coordinates": [ 140.889315, 38.43751 ] } },
{ "type": "Feature", "properties": { "ID": 41802062, "正式名称": "医療法人友仁会松島病院", "機関区分": 1, "都道府県コード": 4, "市区町村コード": 401, "所在地": "宮城県宮城郡松島町高城字浜１－２６", "緯度": 38.378099, "経度": 141.070564, "url": "https://www.iryou.teikyouseido.mhlw.go.jp/znk-web/juminkanja/S2430/initialize?prefCd=04&kikanCd=802062&kikanKbn=1", "url2": null, "内容": "医療法人友仁会松島病院【1:病院】【診療科目:内科_消化器内科_神経内科_外科_整形外科_産婦人科_リハビリテーション科】【一般病床数:54療養病床数:0精神病床数:0感染症病床数:0合計病床数:54】宮城県宮城郡松島町高城字浜１－２６" }, "geometry": { "type": "Point", "coordinates": [ 141.070564, 38.378099 ] } },
{ "type": "Feature", "properties": { "ID": 41802107, "正式名称": "仙台市立病院", "機関区分": 1, "都道府県コード": 4, "市区町村コード": 104, "所在地": "宮城県仙台市太白区あすと長町１丁目１番１号", "緯度": 38.231919, "経度": 140.888184, "url": "https://www.iryou.teikyouseido.mhlw.go.jp/znk-web/juminkanja/S2430/initialize?prefCd=04&kikanCd=802107&kikanKbn=1", "url2": "https://hospital.city.sendai.jp/", "内容": "仙台市立病院【1:病院】【診療科目:内科_感染症内科_血液内科_糖尿病・代謝内科_脳神経内科_呼吸器内科_循環器内科_消化器内科_腎臓内科_外科_脳神経外科_心臓血管外科_整形外科_形成外科_小児科_産婦人科_眼科_耳鼻いんこう科_皮膚科_泌尿器科_精神科_歯科口腔外科_放射線科_病理診断科_救急科_麻酔科】【一般病床数:467療養病床数:0精神病床数:50感染症病床数:8合計病床数:525】宮城県仙台市太白区あすと長町１丁目１番１号" }, "geometry": { "type": "Point", "coordinates": [ 140.888184, 38.231919 ] } },
{ "type": "Feature", "properties": { "ID": 41802108, "正式名称": "東北医科薬科大学　若林病院", "機関区分": 1, "都道府県コード": 4, "市区町村コード": 103, "所在地": "宮城県仙台市若林区大和町２丁目２９－１", "緯度": 38.246487, "経度": 140.91149, "url": "https://www.iryou.teikyouseido.mhlw.go.jp/znk-web/juminkanja/S2430/initialize?prefCd=04&kikanCd=802108&kikanKbn=1", "url2": "http://www.hosp.tohoku-mpu.ac.jp/wakabayashi/", "内容": "東北医科薬科大学　若林病院【1:病院】【診療科目:内科_血液内科_糖尿病・内分泌内科_呼吸器内科_循環器内科_消化器内科_腎臓内科_外科_心臓血管外科_乳腺外科_整形外科_産婦人科_眼科_耳鼻いんこう科_泌尿器科_精神科_歯科_歯科口腔外科_リウマチ科_リハビリテーション科_放射線科_麻酔科】【一般病床数:139療養病床数:0精神病床数:0感染症病床数:0合計病床数:139】宮城県仙台市若林区大和町２丁目２９－１" }, "geometry": { "type": "Point", "coordinates": [ 140.91149, 38.246487 ] } },
{ "type": "Feature", "properties": { "ID": 41802109, "正式名称": "特定医療法人白嶺会　仙台整形外科病院", "機関区分": 1, "都道府県コード": 4, "市区町村コード": 103, "所在地": "宮城県仙台市若林区伊在三丁目５ー３", "緯度": 38.248459, "経度": 140.941969, "url": "https://www.iryou.teikyouseido.mhlw.go.jp/znk-web/juminkanja/S2430/initialize?prefCd=04&kikanCd=802109&kikanKbn=1", "url2": "http://www.sendaiseikei.or.jp/", "内容": "特定医療法人白嶺会　仙台整形外科病院【1:病院】【診療科目:整形外科_リハビリテーション科_麻酔科】【一般病床数:146療養病床数:0精神病床数:0感染症病床数:0合計病床数:146】宮城県仙台市若林区伊在三丁目５ー３" }, "geometry": { "type": "Point", "coordinates": [ 140.941969, 38.248459 ] } },
{ "type": "Feature", "properties": { "ID": 41802110, "正式名称": "医療法人社団けやき会　仙台中央病院", "機関区分": 1, "都道府県コード": 4, "市区町村コード": 103, "所在地": "宮城県仙台市若林区新寺", "緯度": 38.25435, "経度": 140.890308, "url": "https://www.iryou.teikyouseido.mhlw.go.jp/znk-web/juminkanja/S2430/initialize?prefCd=04&kikanCd=802110&kikanKbn=1", "url2": "http://sendaichuo-hp.skr.jp", "内容": "医療法人社団けやき会　仙台中央病院【1:病院】【診療科目:内科_循環器内科_外科_乳腺外科_肛門外科_皮膚科】【一般病床数:0療養病床数:48精神病床数:0感染症病床数:0合計病床数:48】宮城県仙台市若林区新寺" }, "geometry": { "type": "Point", "coordinates": [ 140.890308, 38.25435 ] } },
{ "type": "Feature", "properties": { "ID": 41802111, "正式名称": "社会医療法人杏仁会　河原町病院", "機関区分": 1, "都道府県コード": 4, "市区町村コード": 103, "所在地": "宮城県仙台市若林区南小泉字八軒小路４番地", "緯度": 38.240351, "経度": 140.892802, "url": "https://www.iryou.teikyouseido.mhlw.go.jp/znk-web/juminkanja/S2430/initialize?prefCd=04&kikanCd=802111&kikanKbn=1", "url2": "https://www.kawaramachi-hospital.jp/", "内容": "社会医療法人杏仁会　河原町病院【1:病院】【診療科目:内科】【一般病床数:23療養病床数:29精神病床数:0感染症病床数:0合計病床数:52】宮城県仙台市若林区南小泉字八軒小路４番地" }, "geometry": { "type": "Point", "coordinates": [ 140.892802, 38.240351 ] } },
{ "type": "Feature", "properties": { "ID": 41802115, "正式名称": "登米市立米谷病院", "機関区分": 1, "都道府県コード": 4, "市区町村コード": 212, "所在地": "宮城県登米市東和町米谷字元町２００", "緯度": 38.70372, "経度": 141.289337, "url": "https://www.iryou.teikyouseido.mhlw.go.jp/znk-web/juminkanja/S2430/initialize?prefCd=04&kikanCd=802115&kikanKbn=1", "url2": "http://www.city.tome.miyagi.jp/iryou/maiyahp/", "内容": "登米市立米谷病院【1:病院】【診療科目:内科_整形外科_小児科_耳鼻いんこう科_泌尿器科】【一般病床数:40療養病床数:50精神病床数:0感染症病床数:0合計病床数:90】宮城県登米市東和町米谷字元町２００" }, "geometry": { "type": "Point", "coordinates": [ 141.289337, 38.70372 ] } },
{ "type": "Feature", "properties": { "ID": 41802168, "正式名称": "栗原市立栗原中央病院", "機関区分": 1, "都道府県コード": 4, "市区町村コード": 213, "所在地": "宮城県栗原市築館宮野中央３丁目１－１", "緯度": 38.746484, "経度": 141.020439, "url": "https://www.iryou.teikyouseido.mhlw.go.jp/znk-web/juminkanja/S2430/initialize?prefCd=04&kikanCd=802168&kikanKbn=1", "url2": "http://www.kurihara-central-hp.jp/", "内容": "栗原市立栗原中央病院【1:病院】【診療科目:内科_脳神経内科_呼吸器内科_循環器内科_消化器内科_外科_整形外科_小児科_産婦人科_眼科_耳鼻いんこう科_皮膚科_泌尿器科_精神科_リハビリテーション科_放射線科_病理診断科_麻酔科】【一般病床数:269療養病床数:15精神病床数:0感染症病床数:1合計病床数:313】宮城県栗原市築館宮野中央３丁目１－１" }, "geometry": { "type": "Point", "coordinates": [ 141.020439, 38.746484 ] } },
{ "type": "Feature", "properties": { "ID": 41900004, "正式名称": "仙台エコー医療療育センター", "機関区分": 1, "都道府県コード": 4, "市区町村コード": 101, "所在地": "宮城県仙台市青葉区芋沢字横前１番地の１", "緯度": 38.292833, "経度": 140.758867, "url": "https://www.iryou.teikyouseido.mhlw.go.jp/znk-web/juminkanja/S2430/initialize?prefCd=04&kikanCd=900004&kikanKbn=1", "url2": "https://www.yokofuku.or.jp/echosmid", "内容": "仙台エコー医療療育センター【1:病院】【診療科目:内科_小児科_歯科_リハビリテーション科】【一般病床数:120療養病床数:0精神病床数:0感染症病床数:0合計病床数:120】宮城県仙台市青葉区芋沢字横前１番地の１" }, "geometry": { "type": "Point", "coordinates": [ 140.758867, 38.292833 ] } },
{ "type": "Feature", "properties": { "ID": 41900005, "正式名称": "独立行政法人国立病院機構仙台医療センター", "機関区分": 1, "都道府県コード": 4, "市区町村コード": 102, "所在地": "宮城県仙台市宮城野区宮城野２丁目１１－１２", "緯度": 38.260803, "経度": 140.905197, "url": "https://www.iryou.teikyouseido.mhlw.go.jp/znk-web/juminkanja/S2430/initialize?prefCd=04&kikanCd=900005&kikanKbn=1", "url2": "https://nsmc.hosp.go.jp/", "内容": "独立行政法人国立病院機構仙台医療センター【1:病院】【診療科目:感染症内科_血液内科_代謝・内分泌内科_脳神経内科_呼吸器内科_循環器内科_消化器内科_腎臓内科_腫瘍内科_ペインクリニック内科_緩和ケア内科_膠原病内科_外科_脳神経外科_呼吸器外科_心臓血管外科_乳腺外科_整形外科_形成外科_小児科_小児外科_産科_婦人科_眼科_頭頸部・耳鼻いんこう科_皮膚科_泌尿器科_精神科_歯科口腔外科_リハビリテーション科_放射線科】【一般病床数:628療養病床数:0精神病床数:32感染症病床数:0合計病床数:660】宮城県仙台市宮城野区宮城野２丁目１１－１２" }, "geometry": { "type": "Point", "coordinates": [ 140.905197, 38.260803 ] } },
{ "type": "Feature", "properties": { "ID": 41900006, "正式名称": "医療法人社団北杜会船岡今野病院", "機関区分": 1, "都道府県コード": 4, "市区町村コード": 323, "所在地": "宮城県柴田郡柴田町船岡中央２丁目５番１６号", "緯度": 38.055702, "経度": 140.768326, "url": "https://www.iryou.teikyouseido.mhlw.go.jp/znk-web/juminkanja/S2430/initialize?prefCd=04&kikanCd=900006&kikanKbn=1", "url2": "http://www.konnohospital.jp", "内容": "医療法人社団北杜会船岡今野病院【1:病院】【診療科目:内科_整形外科_泌尿器科】【一般病床数:29療養病床数:0精神病床数:0感染症病床数:0合計病床数:29】宮城県柴田郡柴田町船岡中央２丁目５番１６号" }, "geometry": { "type": "Point", "coordinates": [ 140.768326, 38.055702 ] } },
{ "type": "Feature", "properties": { "ID": 41900007, "正式名称": "医療法人本多友愛会仙南中央病院", "機関区分": 1, "都道府県コード": 4, "市区町村コード": 323, "所在地": "宮城県柴田郡柴田町北船岡１丁目２－１", "緯度": 38.062609, "経度": 140.767031, "url": "https://www.iryou.teikyouseido.mhlw.go.jp/znk-web/juminkanja/S2430/initialize?prefCd=04&kikanCd=900007&kikanKbn=1", "url2": "https://senchuhosp.net/", "内容": "医療法人本多友愛会仙南中央病院【1:病院】【診療科目:内科_精神科_心療内科】【一般病床数:0療養病床数:0精神病床数:185感染症病床数:0合計病床数:185】宮城県柴田郡柴田町北船岡１丁目２－１" }, "geometry": { "type": "Point", "coordinates": [ 140.767031, 38.062609 ] } },
{ "type": "Feature", "properties": { "ID": 41900008, "正式名称": "医療法人　徳洲会　仙台徳洲会病院", "機関区分": 1, "都道府県コード": 4, "市区町村コード": 105, "所在地": "宮城県仙台市泉区高玉町９番８", "緯度": 38.316313, "経度": 140.894815, "url": "https://www.iryou.teikyouseido.mhlw.go.jp/znk-web/juminkanja/S2430/initialize?prefCd=04&kikanCd=900008&kikanKbn=1", "url2": null, "内容": "医療法人　徳洲会　仙台徳洲会病院【1:病院】【診療科目:内科_糖尿病・代謝内科_呼吸器内科_循環器内科_消化器内科_肝臓内科_神経内科_外科_脳神経外科_呼吸器外科_心臓血管外科_整形外科_小児科_婦人科_眼科_耳鼻いんこう科_皮膚科_泌尿器科_歯科口腔外科_リハビリテーション科_病理診断科_麻酔科】【一般病床数:347療養病床数:0精神病床数:0感染症病床数:0合計病床数:347】宮城県仙台市泉区高玉町９番８" }, "geometry": { "type": "Point", "coordinates": [ 140.894815, 38.316313 ] } },
{ "type": "Feature", "properties": { "ID": 41900009, "正式名称": "地方独立行政法人宮城県立病院機構　宮城県立がんセンター", "機関区分": 1, "都道府県コード": 4, "市区町村コード": 207, "所在地": "宮城県名取市愛島塩手字野田山４７－１", "緯度": 38.167187, "経度": 140.861237, "url": "https://www.iryou.teikyouseido.mhlw.go.jp/znk-web/juminkanja/S2430/initialize?prefCd=04&kikanCd=900009&kikanKbn=1", "url2": "http://www.miyagi-pho.jp/mcc/", "内容": "地方独立行政法人宮城県立病院機構　宮城県立がんセンター【1:病院】【診療科目:血液内科_呼吸器内科_消化器内科_腫瘍内科_緩和ケア内科_頭頸部内科_脳神経外科_呼吸器外科_消化器外科_乳腺外科_頭頸部外科_整形外科_形成外科_婦人科_眼科_皮膚科_泌尿器科_歯科_放射線治療科】【一般病床数:383療養病床数:0精神病床数:0感染症病床数:0合計病床数:383】宮城県名取市愛島塩手字野田山４７－１" }, "geometry": { "type": "Point", "coordinates": [ 140.861237, 38.167187 ] } },
{ "type": "Feature", "properties": { "ID": 41900010, "正式名称": "医療法人　仙台医療福祉会　仙台富沢病院", "機関区分": 1, "都道府県コード": 4, "市区町村コード": 104, "所在地": "宮城県仙台市太白区富沢西４丁目１３－２", "緯度": 38.209621, "経度": 140.860843, "url": "https://www.iryou.teikyouseido.mhlw.go.jp/znk-web/juminkanja/S2430/initialize?prefCd=04&kikanCd=900010&kikanKbn=1", "url2": "http://emg.or.jp/", "内容": "医療法人　仙台医療福祉会　仙台富沢病院【1:病院】【診療科目:内科_精神科_老年精神科】【一般病床数:0療養病床数:0精神病床数:288感染症病床数:0合計病床数:288】宮城県仙台市太白区富沢西４丁目１３－２" }, "geometry": { "type": "Point", "coordinates": [ 140.860843, 38.209621 ] } },
{ "type": "Feature", "properties": { "ID": 41900193, "正式名称": "独立行政法人　国立病院機構　仙台西多賀病院", "機関区分": 1, "都道府県コード": 4, "市区町村コード": 104, "所在地": "宮城県仙台市太白区鈎取本町２－１１－１１", "緯度": 38.226954, "経度": 140.835056, "url": "https://www.iryou.teikyouseido.mhlw.go.jp/znk-web/juminkanja/S2430/initialize?prefCd=04&kikanCd=900193&kikanKbn=1", "url2": "https://sendainishitaga.hosp.go.jp/", "内容": "独立行政法人　国立病院機構　仙台西多賀病院【1:病院】【診療科目:内科_脳神経内科_呼吸器内科_循環器内科_外科_脳神経外科_整形外科_小児科_泌尿器科_歯科_リウマチ科_リハビリテーション科_放射線科_麻酔科】【一般病床数:440療養病床数:0精神病床数:0感染症病床数:0合計病床数:440】宮城県仙台市太白区鈎取本町２－１１－１１" }, "geometry": { "type": "Point", "coordinates": [ 140.835056, 38.226954 ] } },
{ "type": "Feature", "properties": { "ID": 41910499, "正式名称": "国見ケ丘内科・糖尿病クリニック", "機関区分": 1, "都道府県コード": 4, "市区町村コード": 101, "所在地": "宮城県仙台市青葉区国見ケ丘２－１－９", "緯度": 38.294583, "経度": 140.826679, "url": "https://www.iryou.teikyouseido.mhlw.go.jp/znk-web/juminkanja/S2430/initialize?prefCd=04&kikanCd=910499&kikanKbn=1", "url2": "https://kunimigaoka-dm.com/", "内容": "国見ケ丘内科・糖尿病クリニック【1:病院】【診療科目:内科_糖尿病内科】【一般病床数:0療養病床数:0精神病床数:0感染症病床数:0合計病床数:0】宮城県仙台市青葉区国見ケ丘２－１－９" }, "geometry": { "type": "Point", "coordinates": [ 140.826679, 38.294583 ] } }
]
}
