{
"type": "FeatureCollection",
"name": "geo_04_高等専門学校",
"crs": { "type": "name", "properties": { "name": "urn:ogc:def:crs:EPSG::6668" } },
"features": [
{ "type": "Feature", "properties": { "P29_001": "04101", "P29_002": "G104110101041", "P29_003": "16005", "P29_004": "仙台高等専門学校", "P29_005": "宮城県仙台市青葉区愛子中央4-16-1", "P29_006": "1", "P29_007": "0", "P29_008": "01", "P29_009": "広瀬キャンパス" }, "geometry": { "type": "Point", "coordinates": [ 140.751436950928053, 38.275884130448304 ] } },
{ "type": "Feature", "properties": { "P29_001": "04207", "P29_002": "G104110101041", "P29_003": "16005", "P29_004": "仙台高等専門学校", "P29_005": "宮城県名取市名取市愛島塩手野田山48", "P29_006": "1", "P29_007": "0", "P29_008": "02", "P29_009": "名取キャンパス" }, "geometry": { "type": "Point", "coordinates": [ 140.865130067403641, 38.167593862091479 ] } }
]
}
