{
"type": "FeatureCollection",
"name": "geo_04_専修学校",
"crs": { "type": "name", "properties": { "name": "urn:ogc:def:crs:EPSG::6668" } },
"features": [
{ "type": "Feature", "properties": { "P29_001": "04207", "P29_002": "H104212070013", "P29_003": "16016", "P29_004": "宮城県高等看護学校", "P29_005": "宮城県名取市愛島塩手字中田35-1", "P29_006": "2", "P29_007": "0", "P29_008": "00", "P29_009": null }, "geometry": { "type": "Point", "coordinates": [ 140.861121630177735, 38.168707845079609 ] } },
{ "type": "Feature", "properties": { "P29_001": "04207", "P29_002": "H104212070022", "P29_003": "16016", "P29_004": "宮城県農業大学校", "P29_005": "宮城県名取市高舘川上字東金剛寺1", "P29_006": "2", "P29_007": "0", "P29_008": "00", "P29_009": null }, "geometry": { "type": "Point", "coordinates": [ 140.847883337972462, 38.176539574037839 ] } },
{ "type": "Feature", "properties": { "P29_001": "04205", "P29_002": "H104222050016", "P29_003": "16016", "P29_004": "気仙沼市立病院附属看護専門学校", "P29_005": "宮城県気仙沼市赤岩杉ノ沢8-2", "P29_006": "3", "P29_007": "0", "P29_008": "00", "P29_009": null }, "geometry": { "type": "Point", "coordinates": [ 141.566217997863447, 38.887485999688877 ] } },
{ "type": "Feature", "properties": { "P29_001": "04101", "P29_002": "H104391010018", "P29_003": "16016", "P29_004": "仙台総合ビジネス公務員専門学校", "P29_005": "宮城県仙台市青葉区本町1-15-1", "P29_006": "4", "P29_007": "0", "P29_008": "00", "P29_009": null }, "geometry": { "type": "Point", "coordinates": [ 140.876345970435608, 38.266741146932318 ] } },
{ "type": "Feature", "properties": { "P29_001": "04101", "P29_002": "H104391010027", "P29_003": "16016", "P29_004": "専門学校デジタルアーツ仙台", "P29_005": "宮城県仙台市青葉区本町2-11-10", "P29_006": "4", "P29_007": "0", "P29_008": "00", "P29_009": null }, "geometry": { "type": "Point", "coordinates": [ 140.875834996413488, 38.265148003866898 ] } },
{ "type": "Feature", "properties": { "P29_001": "04101", "P29_002": "H104391010036", "P29_003": "16016", "P29_004": "仙台青葉服飾専門学校", "P29_005": "宮城県仙台市青葉区支倉町2-55", "P29_006": "4", "P29_007": "0", "P29_008": "00", "P29_009": null }, "geometry": { "type": "Point", "coordinates": [ 140.861863400831425, 38.267732757512562 ] } },
{ "type": "Feature", "properties": { "P29_001": "04101", "P29_002": "H104391010045", "P29_003": "16016", "P29_004": "ファッション文化専門学校ＤＯＲＥＭＥ", "P29_005": "宮城県仙台市青葉区支倉町1-33", "P29_006": "4", "P29_007": "0", "P29_008": "00", "P29_009": null }, "geometry": { "type": "Point", "coordinates": [ 140.862860365532839, 38.266128064767251 ] } },
{ "type": "Feature", "properties": { "P29_001": "04101", "P29_002": "H104391010054", "P29_003": "16016", "P29_004": "国際マルチビジネス専門学校", "P29_005": "宮城県仙台市青葉区中央4-8-32", "P29_006": "4", "P29_007": "0", "P29_008": "00", "P29_009": null }, "geometry": { "type": "Point", "coordinates": [ 140.879451901957253, 38.257441594614882 ] } },
{ "type": "Feature", "properties": { "P29_001": "04101", "P29_002": "H104391010063", "P29_003": "16016", "P29_004": "東北外語観光専門学校", "P29_005": "宮城県仙台市青葉区五橋2-1-13", "P29_006": "4", "P29_007": "0", "P29_008": "00", "P29_009": null }, "geometry": { "type": "Point", "coordinates": [ 140.88082105072337, 38.252252019872742 ] } },
{ "type": "Feature", "properties": { "P29_001": "04101", "P29_002": "H104391010072", "P29_003": "16016", "P29_004": "専門学校花壇自動車大学校", "P29_005": "宮城県仙台市青葉区花壇8-1", "P29_006": "4", "P29_007": "0", "P29_008": "00", "P29_009": null }, "geometry": { "type": "Point", "coordinates": [ 140.862010923202007, 38.252394793086552 ] } },
{ "type": "Feature", "properties": { "P29_001": "04101", "P29_002": "H104391010081", "P29_003": "16016", "P29_004": "仙台デザイン専門学校", "P29_005": "宮城県仙台市青葉区五橋1-7-18", "P29_006": "4", "P29_007": "0", "P29_008": "00", "P29_009": null }, "geometry": { "type": "Point", "coordinates": [ 140.879563913330088, 38.253260973266443 ] } },
{ "type": "Feature", "properties": { "P29_001": "04101", "P29_002": "H104391010090", "P29_003": "16016", "P29_004": "宮城文化服装専門学校", "P29_005": "宮城県仙台市青葉区中央3-4-8", "P29_006": "4", "P29_007": "0", "P29_008": "00", "P29_009": null }, "geometry": { "type": "Point", "coordinates": [ 140.876769962187609, 38.259152748833813 ] } },
{ "type": "Feature", "properties": { "P29_001": "04101", "P29_002": "H104391010107", "P29_003": "16016", "P29_004": "東北電子専門学校", "P29_005": "宮城県仙台市青葉区花京院1-3-1", "P29_006": "4", "P29_007": "0", "P29_008": "00", "P29_009": null }, "geometry": { "type": "Point", "coordinates": [ 140.881844298061509, 38.26459426440254 ] } },
{ "type": "Feature", "properties": { "P29_001": "04101", "P29_002": "H104391010116", "P29_003": "16016", "P29_004": "東北労災看護専門学校", "P29_005": "宮城県仙台市青葉区台原4-6-10", "P29_006": "4", "P29_007": "0", "P29_008": "00", "P29_009": null }, "geometry": { "type": "Point", "coordinates": [ 140.87693440520701, 38.285056659961349 ] } },
{ "type": "Feature", "properties": { "P29_001": "04101", "P29_002": "H104391010125", "P29_003": "16016", "P29_004": "専門学校赤門自動車整備大学校", "P29_005": "宮城県仙台市青葉区川内川前丁61", "P29_006": "4", "P29_007": "0", "P29_008": "00", "P29_009": null }, "geometry": { "type": "Point", "coordinates": [ 140.860565641130052, 38.265470851076408 ] } },
{ "type": "Feature", "properties": { "P29_001": "04101", "P29_002": "H104391010134", "P29_003": "16016", "P29_004": "仙台赤門医療専門学校", "P29_005": "宮城県仙台市青葉区荒巻字青葉33-1", "P29_006": "4", "P29_007": "0", "P29_008": "00", "P29_009": null }, "geometry": { "type": "Point", "coordinates": [ 140.838427826815092, 38.262348853603129 ] } },
{ "type": "Feature", "properties": { "P29_001": "04101", "P29_002": "H104391010143", "P29_003": "16016", "P29_004": "宮城調理製菓専門学校", "P29_005": "宮城県仙台市青葉区葉山町1-10", "P29_006": "4", "P29_007": "0", "P29_008": "00", "P29_009": null }, "geometry": { "type": "Point", "coordinates": [ 140.867606997672624, 38.283102003586897 ] } },
{ "type": "Feature", "properties": { "P29_001": "04101", "P29_002": "H104391010152", "P29_003": "16016", "P29_004": "仙台医療福祉専門学校", "P29_005": "宮城県仙台市青葉区中央4-7-20", "P29_006": "4", "P29_007": "0", "P29_008": "00", "P29_009": null }, "geometry": { "type": "Point", "coordinates": [ 140.879272431873602, 38.256603299111241 ] } },
{ "type": "Feature", "properties": { "P29_001": "04101", "P29_002": "H104391010161", "P29_003": "16016", "P29_004": "仙台総合ペット専門学校", "P29_005": "宮城県仙台市青葉区本町2-11-20", "P29_006": "4", "P29_007": "0", "P29_008": "00", "P29_009": null }, "geometry": { "type": "Point", "coordinates": [ 140.875994984374273, 38.265919653475763 ] } },
{ "type": "Feature", "properties": { "P29_001": "04101", "P29_002": "H104391010170", "P29_003": "16016", "P29_004": "東北文化学園専門学校", "P29_005": "宮城県仙台市青葉区国見6-45-16", "P29_006": "4", "P29_007": "0", "P29_008": "00", "P29_009": null }, "geometry": { "type": "Point", "coordinates": [ 140.83417725535088, 38.276065724885427 ] } },
{ "type": "Feature", "properties": { "P29_001": "04101", "P29_002": "H104391010189", "P29_003": "16016", "P29_004": "仙台大原簿記情報公務員専門学校", "P29_005": "宮城県仙台市青葉区中央4-2-25", "P29_006": "4", "P29_007": "0", "P29_008": "00", "P29_009": null }, "geometry": { "type": "Point", "coordinates": [ 140.878450653885579, 38.257873663865894 ] } },
{ "type": "Feature", "properties": { "P29_001": "04101", "P29_002": "H104391010198", "P29_003": "16016", "P29_004": "仙台工科専門学校", "P29_005": "宮城県仙台市青葉区中央4-7-20", "P29_006": "4", "P29_007": "0", "P29_008": "00", "P29_009": null }, "geometry": { "type": "Point", "coordinates": [ 140.879286163287247, 38.256563205704374 ] } },
{ "type": "Feature", "properties": { "P29_001": "04101", "P29_002": "H104391010205", "P29_003": "16016", "P29_004": "仙台ＹＭＣＡ国際ホテル専門学校", "P29_005": "宮城県仙台市青葉区立町9-7", "P29_006": "4", "P29_007": "0", "P29_008": "00", "P29_009": null }, "geometry": { "type": "Point", "coordinates": [ 140.863399939046559, 38.262417459975929 ] } },
{ "type": "Feature", "properties": { "P29_001": "04101", "P29_002": "H104391010214", "P29_003": "16016", "P29_004": "専門学校宮城高等歯科衛生士学院", "P29_005": "宮城県仙台市青葉区国分町1-5-1", "P29_006": "4", "P29_007": "0", "P29_008": "00", "P29_009": null }, "geometry": { "type": "Point", "coordinates": [ 140.870158174158121, 38.261332112276641 ] } },
{ "type": "Feature", "properties": { "P29_001": "04101", "P29_002": "H104391010223", "P29_003": "16016", "P29_004": "仙台幼児保育専門学校", "P29_005": "宮城県仙台市青葉区木町通2-3-39", "P29_006": "4", "P29_007": "0", "P29_008": "00", "P29_009": null }, "geometry": { "type": "Point", "coordinates": [ 140.863312004745325, 38.272388997105054 ] } },
{ "type": "Feature", "properties": { "P29_001": "04101", "P29_002": "H104391010241", "P29_003": "16016", "P29_004": "東京ＩＴプログラミング＆会計専門学校仙台校", "P29_005": "宮城県仙台市青葉区中央1-1-6", "P29_006": "4", "P29_007": "0", "P29_008": "00", "P29_009": null }, "geometry": { "type": "Point", "coordinates": [ 140.881799410744691, 38.257339507077646 ] } },
{ "type": "Feature", "properties": { "P29_001": "04101", "P29_002": "H104391010250", "P29_003": "16016", "P29_004": "東京法律公務員専門学校仙台校", "P29_005": "宮城県仙台市青葉区中央1-1-6", "P29_006": "4", "P29_007": "0", "P29_008": "00", "P29_009": null }, "geometry": { "type": "Point", "coordinates": [ 140.881813839148265, 38.257265335269317 ] } },
{ "type": "Feature", "properties": { "P29_001": "04101", "P29_002": "H104391010269", "P29_003": "16016", "P29_004": "仙台ヘアメイク専門学校", "P29_005": "宮城県仙台市青葉区中央3-4-8", "P29_006": "4", "P29_007": "0", "P29_008": "00", "P29_009": null }, "geometry": { "type": "Point", "coordinates": [ 140.876750345882357, 38.25919978148417 ] } },
{ "type": "Feature", "properties": { "P29_001": "04101", "P29_002": "H104391010287", "P29_003": "16016", "P29_004": "仙台国際美容専門学校", "P29_005": "宮城県仙台市青葉区錦町1-1-2", "P29_006": "4", "P29_007": "0", "P29_008": "00", "P29_009": null }, "geometry": { "type": "Point", "coordinates": [ 140.878952293447441, 38.267947439525315 ] } },
{ "type": "Feature", "properties": { "P29_001": "04101", "P29_002": "H104391010296", "P29_003": "16016", "P29_004": "専門学校アニマルインターカレッジ", "P29_005": "宮城県仙台市青葉区一番町2-2-3", "P29_006": "4", "P29_007": "0", "P29_008": "00", "P29_009": null }, "geometry": { "type": "Point", "coordinates": [ 140.87498261303017, 38.258695459890468 ] } },
{ "type": "Feature", "properties": { "P29_001": "04101", "P29_002": "H104391010303", "P29_003": "16016", "P29_004": "東北保健医療専門学校", "P29_005": "宮城県仙台市青葉区花京院1-3-1", "P29_006": "4", "P29_007": "0", "P29_008": "00", "P29_009": null }, "geometry": { "type": "Point", "coordinates": [ 140.88186384129213, 38.264654490399707 ] } },
{ "type": "Feature", "properties": { "P29_001": "04101", "P29_002": "H104391010312", "P29_003": "16016", "P29_004": "キャスウェルホテルアンドブライダル専門学校", "P29_005": "宮城県仙台市青葉区五橋2-1-13", "P29_006": "4", "P29_007": "0", "P29_008": "00", "P29_009": null }, "geometry": { "type": "Point", "coordinates": [ 140.880599386474103, 38.252329893605292 ] } },
{ "type": "Feature", "properties": { "P29_001": "04101", "P29_002": "H104391010321", "P29_003": "16016", "P29_004": "専修学校河合塾仙台校", "P29_005": "宮城県仙台市青葉区本町2-12-12", "P29_006": "4", "P29_007": "0", "P29_008": "00", "P29_009": null }, "geometry": { "type": "Point", "coordinates": [ 140.874452375835546, 38.264492067657315 ] } },
{ "type": "Feature", "properties": { "P29_001": "04102", "P29_002": "H104391020016", "P29_003": "16016", "P29_004": "ＳＥＮＤＡＩ中央理容美容専門学校", "P29_005": "宮城県仙台市宮城野区新田東2-11-4", "P29_006": "4", "P29_007": "0", "P29_008": "00", "P29_009": null }, "geometry": { "type": "Point", "coordinates": [ 140.933842759675372, 38.275151329601755 ] } },
{ "type": "Feature", "properties": { "P29_001": "04102", "P29_002": "H104391020025", "P29_003": "16016", "P29_004": "仙台接骨医療専門学校", "P29_005": "宮城県仙台市宮城野区福室3-4-16", "P29_006": "4", "P29_007": "0", "P29_008": "00", "P29_009": null }, "geometry": { "type": "Point", "coordinates": [ 140.966809997555629, 38.273614000903457 ] } },
{ "type": "Feature", "properties": { "P29_001": "04102", "P29_002": "H104391020043", "P29_003": "16016", "P29_004": "仙台医療秘書福祉専門学校", "P29_005": "宮城県仙台市宮城野区榴岡4-4-21", "P29_006": "4", "P29_007": "0", "P29_008": "00", "P29_009": null }, "geometry": { "type": "Point", "coordinates": [ 140.887675994955998, 38.258381086360259 ] } },
{ "type": "Feature", "properties": { "P29_001": "04102", "P29_002": "H104391020052", "P29_003": "16016", "P29_004": "仙台リゾート＆スポーツ専門学校", "P29_005": "宮城県仙台市宮城野区榴岡5-13-3", "P29_006": "4", "P29_007": "0", "P29_008": "00", "P29_009": null }, "geometry": { "type": "Point", "coordinates": [ 140.892204734030315, 38.259779885247902 ] } },
{ "type": "Feature", "properties": { "P29_001": "04102", "P29_002": "H104391020061", "P29_003": "16016", "P29_004": "専門学校仙台カレッジオブデザイン", "P29_005": "宮城県仙台市宮城野区原町1-3-21", "P29_006": "4", "P29_007": "0", "P29_008": "00", "P29_009": null }, "geometry": { "type": "Point", "coordinates": [ 140.900415243195482, 38.264206840977913 ] } },
{ "type": "Feature", "properties": { "P29_001": "04102", "P29_002": "H104391020070", "P29_003": "16016", "P29_004": "仙台ビューティーアート専門学校", "P29_005": "宮城県仙台市宮城野区榴岡3-8-25", "P29_006": "4", "P29_007": "0", "P29_008": "00", "P29_009": null }, "geometry": { "type": "Point", "coordinates": [ 140.890374164570318, 38.259648561646145 ] } },
{ "type": "Feature", "properties": { "P29_001": "04102", "P29_002": "H104391020089", "P29_003": "16016", "P29_004": "独立行政法人国立病院機構仙台医療センター附属仙台看護助産学校", "P29_005": "宮城県仙台市宮城野区宮城野2-8-8", "P29_006": "0", "P29_007": "0", "P29_008": "00", "P29_009": null }, "geometry": { "type": "Point", "coordinates": [ 140.908868617049876, 38.260906153144703 ] } },
{ "type": "Feature", "properties": { "P29_001": "04102", "P29_002": "H104391020098", "P29_003": "16016", "P29_004": "仙台農業テック＆カフェ・パティシエ専門学校", "P29_005": "宮城県仙台市宮城野区榴岡4-11-20", "P29_006": "4", "P29_007": "0", "P29_008": "00", "P29_009": null }, "geometry": { "type": "Point", "coordinates": [ 140.889228092634994, 38.258702683741333 ] } },
{ "type": "Feature", "properties": { "P29_001": "04102", "P29_002": "H104391020105", "P29_003": "16016", "P29_004": "仙台スイーツ＆カフェ専門学校", "P29_005": "宮城県仙台市宮城野区榴岡3-8-5", "P29_006": "4", "P29_007": "0", "P29_008": "00", "P29_009": null }, "geometry": { "type": "Point", "coordinates": [ 140.889344285159098, 38.259947897810456 ] } },
{ "type": "Feature", "properties": { "P29_001": "04102", "P29_002": "H104391020114", "P29_003": "16016", "P29_004": "仙台ウェディング＆ブライダル専門学校", "P29_005": "宮城県仙台市宮城野区車町102-5", "P29_006": "4", "P29_007": "0", "P29_008": "00", "P29_009": null }, "geometry": { "type": "Point", "coordinates": [ 140.885416801126411, 38.264883954688607 ] } },
{ "type": "Feature", "properties": { "P29_001": "04102", "P29_002": "H104391020123", "P29_003": "16016", "P29_004": "仙台ＥＣＯ動物海洋専門学校", "P29_005": "宮城県仙台市宮城野区榴岡2-4-19", "P29_006": "4", "P29_007": "0", "P29_008": "00", "P29_009": null }, "geometry": { "type": "Point", "coordinates": [ 140.885884995518438, 38.261508996687844 ] } },
{ "type": "Feature", "properties": { "P29_001": "04102", "P29_002": "H104391020132", "P29_003": "16016", "P29_004": "東北芸術高等専修学校", "P29_005": "宮城県仙台市宮城野区榴岡4-6-20", "P29_006": "4", "P29_007": "0", "P29_008": "00", "P29_009": null }, "geometry": { "type": "Point", "coordinates": [ 140.88630036587773, 38.257463192482305 ] } },
{ "type": "Feature", "properties": { "P29_001": "04102", "P29_002": "H104391020141", "P29_003": "16016", "P29_004": "東北愛犬専門学校", "P29_005": "宮城県仙台市宮城野区榴岡5-12-10", "P29_006": "4", "P29_007": "0", "P29_008": "00", "P29_009": null }, "geometry": { "type": "Point", "coordinates": [ 140.89244900367737, 38.259454001045611 ] } },
{ "type": "Feature", "properties": { "P29_001": "04103", "P29_002": "H104391030014", "P29_003": "16016", "P29_004": "仙台歯科技工士専門学校", "P29_005": "宮城県仙台市若林区新寺3-13-6", "P29_006": "4", "P29_007": "0", "P29_008": "00", "P29_009": null }, "geometry": { "type": "Point", "coordinates": [ 140.890259527676221, 38.253829517148667 ] } },
{ "type": "Feature", "properties": { "P29_001": "04103", "P29_002": "H104391030023", "P29_003": "16016", "P29_004": "専門学校日本デザイナー芸術学院", "P29_005": "宮城県仙台市若林区新寺3-2-1", "P29_006": "4", "P29_007": "0", "P29_008": "00", "P29_009": null }, "geometry": { "type": "Point", "coordinates": [ 140.885521335686661, 38.254937320953196 ] } },
{ "type": "Feature", "properties": { "P29_001": "04103", "P29_002": "H104391030032", "P29_003": "16016", "P29_004": "仙台医健・スポーツ専門学校", "P29_005": "宮城県仙台市若林区新寺2-1-11", "P29_006": "4", "P29_007": "0", "P29_008": "00", "P29_009": null }, "geometry": { "type": "Point", "coordinates": [ 140.886010999203762, 38.256912494603696 ] } },
{ "type": "Feature", "properties": { "P29_001": "04103", "P29_002": "H104391030041", "P29_003": "16016", "P29_004": "仙台こども専門学校", "P29_005": "宮城県仙台市若林区新寺1-4-16", "P29_006": "4", "P29_007": "0", "P29_008": "00", "P29_009": null }, "geometry": { "type": "Point", "coordinates": [ 140.884462994766807, 38.256167995474513 ] } },
{ "type": "Feature", "properties": { "P29_001": "04103", "P29_002": "H104391030050", "P29_003": "16016", "P29_004": "葵会仙台看護専門学校", "P29_005": "宮城県仙台市若林区伊在2-14-5", "P29_006": "4", "P29_007": "0", "P29_008": "00", "P29_009": null }, "geometry": { "type": "Point", "coordinates": [ 140.93899100381816, 38.248554000359199 ] } },
{ "type": "Feature", "properties": { "P29_001": "04102", "P29_002": "H104391030069", "P29_003": "16016", "P29_004": "仙台デザイン＆テクノロジー専門学校", "P29_005": "宮城県仙台市宮城野区榴岡4-12-10", "P29_006": "4", "P29_007": "0", "P29_008": "00", "P29_009": null }, "geometry": { "type": "Point", "coordinates": [ 140.889880117691746, 38.258903176848271 ] } },
{ "type": "Feature", "properties": { "P29_001": "04103", "P29_002": "H104391030078", "P29_003": "16016", "P29_004": "仙台スクールオブミュージック＆ダンス専門学校", "P29_005": "宮城県仙台市若林区新寺2-1-11", "P29_006": "4", "P29_007": "0", "P29_008": "00", "P29_009": null }, "geometry": { "type": "Point", "coordinates": [ 140.886010999203762, 38.256853905611216 ] } },
{ "type": "Feature", "properties": { "P29_001": "04104", "P29_002": "H104391040012", "P29_003": "16016", "P29_004": "東北歯科技工専門学校", "P29_005": "宮城県仙台市太白区向山4-27-8", "P29_006": "4", "P29_007": "0", "P29_008": "00", "P29_009": null }, "geometry": { "type": "Point", "coordinates": [ 140.876277989653914, 38.243320634835712 ] } },
{ "type": "Feature", "properties": { "P29_001": "04104", "P29_002": "H104391040021", "P29_003": "16016", "P29_004": "仙台理容美容専門学校", "P29_005": "宮城県仙台市太白区富沢南2-18-1", "P29_006": "4", "P29_007": "0", "P29_008": "00", "P29_009": null }, "geometry": { "type": "Point", "coordinates": [ 140.868589884002517, 38.210828569652087 ] } },
{ "type": "Feature", "properties": { "P29_001": "04104", "P29_002": "H104391040030", "P29_003": "16016", "P29_004": "東日本医療専門学校", "P29_005": "宮城県仙台市太白区中田4-4-35", "P29_006": "4", "P29_007": "0", "P29_008": "00", "P29_009": null }, "geometry": { "type": "Point", "coordinates": [ 140.891205842393447, 38.199955423533794 ] } },
{ "type": "Feature", "properties": { "P29_001": "04104", "P29_002": "H104391040049", "P29_003": "16016", "P29_004": "仙台徳洲看護専門学校", "P29_005": "宮城県仙台市太白区茂庭台1-3-4", "P29_006": "4", "P29_007": "0", "P29_008": "00", "P29_009": null }, "geometry": { "type": "Point", "coordinates": [ 140.783597833586839, 38.229596701841267 ] } },
{ "type": "Feature", "properties": { "P29_001": "04105", "P29_002": "H104391050019", "P29_003": "16016", "P29_004": "仙台保健福祉専門学校", "P29_005": "宮城県仙台市泉区明通2-1-1", "P29_006": "4", "P29_007": "0", "P29_008": "00", "P29_009": null }, "geometry": { "type": "Point", "coordinates": [ 140.842846652145425, 38.349099977306224 ] } },
{ "type": "Feature", "properties": { "P29_001": "04105", "P29_002": "H104391050028", "P29_003": "16016", "P29_004": "仙台リハビリテーション専門学校", "P29_005": "宮城県仙台市泉区長命ケ丘4-15-1", "P29_006": "4", "P29_007": "0", "P29_008": "00", "P29_009": null }, "geometry": { "type": "Point", "coordinates": [ 140.836367076762997, 38.312871905291651 ] } },
{ "type": "Feature", "properties": { "P29_001": "04105", "P29_002": "H104391050037", "P29_003": "16016", "P29_004": "専門学校東北動物看護学院", "P29_005": "宮城県仙台市泉区高玉町8-12", "P29_006": "4", "P29_007": "0", "P29_008": "00", "P29_009": null }, "geometry": { "type": "Point", "coordinates": [ 140.89587115435117, 38.317273905930996 ] } },
{ "type": "Feature", "properties": { "P29_001": "04105", "P29_002": "H104391050046", "P29_003": "16016", "P29_004": "仙台市医師会看護専門学校", "P29_005": "宮城県仙台市泉区八乙女3-1-1", "P29_006": "4", "P29_007": "0", "P29_008": "00", "P29_009": null }, "geometry": { "type": "Point", "coordinates": [ 140.893727002714087, 38.310044000166769 ] } },
{ "type": "Feature", "properties": { "P29_001": "04202", "P29_002": "H104392020014", "P29_003": "16016", "P29_004": "石巻赤十字看護専門学校", "P29_005": "宮城県石巻市蛇田字西道下71", "P29_006": "4", "P29_007": "0", "P29_008": "00", "P29_009": null }, "geometry": { "type": "Point", "coordinates": [ 141.279629107298717, 38.459218484796622 ] } },
{ "type": "Feature", "properties": { "P29_001": "04203", "P29_002": "H104392030012", "P29_003": "16016", "P29_004": "塩釜洋和裁専門学校", "P29_005": "宮城県塩竈市本町13-5", "P29_006": "4", "P29_007": "0", "P29_008": "00", "P29_009": null }, "geometry": { "type": "Point", "coordinates": [ 141.016098444347733, 38.315980461840006 ] } },
{ "type": "Feature", "properties": { "P29_001": "04205", "P29_002": "H104392050017", "P29_003": "16016", "P29_004": "東北福祉情報専門学校", "P29_005": "宮城県気仙沼市古町2-1-2", "P29_006": "4", "P29_007": "0", "P29_008": "00", "P29_009": null }, "geometry": { "type": "Point", "coordinates": [ 141.567481054849111, 38.906332219848885 ] } },
{ "type": "Feature", "properties": { "P29_001": "04205", "P29_002": "H104392050026", "P29_003": "16016", "P29_004": "気仙沼リアス調理製菓専門学校", "P29_005": "宮城県気仙沼市南町2-2-12", "P29_006": "4", "P29_007": "0", "P29_008": "00", "P29_009": null }, "geometry": { "type": "Point", "coordinates": [ 141.572894363784087, 38.905942733470923 ] } },
{ "type": "Feature", "properties": { "P29_001": "04211", "P29_002": "H104392110015", "P29_003": "16016", "P29_004": "東日本航空専門学校", "P29_005": "宮城県岩沼市下野郷字菱沼84", "P29_006": "4", "P29_007": "0", "P29_008": "00", "P29_009": null }, "geometry": { "type": "Point", "coordinates": [ 140.917865402473808, 38.125236305156101 ] } },
{ "type": "Feature", "properties": { "P29_001": "04212", "P29_002": "H104392120013", "P29_003": "16016", "P29_004": "佐沼ファッション専門学校", "P29_005": "宮城県登米市迫町佐沼字小金丁22-3", "P29_006": "4", "P29_007": "0", "P29_008": "00", "P29_009": null }, "geometry": { "type": "Point", "coordinates": [ 141.195123630930226, 38.687158061222952 ] } }
]
}
