{
"type": "FeatureCollection",
"name": "geo_04_通所リハビリテーション",
"crs": { "type": "name", "properties": { "name": "urn:ogc:def:crs:OGC:1.3:CRS84" } },
"features": [
{ "type": "Feature", "properties": { "内容": "仙台ロイヤルケアセンター【通所リハビリテーション】宮城県仙台市青葉区みやぎ台一丁目31番1号", "url2": "https://www.kaigokensaku.mhlw.go.jp/04/index.php?action_kouhyou_detail_004_kani=true&JigyosyoCd=0455180018-00&ServiceCd=160&Type=search" }, "geometry": { "type": "Point", "coordinates": [ 140.777284399999985, 38.3073494 ] } },
{ "type": "Feature", "properties": { "内容": "小倉整形外科【通所リハビリテーション】宮城県仙台市青葉区上杉一丁目6-10EARTH　BLUE　仙台勾当台2F", "url2": "https://www.kaigokensaku.mhlw.go.jp/04/index.php?action_kouhyou_detail_004_kani=true&JigyosyoCd=0415118363-00&ServiceCd=160&Type=search" }, "geometry": { "type": "Point", "coordinates": [ 140.8700321, 38.2704643 ] } },
{ "type": "Feature", "properties": { "内容": "医療法人財団　明理会　西仙台病院　通所リハビリテーション【通所リハビリテーション】宮城県仙台市青葉区芋沢字新田54-4", "url2": "https://www.kaigokensaku.mhlw.go.jp/04/index.php?action_kouhyou_detail_004_kani=true&JigyosyoCd=0415112788-00&ServiceCd=160&Type=search" }, "geometry": { "type": "Point", "coordinates": [ 140.743251900000018, 38.2755884 ] } },
{ "type": "Feature", "properties": { "内容": "介護老人保健施設ハート五橋【通所リハビリテーション】宮城県仙台市青葉区五橋1丁目1番5号", "url2": "https://www.kaigokensaku.mhlw.go.jp/04/index.php?action_kouhyou_detail_004_kani=true&JigyosyoCd=0455180059-00&ServiceCd=160&Type=search" }, "geometry": { "type": "Point", "coordinates": [ 140.880846799999972, 38.2556332 ] } },
{ "type": "Feature", "properties": { "内容": "介護老人保健施設　由季の里【通所リハビリテーション】宮城県仙台市青葉区折立4丁目1-15", "url2": "https://www.kaigokensaku.mhlw.go.jp/04/index.php?action_kouhyou_detail_004_kani=true&JigyosyoCd=0455180133-00&ServiceCd=160&Type=search" }, "geometry": { "type": "Point", "coordinates": [ 140.809433899999988, 38.2614076 ] } },
{ "type": "Feature", "properties": { "内容": "介護老人保健施設　メープル小田原【通所リハビリテーション】宮城県仙台市青葉区小田原8丁目6-22", "url2": "https://www.kaigokensaku.mhlw.go.jp/04/index.php?action_kouhyou_detail_004_kani=true&JigyosyoCd=0455180091-00&ServiceCd=160&Type=search" }, "geometry": { "type": "Point", "coordinates": [ 140.892917974205034, 38.270850218417408 ] } },
{ "type": "Feature", "properties": { "内容": "せんだんの丘通所リハビリテーション【通所リハビリテーション】宮城県仙台市青葉区国見ヶ丘6丁目126－51", "url2": "https://www.kaigokensaku.mhlw.go.jp/04/index.php?action_kouhyou_detail_004_kani=true&JigyosyoCd=0455180042-00&ServiceCd=160&Type=search" }, "geometry": { "type": "Point", "coordinates": [ 140.8344442, 38.2840815 ] } },
{ "type": "Feature", "properties": { "内容": "介護老人保健施設Challengeすこやか【通所リハビリテーション】仙台市青葉区郷六字久保38番地42", "url2": "https://www.kaigokensaku.mhlw.go.jp/04/index.php?action_kouhyou_detail_004_kani=true&JigyosyoCd=0455180117-00&ServiceCd=160&Type=search" }, "geometry": { "type": "Point", "coordinates": [ 140.814653471025053, 38.261810805456761 ] } },
{ "type": "Feature", "properties": { "内容": "仙台すこやかクリニック【通所リハビリテーション】宮城県仙台市青葉区八幡2-4-13", "url2": "https://www.kaigokensaku.mhlw.go.jp/04/index.php?action_kouhyou_detail_004_kani=true&JigyosyoCd=0415114867-00&ServiceCd=160&Type=search" }, "geometry": { "type": "Point", "coordinates": [ 140.851332400000047, 38.2705448 ] } },
{ "type": "Feature", "properties": { "内容": "国見ナーシングホーム翔裕園【通所リハビリテーション】宮城県仙台市青葉区国見6丁目84番1号", "url2": "https://www.kaigokensaku.mhlw.go.jp/04/index.php?action_kouhyou_detail_004_kani=true&JigyosyoCd=0455180026-00&ServiceCd=160&Type=search" }, "geometry": { "type": "Point", "coordinates": [ 140.828411499999987, 38.2828704 ] } },
{ "type": "Feature", "properties": { "内容": "医療法人徳洲会上愛子クリニック【通所リハビリテーション】宮城県仙台市青葉区上愛子字街道77-3", "url2": "https://www.kaigokensaku.mhlw.go.jp/04/index.php?action_kouhyou_detail_004_kani=true&JigyosyoCd=0475102661-00&ServiceCd=160&Type=search" }, "geometry": { "type": "Point", "coordinates": [ 140.74840990000007, 38.273236 ] } },
{ "type": "Feature", "properties": { "内容": "一般財団法人周行会　内科佐藤病院【通所リハビリテーション】宮城県仙台市青葉区上杉二丁目３番１７号内科佐藤病院５F", "url2": "https://www.kaigokensaku.mhlw.go.jp/04/index.php?action_kouhyou_detail_004_kani=true&JigyosyoCd=0415110261-00&ServiceCd=160&Type=search" }, "geometry": { "type": "Point", "coordinates": [ 140.8692866, 38.2728086 ] } },
{ "type": "Feature", "properties": { "内容": "介護老人保健施設　仙台青葉ロイヤルケアセンター【通所リハビリテーション】宮城県仙台市青葉区吉成台２－３－２０", "url2": "https://www.kaigokensaku.mhlw.go.jp/04/index.php?action_kouhyou_detail_004_kani=true&JigyosyoCd=0455180067-00&ServiceCd=160&Type=search" }, "geometry": { "type": "Point", "coordinates": [ 140.826741299999981, 38.2963993 ] } },
{ "type": "Feature", "properties": { "内容": "医療法人松田会介護老人保健施設エバーグリーン・ツルガヤ【通所リハビリテーション】宮城県仙台市宮城野区鶴ヶ谷字舘下35番地の1", "url2": "https://www.kaigokensaku.mhlw.go.jp/04/index.php?action_kouhyou_detail_004_kani=true&JigyosyoCd=0455280040-00&ServiceCd=160&Type=search" }, "geometry": { "type": "Point", "coordinates": [ 140.919993403041076, 38.297070390356446 ] } },
{ "type": "Feature", "properties": { "内容": "医療法人松田会　鶴ヶ谷クリニック【通所リハビリテーション】仙台市宮城野区鶴ヶ谷字舘下35番地の1", "url2": "https://www.kaigokensaku.mhlw.go.jp/04/index.php?action_kouhyou_detail_004_kani=true&JigyosyoCd=0475202115-00&ServiceCd=160&Type=search" }, "geometry": { "type": "Point", "coordinates": [ 140.9201597, 38.2970325 ] } },
{ "type": "Feature", "properties": { "内容": "サテライト老健けやき【通所リハビリテーション】宮城県仙台市宮城野区東仙台四丁目1-20介護複合施設　careN", "url2": "https://www.kaigokensaku.mhlw.go.jp/04/index.php?action_kouhyou_detail_004_kani=true&JigyosyoCd=0455280057-00&ServiceCd=160&Type=search" }, "geometry": { "type": "Point", "coordinates": [ 140.9082098, 38.2733397 ] } },
{ "type": "Feature", "properties": { "内容": "介護老人保健施設リハビリパーク高砂【通所リハビリテーション】宮城県仙台市宮城野区福室3丁目14番", "url2": "https://www.kaigokensaku.mhlw.go.jp/04/index.php?action_kouhyou_detail_004_kani=true&JigyosyoCd=0455280032-00&ServiceCd=160&Type=search" }, "geometry": { "type": "Point", "coordinates": [ 140.967489185844471, 38.273946374836051 ] } },
{ "type": "Feature", "properties": { "内容": "医療法人　岩切病院【通所リハビリテーション】宮城県仙台市宮城野区岩切字稲荷41-2", "url2": "https://www.kaigokensaku.mhlw.go.jp/04/index.php?action_kouhyou_detail_004_kani=true&JigyosyoCd=0415211812-00&ServiceCd=160&Type=search" }, "geometry": { "type": "Point", "coordinates": [ 140.938270331135527, 38.300158699698443 ] } },
{ "type": "Feature", "properties": { "内容": "介護老人保健施設　コジーケアホーム【通所リハビリテーション】宮城県仙台市宮城野区岩切字稲荷１４", "url2": "https://www.kaigokensaku.mhlw.go.jp/04/index.php?action_kouhyou_detail_004_kani=true&JigyosyoCd=0455280016-00&ServiceCd=160&Type=search" }, "geometry": { "type": "Point", "coordinates": [ 140.938929934393286, 38.300713032319678 ] } },
{ "type": "Feature", "properties": { "内容": "みはるの杜通所リハビリテーション【通所リハビリテーション】宮城県仙台市宮城野区福室二丁目５番２７号", "url2": "https://www.kaigokensaku.mhlw.go.jp/04/index.php?action_kouhyou_detail_004_kani=true&JigyosyoCd=0475200382-00&ServiceCd=160&Type=search" }, "geometry": { "type": "Point", "coordinates": [ 140.965779581945554, 38.272068504164295 ] } },
{ "type": "Feature", "properties": { "内容": "介護老人保健施設春風のころ【通所リハビリテーション】宮城県仙台市若林区日辺字沖田15番", "url2": "https://www.kaigokensaku.mhlw.go.jp/04/index.php?action_kouhyou_detail_004_kani=true&JigyosyoCd=0455380030-00&ServiceCd=160&Type=search" }, "geometry": { "type": "Point", "coordinates": [ 140.914304499999986, 38.2164633 ] } },
{ "type": "Feature", "properties": { "内容": "介護老人保健施設　葵の園・仙台東【通所リハビリテーション】宮城県仙台市若林区荒井東1丁目6番地の11", "url2": "https://www.kaigokensaku.mhlw.go.jp/04/index.php?action_kouhyou_detail_004_kani=true&JigyosyoCd=0455380055-00&ServiceCd=160&Type=search" }, "geometry": { "type": "Point", "coordinates": [ 140.949513866270422, 38.240259866882766 ] } },
{ "type": "Feature", "properties": { "内容": "介護老人保健施設　リハビリパーク仙台東【通所リハビリテーション】宮城県仙台市若林区長喜城字宮浦26番地", "url2": "https://www.kaigokensaku.mhlw.go.jp/04/index.php?action_kouhyou_detail_004_kani=true&JigyosyoCd=0455380022-00&ServiceCd=160&Type=search" }, "geometry": { "type": "Point", "coordinates": [ 140.935970499999939, 38.2391396 ] } },
{ "type": "Feature", "properties": { "内容": "老人保健施設はくれい【通所リハビリテーション】宮城県仙台市若林区今泉字鹿子穴62番地", "url2": "https://www.kaigokensaku.mhlw.go.jp/04/index.php?action_kouhyou_detail_004_kani=true&JigyosyoCd=0455380014-00&ServiceCd=160&Type=search" }, "geometry": { "type": "Point", "coordinates": [ 140.928694899999982, 38.2063069 ] } },
{ "type": "Feature", "properties": { "内容": "介護老人保健施設　茂庭台豊齢ホーム【通所リハビリテーション】宮城県仙台市太白区茂庭台二丁目１６番１０号", "url2": "https://www.kaigokensaku.mhlw.go.jp/04/index.php?action_kouhyou_detail_004_kani=true&JigyosyoCd=0455480012-00&ServiceCd=160&Type=search" }, "geometry": { "type": "Point", "coordinates": [ 140.783045300000026, 38.2329972 ] } },
{ "type": "Feature", "properties": { "内容": "介護老人保健施設　オー・ド・エクラ【通所リハビリテーション】宮城県仙台市太白区茂庭２丁目３番地の３", "url2": "https://www.kaigokensaku.mhlw.go.jp/04/index.php?action_kouhyou_detail_004_kani=true&JigyosyoCd=0455480095-00&ServiceCd=160&Type=search" }, "geometry": { "type": "Point", "coordinates": [ 140.792078525969174, 38.221483190619878 ] } },
{ "type": "Feature", "properties": { "内容": "医療法人　翠十字　杜都千愛病院【通所リハビリテーション】宮城県仙台市太白区茂庭字人来田西8-13", "url2": "https://www.kaigokensaku.mhlw.go.jp/04/index.php?action_kouhyou_detail_004_kani=true&JigyosyoCd=0415411511-00&ServiceCd=160&Type=search" }, "geometry": { "type": "Point", "coordinates": [ 140.801215953753626, 38.215617576637634 ] } },
{ "type": "Feature", "properties": { "内容": "仙台クローバークリニック【通所リハビリテーション】宮城県仙台市太白区あすと長町１－２－１仙台長町メディカルプラザ３F", "url2": "https://www.kaigokensaku.mhlw.go.jp/04/index.php?action_kouhyou_detail_004_kani=true&JigyosyoCd=0415413178-00&ServiceCd=160&Type=search" }, "geometry": { "type": "Point", "coordinates": [ 140.887749699999972, 38.2310941 ] } },
{ "type": "Feature", "properties": { "内容": "宮城島整形外科通所リハビリテーション【通所リハビリテーション】宮城県仙台市太白区西中田４丁目１４番２０号", "url2": "https://www.kaigokensaku.mhlw.go.jp/04/index.php?action_kouhyou_detail_004_kani=true&JigyosyoCd=0415413657-00&ServiceCd=160&Type=search" }, "geometry": { "type": "Point", "coordinates": [ 140.881868188360642, 38.194975942636965 ] } },
{ "type": "Feature", "properties": { "内容": "医療法人松田会　介護老人保健施設　エバーグリーン・ヤギヤマ【通所リハビリテーション】宮城県仙台市太白区八木山香澄町1番20", "url2": "https://www.kaigokensaku.mhlw.go.jp/04/index.php?action_kouhyou_detail_004_kani=true&JigyosyoCd=0455480061-00&ServiceCd=160&Type=search" }, "geometry": { "type": "Point", "coordinates": [ 140.865281900000014, 38.2464173 ] } },
{ "type": "Feature", "properties": { "内容": "介護老人保健施設　葵の園・仙台【通所リハビリテーション】宮城県仙台市太白区鈎取2丁目28-1", "url2": "https://www.kaigokensaku.mhlw.go.jp/04/index.php?action_kouhyou_detail_004_kani=true&JigyosyoCd=0455480079-00&ServiceCd=160&Type=search" }, "geometry": { "type": "Point", "coordinates": [ 140.840787299999988, 38.2297437 ] } },
{ "type": "Feature", "properties": { "内容": "ないとうクリニック【通所リハビリテーション】宮城県仙台市太白区茂庭台3丁目30番30号", "url2": "https://www.kaigokensaku.mhlw.go.jp/04/index.php?action_kouhyou_detail_004_kani=true&JigyosyoCd=0415411859-00&ServiceCd=160&Type=search" }, "geometry": { "type": "Point", "coordinates": [ 140.789897200000041, 38.2395828 ] } },
{ "type": "Feature", "properties": { "内容": "介護老人保健施設　葵の園・柳生【通所リハビリテーション】宮城県仙台市太白区柳生字台57-1", "url2": "https://www.kaigokensaku.mhlw.go.jp/04/index.php?action_kouhyou_detail_004_kani=true&JigyosyoCd=0455480087-00&ServiceCd=160&Type=search" }, "geometry": { "type": "Point", "coordinates": [ 140.874708346032776, 38.201321402669571 ] } },
{ "type": "Feature", "properties": { "内容": "通所リハビリテーションノテやるきになる里【通所リハビリテーション】宮城県仙台市太白区富沢西3丁目10-1", "url2": "https://www.kaigokensaku.mhlw.go.jp/04/index.php?action_kouhyou_detail_004_kani=true&JigyosyoCd=0455480103-00&ServiceCd=160&Type=search" }, "geometry": { "type": "Point", "coordinates": [ 140.854931504368579, 38.208856428185683 ] } },
{ "type": "Feature", "properties": { "内容": "公益財団法人　宮城厚生協会　長町病院【通所リハビリテーション】宮城県仙台市太白区長町3-7-26", "url2": "https://www.kaigokensaku.mhlw.go.jp/04/index.php?action_kouhyou_detail_004_kani=true&JigyosyoCd=0415410471-00&ServiceCd=160&Type=search" }, "geometry": { "type": "Point", "coordinates": [ 140.883927366331505, 38.229788894365072 ] } },
{ "type": "Feature", "properties": { "内容": "独立行政法人地域医療機能推進機構仙台南病院附属介護老人保健施設【通所リハビリテーション】宮城県仙台市太白区中田町字前沖143番地", "url2": "https://www.kaigokensaku.mhlw.go.jp/04/index.php?action_kouhyou_detail_004_kani=true&JigyosyoCd=0455480038-00&ServiceCd=160&Type=search" }, "geometry": { "type": "Point", "coordinates": [ 140.898886599999969, 38.1904435 ] } },
{ "type": "Feature", "properties": { "内容": "西中田中央内科小児科通所リハビリテーション【通所リハビリテーション】宮城県仙台市太白区西中田5丁目12-12", "url2": "https://www.kaigokensaku.mhlw.go.jp/04/index.php?action_kouhyou_detail_004_kani=true&JigyosyoCd=0415411164-00&ServiceCd=160&Type=search" }, "geometry": { "type": "Point", "coordinates": [ 140.876560299999937, 38.1964866 ] } },
{ "type": "Feature", "properties": { "内容": "仙台北部整形外科【通所リハビリテーション】宮城県仙台市泉区大沢2丁目１３－４", "url2": "https://www.kaigokensaku.mhlw.go.jp/04/index.php?action_kouhyou_detail_004_kani=true&JigyosyoCd=0415512557-00&ServiceCd=160&Type=search" }, "geometry": { "type": "Point", "coordinates": [ 140.877117, 38.3511638 ] } },
{ "type": "Feature", "properties": { "内容": "介護老人保健施設　葵の園・仙台泉【通所リハビリテーション】宮城県仙台市泉区泉中央南16番", "url2": "https://www.kaigokensaku.mhlw.go.jp/04/index.php?action_kouhyou_detail_004_kani=true&JigyosyoCd=0455580084-00&ServiceCd=160&Type=search" }, "geometry": { "type": "Point", "coordinates": [ 140.869536596017497, 38.320849167062363 ] } },
{ "type": "Feature", "properties": { "内容": "介護老人保健施設　ファンコート泉【通所リハビリテーション】宮城県仙台市泉区西田中字萱場中３７番１", "url2": "https://www.kaigokensaku.mhlw.go.jp/04/index.php?action_kouhyou_detail_004_kani=true&JigyosyoCd=0455580076-00&ServiceCd=160&Type=search" }, "geometry": { "type": "Point", "coordinates": [ 140.786463700000013, 38.3244648 ] } },
{ "type": "Feature", "properties": { "内容": "医療法人松田会　介護老人保健施設エバーグリーン・イズミ【通所リハビリテーション】宮城県仙台市泉区実沢字立田屋敷１７番地の１", "url2": "https://www.kaigokensaku.mhlw.go.jp/04/index.php?action_kouhyou_detail_004_kani=true&JigyosyoCd=0455580019-00&ServiceCd=160&Type=search" }, "geometry": { "type": "Point", "coordinates": [ 140.838660200000049, 38.3344617 ] } },
{ "type": "Feature", "properties": { "内容": "医療法人　松田会　仙台脳外科クリニック泉中央【通所リハビリテーション】仙台市泉区泉中央1丁目39番2", "url2": "https://www.kaigokensaku.mhlw.go.jp/04/index.php?action_kouhyou_detail_004_kani=true&JigyosyoCd=0475501953-00&ServiceCd=160&Type=search" }, "geometry": { "type": "Point", "coordinates": [ 140.874920322090134, 38.324176123822689 ] } },
{ "type": "Feature", "properties": { "内容": "森整形外科リウマチ科クリニック【通所リハビリテーション】宮城県仙台市泉区南中山1丁目42-5判場ビル3F", "url2": "https://www.kaigokensaku.mhlw.go.jp/04/index.php?action_kouhyou_detail_004_kani=true&JigyosyoCd=0415513704-00&ServiceCd=160&Type=search" }, "geometry": { "type": "Point", "coordinates": [ 140.8275006, 38.2970334 ] } },
{ "type": "Feature", "properties": { "内容": "介護老人保健施設　プレシオーソ【通所リハビリテーション】宮城県仙台市泉区南光台７丁目１番１８号介護老人保健施設　プレシオーソ", "url2": "https://www.kaigokensaku.mhlw.go.jp/04/index.php?action_kouhyou_detail_004_kani=true&JigyosyoCd=0455580068-00&ServiceCd=160&Type=search" }, "geometry": { "type": "Point", "coordinates": [ 140.898233800000071, 38.2991927 ] } },
{ "type": "Feature", "properties": { "内容": "宮城厚生協会　泉病院【通所リハビリテーション】宮城県仙台市泉区長命ヶ丘2丁目1-1", "url2": "https://www.kaigokensaku.mhlw.go.jp/04/index.php?action_kouhyou_detail_004_kani=true&JigyosyoCd=0415510445-00&ServiceCd=160&Type=search" }, "geometry": { "type": "Point", "coordinates": [ 140.844030976721228, 38.317001137833849 ] } },
{ "type": "Feature", "properties": { "内容": "仙台たなか整形外科スポーツクリニック【通所リハビリテーション】宮城県仙台市泉区長命ヶ丘2-21-12Fブランチ仙台WEST2F", "url2": "https://www.kaigokensaku.mhlw.go.jp/04/index.php?action_kouhyou_detail_004_kani=true&JigyosyoCd=0415513480-00&ServiceCd=160&Type=search" }, "geometry": { "type": "Point", "coordinates": [ 140.845309500000013, 38.3099855 ] } },
{ "type": "Feature", "properties": { "内容": "医療法人　　松田会　　　松田病院【通所リハビリテーション】宮城県仙台市泉区実沢字立田屋敷17番地の１", "url2": "https://www.kaigokensaku.mhlw.go.jp/04/index.php?action_kouhyou_detail_004_kani=true&JigyosyoCd=0415510577-00&ServiceCd=160&Type=search" }, "geometry": { "type": "Point", "coordinates": [ 140.838096936106922, 38.334541649448326 ] } },
{ "type": "Feature", "properties": { "内容": "介護老人保健施設コスモス　通所リハビリテーション【通所リハビリテーション】宮城県仙台市泉区上谷刈字長命8番地", "url2": "https://www.kaigokensaku.mhlw.go.jp/04/index.php?action_kouhyou_detail_004_kani=true&JigyosyoCd=0455580035-00&ServiceCd=160&Type=search" }, "geometry": { "type": "Point", "coordinates": [ 140.856379, 38.3188336 ] } },
{ "type": "Feature", "properties": { "内容": "医療法人徳洲会　介護老人保健施設　シルバーホーム　いずみ【通所リハビリテーション】宮城県仙台市泉区高玉町9-8", "url2": "https://www.kaigokensaku.mhlw.go.jp/04/index.php?action_kouhyou_detail_004_kani=true&JigyosyoCd=0455580027-00&ServiceCd=160&Type=search" }, "geometry": { "type": "Point", "coordinates": [ 140.89490327211314, 38.316379347006702 ] } },
{ "type": "Feature", "properties": { "内容": "いずみの杜通所リハビリテーション【通所リハビリテーション】宮城県仙台市泉区松森字下町８番地の１", "url2": "https://www.kaigokensaku.mhlw.go.jp/04/index.php?action_kouhyou_detail_004_kani=true&JigyosyoCd=0475500245-00&ServiceCd=160&Type=search" }, "geometry": { "type": "Point", "coordinates": [ 140.914564599999949, 38.3165998 ] } },
{ "type": "Feature", "properties": { "内容": "介護老人保健施設いずみの杜【通所リハビリテーション】宮城県仙台市泉区松森字西沢２６番地の４", "url2": "https://www.kaigokensaku.mhlw.go.jp/04/index.php?action_kouhyou_detail_004_kani=true&JigyosyoCd=0455580050-00&ServiceCd=160&Type=search" }, "geometry": { "type": "Point", "coordinates": [ 140.914259099999981, 38.316410900000015 ] } },
{ "type": "Feature", "properties": { "内容": "医療法人社団仁明会　齋藤病院【通所リハビリテーション】宮城県石巻市山下町1-7-24", "url2": "https://www.kaigokensaku.mhlw.go.jp/04/index.php?action_kouhyou_detail_004_kani=true&JigyosyoCd=0410211320-00&ServiceCd=160&Type=search" }, "geometry": { "type": "Point", "coordinates": [ 141.293256361901854, 38.432557920043052 ] } },
{ "type": "Feature", "properties": { "内容": "介護老人保健施設　恵仁ホーム通所リハビリテーション【通所リハビリテーション】宮城県石巻市山下町二丁目１番５号", "url2": "https://www.kaigokensaku.mhlw.go.jp/04/index.php?action_kouhyou_detail_004_kani=true&JigyosyoCd=0450280011-00&ServiceCd=160&Type=search" }, "geometry": { "type": "Point", "coordinates": [ 141.292645499999907, 38.4320023 ] } },
{ "type": "Feature", "properties": { "内容": "医療法人社団健育会石巻健育会病院【通所リハビリテーション】宮城県石巻市大街道西三丁目3番27号石巻健育会病院１階", "url2": "https://www.kaigokensaku.mhlw.go.jp/04/index.php?action_kouhyou_detail_004_kani=true&JigyosyoCd=0410211569-00&ServiceCd=160&Type=search" }, "geometry": { "type": "Point", "coordinates": [ 141.271457624331703, 38.431377541298041 ] } },
{ "type": "Feature", "properties": { "内容": "介護老人保健施設第二恵仁ホーム【通所リハビリテーション】宮城県石巻市門脇字一番谷地５７番地の１８", "url2": "https://www.kaigokensaku.mhlw.go.jp/04/index.php?action_kouhyou_detail_004_kani=true&JigyosyoCd=0450280037-00&ServiceCd=160&Type=search" }, "geometry": { "type": "Point", "coordinates": [ 141.26324180000006, 38.4336152 ] } },
{ "type": "Feature", "properties": { "内容": "介護老人保健施設リハビリパーク花もよう【通所リハビリテーション】宮城県石巻市大橋３丁目９番１号－", "url2": "https://www.kaigokensaku.mhlw.go.jp/04/index.php?action_kouhyou_detail_004_kani=true&JigyosyoCd=0450280029-00&ServiceCd=160&Type=search" }, "geometry": { "type": "Point", "coordinates": [ 141.3117909, 38.4428129 ] } },
{ "type": "Feature", "properties": { "内容": "医療法人　啓仁会　石巻ロイヤル病院【通所リハビリテーション】宮城県石巻市広渕字焼巻２番地", "url2": "https://www.kaigokensaku.mhlw.go.jp/04/index.php?action_kouhyou_detail_004_kani=true&JigyosyoCd=0410212468-00&ServiceCd=160&Type=search" }, "geometry": { "type": "Point", "coordinates": [ 141.2136087, 38.471526 ] } },
{ "type": "Feature", "properties": { "内容": "医療法人海邦会介護老人保健施設長山【通所リハビリテーション】宮城県石巻市広渕字長山２００番地", "url2": "https://www.kaigokensaku.mhlw.go.jp/04/index.php?action_kouhyou_detail_004_kani=true&JigyosyoCd=0450280060-00&ServiceCd=160&Type=search" }, "geometry": { "type": "Point", "coordinates": [ 141.197637900000018, 38.4738946 ] } },
{ "type": "Feature", "properties": { "内容": "介護老人保健施設　しおん【通所リハビリテーション】宮城県石巻市吉野町１－７－１", "url2": "https://www.kaigokensaku.mhlw.go.jp/04/index.php?action_kouhyou_detail_004_kani=true&JigyosyoCd=0450280086-00&ServiceCd=160&Type=search" }, "geometry": { "type": "Point", "coordinates": [ 141.318135, 38.4261203 ] } },
{ "type": "Feature", "properties": { "内容": "介護老人保健施設グリーンヒルズ【通所リハビリテーション】宮城県塩竃市西玉川町１番28号", "url2": "https://www.kaigokensaku.mhlw.go.jp/04/index.php?action_kouhyou_detail_004_kani=true&JigyosyoCd=0450380019-00&ServiceCd=160&Type=search" }, "geometry": { "type": "Point", "coordinates": [ 141.001490594442771, 38.309743827776721 ] } },
{ "type": "Feature", "properties": { "内容": "公益財団法人宮城厚生協会坂総合病院附属北部診療所【通所リハビリテーション】宮城県塩釜市庚塚1番3", "url2": "https://www.kaigokensaku.mhlw.go.jp/04/index.php?action_kouhyou_detail_004_kani=true&JigyosyoCd=0410310775-00&ServiceCd=160&Type=search" }, "geometry": { "type": "Point", "coordinates": [ 141.017060099999981, 38.3298381 ] } },
{ "type": "Feature", "properties": { "内容": "医療法人財団五倫会ももせクリニック通所リハビリテーション【通所リハビリテーション】宮城県塩竃市清水沢4-37-20", "url2": "https://www.kaigokensaku.mhlw.go.jp/04/index.php?action_kouhyou_detail_004_kani=true&JigyosyoCd=0410311112-00&ServiceCd=160&Type=search" }, "geometry": { "type": "Point", "coordinates": [ 141.008871699999986, 38.3349928 ] } },
{ "type": "Feature", "properties": { "内容": "介護老人保健施設　はまなすの丘【通所リハビリテーション】宮城県気仙沼市本吉町外尾25番地", "url2": "https://www.kaigokensaku.mhlw.go.jp/04/index.php?action_kouhyou_detail_004_kani=true&JigyosyoCd=0453680035-00&ServiceCd=160&Type=search" }, "geometry": { "type": "Point", "coordinates": [ 141.499599, 38.7643277 ] } },
{ "type": "Feature", "properties": { "内容": "医療法人社団晃和会　　介護老人保健施設リンデンバウムの杜【通所リハビリテーション】宮城県気仙沼市東新城2-9-1", "url2": "https://www.kaigokensaku.mhlw.go.jp/04/index.php?action_kouhyou_detail_004_kani=true&JigyosyoCd=0450580022-00&ServiceCd=160&Type=search" }, "geometry": { "type": "Point", "coordinates": [ 141.549055, 38.9057564 ] } },
{ "type": "Feature", "properties": { "内容": "老人保健施設リバーサイド春圃　指定通所リハビリテーション【通所リハビリテーション】宮城県気仙沼市舘山一丁目1番43号", "url2": "https://www.kaigokensaku.mhlw.go.jp/04/index.php?action_kouhyou_detail_004_kani=true&JigyosyoCd=0450580014-00&ServiceCd=160&Type=search" }, "geometry": { "type": "Point", "coordinates": [ 141.560493103704857, 38.903022592195072 ] } },
{ "type": "Feature", "properties": { "内容": "介護老人保健施設　清風【通所リハビリテーション】宮城県白石市大手町2－1", "url2": "https://www.kaigokensaku.mhlw.go.jp/04/index.php?action_kouhyou_detail_004_kani=true&JigyosyoCd=0450680020-00&ServiceCd=160&Type=search" }, "geometry": { "type": "Point", "coordinates": [ 140.618963300000019, 38.0031333 ] } },
{ "type": "Feature", "properties": { "内容": "医療法人社団朝倉会老人保健施設あさくらホーム【通所リハビリテーション】宮城県白石市字本町89番地", "url2": "https://www.kaigokensaku.mhlw.go.jp/04/index.php?action_kouhyou_detail_004_kani=true&JigyosyoCd=0450680012-00&ServiceCd=160&Type=search" }, "geometry": { "type": "Point", "coordinates": [ 140.623320385844409, 38.002335883332215 ] } },
{ "type": "Feature", "properties": { "内容": "老人保健施設　ライフケアセンター名取【通所リハビリテーション】宮城県名取市増田字柳田８", "url2": "https://www.kaigokensaku.mhlw.go.jp/04/index.php?action_kouhyou_detail_004_kani=true&JigyosyoCd=0450780028-00&ServiceCd=160&Type=search" }, "geometry": { "type": "Point", "coordinates": [ 140.893585199999961, 38.1721339 ] } },
{ "type": "Feature", "properties": { "内容": "介護老人保健施設なとり　通所リハビリテーション【通所リハビリテーション】宮城県名取市高舘熊野堂字岩口下1-2", "url2": "https://www.kaigokensaku.mhlw.go.jp/04/index.php?action_kouhyou_detail_004_kani=true&JigyosyoCd=0450780036-00&ServiceCd=160&Type=search" }, "geometry": { "type": "Point", "coordinates": [ 140.846060200000011, 38.1975025 ] } },
{ "type": "Feature", "properties": { "内容": "介護老人保健施設　はくあいホーム【通所リハビリテーション】宮城県角田市角田字牛舘16番地", "url2": "https://www.kaigokensaku.mhlw.go.jp/04/index.php?action_kouhyou_detail_004_kani=true&JigyosyoCd=0450880026-00&ServiceCd=160&Type=search" }, "geometry": { "type": "Point", "coordinates": [ 140.783132, 37.9716329 ] } },
{ "type": "Feature", "properties": { "内容": "介護老人保健施設ゆうゆうホーム【通所リハビリテーション】宮城県角田市角田字田町114番地9", "url2": "https://www.kaigokensaku.mhlw.go.jp/04/index.php?action_kouhyou_detail_004_kani=true&JigyosyoCd=0450880018-00&ServiceCd=160&Type=search" }, "geometry": { "type": "Point", "coordinates": [ 140.786353800000029, 37.9737298 ] } },
{ "type": "Feature", "properties": { "内容": "医療法人　兀兀堂　コツコツクリニック　多賀城整形外科【通所リハビリテーション】宮城県多賀城市高橋4-20-5", "url2": "https://www.kaigokensaku.mhlw.go.jp/04/index.php?action_kouhyou_detail_004_kani=true&JigyosyoCd=0410910749-00&ServiceCd=160&Type=search" }, "geometry": { "type": "Point", "coordinates": [ 140.980440700000031, 38.2894242 ] } },
{ "type": "Feature", "properties": { "内容": "介護老人保健施設　恵愛ホーム【通所リハビリテーション】宮城県多賀城市大代5丁目16番46号", "url2": "https://www.kaigokensaku.mhlw.go.jp/04/index.php?action_kouhyou_detail_004_kani=true&JigyosyoCd=0450980032-00&ServiceCd=160&Type=search" }, "geometry": { "type": "Point", "coordinates": [ 141.0391539, 38.2936871 ] } },
{ "type": "Feature", "properties": { "内容": "介護老人保健施設　リハビリパークみやび【通所リハビリテーション】宮城県多賀城市高橋4丁目17-16", "url2": "https://www.kaigokensaku.mhlw.go.jp/04/index.php?action_kouhyou_detail_004_kani=true&JigyosyoCd=0450980016-00&ServiceCd=160&Type=search" }, "geometry": { "type": "Point", "coordinates": [ 140.981391300000041, 38.2881501 ] } },
{ "type": "Feature", "properties": { "内容": "サニーホーム【通所リハビリテーション】宮城県岩沼市里の杜１丁目2-6", "url2": "https://www.kaigokensaku.mhlw.go.jp/04/index.php?action_kouhyou_detail_004_kani=true&JigyosyoCd=0451180012-00&ServiceCd=160&Type=search" }, "geometry": { "type": "Point", "coordinates": [ 140.876876399999986, 38.1081141 ] } },
{ "type": "Feature", "properties": { "内容": "総合南東北病院【通所リハビリテーション】宮城県岩沼市里の杜1丁目2番5号", "url2": "https://www.kaigokensaku.mhlw.go.jp/04/index.php?action_kouhyou_detail_004_kani=true&JigyosyoCd=0411110273-00&ServiceCd=160&Type=search" }, "geometry": { "type": "Point", "coordinates": [ 140.87703190000002, 38.1091113 ] } },
{ "type": "Feature", "properties": { "内容": "介護老人保健施設なかだ【通所リハビリテーション】宮城県登米市中田町浅水字上川面65－1", "url2": "https://www.kaigokensaku.mhlw.go.jp/04/index.php?action_kouhyou_detail_004_kani=true&JigyosyoCd=0451280044-00&ServiceCd=160&Type=search" }, "geometry": { "type": "Point", "coordinates": [ 141.2619939, 38.7155727 ] } },
{ "type": "Feature", "properties": { "内容": "登米市立豊里老人保健施設【通所リハビリテーション】宮城県登米市豊里町土手下104番地1", "url2": "https://www.kaigokensaku.mhlw.go.jp/04/index.php?action_kouhyou_detail_004_kani=true&JigyosyoCd=0451280028-00&ServiceCd=160&Type=search" }, "geometry": { "type": "Point", "coordinates": [ 141.253272899999956, 38.5871671 ] } },
{ "type": "Feature", "properties": { "内容": "南方ナーシングホーム翔裕園【通所リハビリテーション】宮城県登米市南方町山成前791番地1", "url2": "https://www.kaigokensaku.mhlw.go.jp/04/index.php?action_kouhyou_detail_004_kani=true&JigyosyoCd=0451280036-00&ServiceCd=160&Type=search" }, "geometry": { "type": "Point", "coordinates": [ 141.150214600000027, 38.6573663 ] } },
{ "type": "Feature", "properties": { "内容": "介護老人保健施設せみねの丘【通所リハビリテーション】宮城県栗原市瀬峰根岸55-2", "url2": "https://www.kaigokensaku.mhlw.go.jp/04/index.php?action_kouhyou_detail_004_kani=true&JigyosyoCd=0451380059-00&ServiceCd=160&Type=search" }, "geometry": { "type": "Point", "coordinates": [ 141.07125260226897, 38.652342711802376 ] } },
{ "type": "Feature", "properties": { "内容": "介護老人保健施設　高森ロマンホーム【通所リハビリテーション】宮城県栗原市築館字下高森124-1", "url2": "https://www.kaigokensaku.mhlw.go.jp/04/index.php?action_kouhyou_detail_004_kani=true&JigyosyoCd=0451380018-00&ServiceCd=160&Type=search" }, "geometry": { "type": "Point", "coordinates": [ 140.984322300000031, 38.7159817 ] } },
{ "type": "Feature", "properties": { "内容": "通所リハビリテーション　PFC藤の里【通所リハビリテーション】宮城県栗原市瀬峰新田沢１２番地１", "url2": "https://www.kaigokensaku.mhlw.go.jp/04/index.php?action_kouhyou_detail_004_kani=true&JigyosyoCd=0451380067-00&ServiceCd=160&Type=search" }, "geometry": { "type": "Point", "coordinates": [ 141.072632, 38.6666941 ] } },
{ "type": "Feature", "properties": { "内容": "医療法人財団弘慈会石橋病院【通所リハビリテーション】宮城県栗原市若柳字川北堤下27番地", "url2": "https://www.kaigokensaku.mhlw.go.jp/04/index.php?action_kouhyou_detail_004_kani=true&JigyosyoCd=0411310147-00&ServiceCd=160&Type=search" }, "geometry": { "type": "Point", "coordinates": [ 141.12704789999998, 38.7751308 ] } },
{ "type": "Feature", "properties": { "内容": "介護老人保健施設　グレイスガーデン【通所リハビリテーション】宮城県栗原市若柳字福岡谷地畑浦35", "url2": "https://www.kaigokensaku.mhlw.go.jp/04/index.php?action_kouhyou_detail_004_kani=true&JigyosyoCd=0451380026-00&ServiceCd=160&Type=search" }, "geometry": { "type": "Point", "coordinates": [ 141.117026399999986, 38.7836547 ] } },
{ "type": "Feature", "properties": { "内容": "介護老人保健施設　シエスタ【通所リハビリテーション】宮城県栗原市金成末野台下31番地1", "url2": "https://www.kaigokensaku.mhlw.go.jp/04/index.php?action_kouhyou_detail_004_kani=true&JigyosyoCd=0451380034-00&ServiceCd=160&Type=search" }, "geometry": { "type": "Point", "coordinates": [ 141.100017500000035, 38.8475054 ] } },
{ "type": "Feature", "properties": { "内容": "介護老人保健施設　さつき苑【通所リハビリテーション】宮城県東松島市大塩字山崎42番地1", "url2": "https://www.kaigokensaku.mhlw.go.jp/04/index.php?action_kouhyou_detail_004_kani=true&JigyosyoCd=0451480016-00&ServiceCd=160&Type=search" }, "geometry": { "type": "Point", "coordinates": [ 141.1783084, 38.4366763 ] } },
{ "type": "Feature", "properties": { "内容": "介護老人保健施設　アミスタ【通所リハビリテーション】宮城県大崎市古川浦町1-37", "url2": "https://www.kaigokensaku.mhlw.go.jp/04/index.php?action_kouhyou_detail_004_kani=true&JigyosyoCd=0451580013-00&ServiceCd=160&Type=search" }, "geometry": { "type": "Point", "coordinates": [ 140.9574576, 38.5779131 ] } },
{ "type": "Feature", "properties": { "内容": "医療法人　心の郷　穂波の郷クリニック　通所リハビリテーション【通所リハビリテーション】宮城県大崎市古川穂波六丁目30番12号穂波の郷クリニック", "url2": "https://www.kaigokensaku.mhlw.go.jp/04/index.php?action_kouhyou_detail_004_kani=true&JigyosyoCd=0411511074-00&ServiceCd=160&Type=search" }, "geometry": { "type": "Point", "coordinates": [ 140.939229100000034, 38.5667218 ] } },
{ "type": "Feature", "properties": { "内容": "介護老人保健施設リハビリパークあやめ【通所リハビリテーション】宮城県大崎市古川旭３丁目６－１", "url2": "https://www.kaigokensaku.mhlw.go.jp/04/index.php?action_kouhyou_detail_004_kani=true&JigyosyoCd=0451580054-00&ServiceCd=160&Type=search" }, "geometry": { "type": "Point", "coordinates": [ 140.974861899999951, 38.5685703 ] } },
{ "type": "Feature", "properties": { "内容": "通所リハビリテーション　ジュイールクラブ【通所リハビリテーション】宮城県大崎市古川北町2丁目5番15号", "url2": "https://www.kaigokensaku.mhlw.go.jp/04/index.php?action_kouhyou_detail_004_kani=true&JigyosyoCd=0451580062-00&ServiceCd=160&Type=search" }, "geometry": { "type": "Point", "coordinates": [ 140.965620599999966, 38.5795937 ] } },
{ "type": "Feature", "properties": { "内容": "介護老人保健施設　ヒューマンシティ松山通所リハビリテーション事業所【通所リハビリテーション】宮城県大崎市松山千石字広田35番地", "url2": "https://www.kaigokensaku.mhlw.go.jp/04/index.php?action_kouhyou_detail_004_kani=true&JigyosyoCd=0451580039-00&ServiceCd=160&Type=search" }, "geometry": { "type": "Point", "coordinates": [ 141.061228699999987, 38.5146609 ] } },
{ "type": "Feature", "properties": { "内容": "大崎ミッドタウン総合メディケアクリニック【通所リハビリテーション】宮城県大崎市松山金谷字中田76-1", "url2": "https://www.kaigokensaku.mhlw.go.jp/04/index.php?action_kouhyou_detail_004_kani=true&JigyosyoCd=0411511157-00&ServiceCd=160&Type=search" }, "geometry": { "type": "Point", "coordinates": [ 141.062206300000071, 38.5148221 ] } },
{ "type": "Feature", "properties": { "内容": "介護老人保健施設　庭の里【通所リハビリテーション】宮城県大崎市古川江合本町２丁目２－５", "url2": "https://www.kaigokensaku.mhlw.go.jp/04/index.php?action_kouhyou_detail_004_kani=true&JigyosyoCd=0451580047-00&ServiceCd=160&Type=search" }, "geometry": { "type": "Point", "coordinates": [ 140.971652899999981, 38.5889538 ] } },
{ "type": "Feature", "properties": { "内容": "介護老人保健施設　富谷の郷【通所リハビリテーション】宮城県富谷市三ノ関坂ノ下116番3", "url2": "https://www.kaigokensaku.mhlw.go.jp/04/index.php?action_kouhyou_detail_004_kani=true&JigyosyoCd=0451680011-00&ServiceCd=160&Type=search" }, "geometry": { "type": "Point", "coordinates": [ 140.892191101852404, 38.406845731960246 ] } },
{ "type": "Feature", "properties": { "内容": "仙台リハビリテーション病院　通所リハビリテーション事業所【通所リハビリテーション】宮城県富谷市成田1-3-1", "url2": "https://www.kaigokensaku.mhlw.go.jp/04/index.php?action_kouhyou_detail_004_kani=true&JigyosyoCd=0411610207-00&ServiceCd=160&Type=search" }, "geometry": { "type": "Point", "coordinates": [ 140.89098690000003, 38.3665345 ] } },
{ "type": "Feature", "properties": { "内容": "介護老人保健施設　リーブズ【通所リハビリテーション】宮城県富谷市成田二丁目1番地の3", "url2": "https://www.kaigokensaku.mhlw.go.jp/04/index.php?action_kouhyou_detail_004_kani=true&JigyosyoCd=0452780034-00&ServiceCd=160&Type=search" }, "geometry": { "type": "Point", "coordinates": [ 140.8868847, 38.36400410000001 ] } },
{ "type": "Feature", "properties": { "内容": "介護老人保健施設さくらの杜【通所リハビリテーション】宮城県柴田郡大河原町字広表３３番地１", "url2": "https://www.kaigokensaku.mhlw.go.jp/04/index.php?action_kouhyou_detail_004_kani=true&JigyosyoCd=0452280043-00&ServiceCd=160&Type=search" }, "geometry": { "type": "Point", "coordinates": [ 140.7167528, 38.0484812 ] } },
{ "type": "Feature", "properties": { "内容": "介護老人保健施設　あいやま【通所リハビリテーション】宮城県柴田郡村田町大字村田字相山100番地5", "url2": "https://www.kaigokensaku.mhlw.go.jp/04/index.php?action_kouhyou_detail_004_kani=true&JigyosyoCd=0452280035-00&ServiceCd=160&Type=search" }, "geometry": { "type": "Point", "coordinates": [ 140.723141899999973, 38.1288611 ] } },
{ "type": "Feature", "properties": { "内容": "介護老人保健施設　リハビリパークさくら【通所リハビリテーション】宮城県柴田郡柴田町船岡新栄6丁目6番地5", "url2": "https://www.kaigokensaku.mhlw.go.jp/04/index.php?action_kouhyou_detail_004_kani=true&JigyosyoCd=0452280027-00&ServiceCd=160&Type=search" }, "geometry": { "type": "Point", "coordinates": [ 140.781464, 38.0481201 ] } },
{ "type": "Feature", "properties": { "内容": "アルパイン川崎【通所リハビリテーション】宮城県柴田郡川崎町大字前川字北原５９番地の６", "url2": "https://www.kaigokensaku.mhlw.go.jp/04/index.php?action_kouhyou_detail_004_kani=true&JigyosyoCd=0452280019-00&ServiceCd=160&Type=search" }, "geometry": { "type": "Point", "coordinates": [ 140.629458699999986, 38.1825884 ] } },
{ "type": "Feature", "properties": { "内容": "介護老人保健施設　丸森ロイヤルケアセンター【通所リハビリテーション】宮城県伊具郡丸森町字鳥屋9番2", "url2": "https://www.kaigokensaku.mhlw.go.jp/04/index.php?action_kouhyou_detail_004_kani=true&JigyosyoCd=0452380017-00&ServiceCd=160&Type=search" }, "geometry": { "type": "Point", "coordinates": [ 140.766114099999982, 37.913273500000017 ] } },
{ "type": "Feature", "properties": { "内容": "老人保健施設　和多里ホーム【通所リハビリテーション】宮城県亘理郡亘理町字裏城戸155", "url2": "https://www.kaigokensaku.mhlw.go.jp/04/index.php?action_kouhyou_detail_004_kani=true&JigyosyoCd=0452480023-00&ServiceCd=160&Type=search" }, "geometry": { "type": "Point", "coordinates": [ 140.859900499999981, 38.0300772 ] } },
{ "type": "Feature", "properties": { "内容": "医療法人育志会　介護老人保健施設アルカディアウエル【通所リハビリテーション】宮城県亘理郡山元町山寺字堤山8番地5", "url2": "https://www.kaigokensaku.mhlw.go.jp/04/index.php?action_kouhyou_detail_004_kani=true&JigyosyoCd=0452480015-00&ServiceCd=160&Type=search" }, "geometry": { "type": "Point", "coordinates": [ 140.87121609999997, 37.9634178 ] } },
{ "type": "Feature", "properties": { "内容": "利府仙台ロイヤルケアセンター【通所リハビリテーション】宮城県宮城郡利府町新中道2-1-1", "url2": "https://www.kaigokensaku.mhlw.go.jp/04/index.php?action_kouhyou_detail_004_kani=true&JigyosyoCd=0452680028-00&ServiceCd=160&Type=search" }, "geometry": { "type": "Point", "coordinates": [ 140.975114299999973, 38.3254122 ] } },
{ "type": "Feature", "properties": { "内容": "介護老人保健施設　加瀬ウェルネスタウン　通所リハビリテーション【通所リハビリテーション】宮城県宮城郡利府町加瀬字北窪１６番１", "url2": "https://www.kaigokensaku.mhlw.go.jp/04/index.php?action_kouhyou_detail_004_kani=true&JigyosyoCd=0452680036-00&ServiceCd=160&Type=search" }, "geometry": { "type": "Point", "coordinates": [ 140.981342, 38.3203575 ] } },
{ "type": "Feature", "properties": { "内容": "介護老人保健施設希望の杜【通所リハビリテーション】宮城県黒川郡大和町吉田字新要害10番地", "url2": "https://www.kaigokensaku.mhlw.go.jp/04/index.php?action_kouhyou_detail_004_kani=true&JigyosyoCd=0452780018-00&ServiceCd=160&Type=search" }, "geometry": { "type": "Point", "coordinates": [ 140.880479499999979, 38.4339985 ] } },
{ "type": "Feature", "properties": { "内容": "介護老人保健施設羽生の丘・オーベルジュ【通所リハビリテーション】宮城県黒川郡大郷町羽生字蒲ヶ沢50番地の1", "url2": "https://www.kaigokensaku.mhlw.go.jp/04/index.php?action_kouhyou_detail_004_kani=true&JigyosyoCd=0452780042-00&ServiceCd=160&Type=search" }, "geometry": { "type": "Point", "coordinates": [ 141.015302199999951, 38.424535 ] } },
{ "type": "Feature", "properties": { "内容": "加美老人保健施設【通所リハビリテーション】宮城県加美郡色麻町四竃字杉成９番地", "url2": "https://www.kaigokensaku.mhlw.go.jp/04/index.php?action_kouhyou_detail_004_kani=true&JigyosyoCd=0452880016-00&ServiceCd=160&Type=search" }, "geometry": { "type": "Point", "coordinates": [ 140.848472434254546, 38.551447697283145 ] } },
{ "type": "Feature", "properties": { "内容": "わくや整形外科【通所リハビリテーション】宮城県遠田郡涌谷町字下道２－１", "url2": "https://www.kaigokensaku.mhlw.go.jp/04/index.php?action_kouhyou_detail_004_kani=true&JigyosyoCd=0413110826-00&ServiceCd=160&Type=search" }, "geometry": { "type": "Point", "coordinates": [ 141.1310224, 38.5326356 ] } },
{ "type": "Feature", "properties": { "内容": "涌谷町老人保健施設【通所リハビリテーション】遠田郡涌谷町涌谷字中江南２７８", "url2": "https://www.kaigokensaku.mhlw.go.jp/04/index.php?action_kouhyou_detail_004_kani=true&JigyosyoCd=0453180010-00&ServiceCd=160&Type=search" }, "geometry": { "type": "Point", "coordinates": [ 141.148284, 38.5401658 ] } },
{ "type": "Feature", "properties": { "内容": "女川町地域医療センター【通所リハビリテーション】宮城県牡鹿郡女川町鷲神浜字堀切山107-1", "url2": "https://www.kaigokensaku.mhlw.go.jp/04/index.php?action_kouhyou_detail_004_kani=true&JigyosyoCd=0473500171-00&ServiceCd=160&Type=search" }, "geometry": { "type": "Point", "coordinates": [ 141.445232499999946, 38.4434142 ] } },
{ "type": "Feature", "properties": { "内容": "医療法人　医徳会　介護老人保健施設　歌津つつじ苑【通所リハビリテーション】宮城県本吉郡南三陸町歌津字砂浜２３－５９", "url2": "https://www.kaigokensaku.mhlw.go.jp/04/index.php?action_kouhyou_detail_004_kani=true&JigyosyoCd=0453680019-00&ServiceCd=160&Type=search" }, "geometry": { "type": "Point", "coordinates": [ 141.51009810000005, 38.7033202 ] } },
{ "type": "Feature", "properties": { "内容": "介護老人保健施設　ハイム・メアーズ【通所リハビリテーション】宮城県本吉郡南三陸町志津川字袖浜255番地", "url2": "https://www.kaigokensaku.mhlw.go.jp/04/index.php?action_kouhyou_detail_004_kani=true&JigyosyoCd=0453680027-00&ServiceCd=160&Type=search" }, "geometry": { "type": "Point", "coordinates": [ 141.47219650199122, 38.678320755455104 ] } }
]
}
