{
"type": "FeatureCollection",
"name": "geo_4_4",
"crs": { "type": "name", "properties": { "name": "urn:ogc:def:crs:OGC:1.3:CRS84" } },
"features": [
{ "type": "Feature", "properties": { "ID": 44795000, "正式名称": "熊野ふみえ助産院", "機関区分": 4, "都道府県コード": 4, "市区町村コード": 105, "所在地": "宮城県仙台市泉区市名坂字本町１４－１　１０２", "緯度": 38.314487, "経度": 140.913406, "url": "https://www.iryou.teikyouseido.mhlw.go.jp/znk-web/juminkanja/S2430/initialize?prefCd=04&kikanCd=795000&kikanKbn=4", "url2": "http://www015.upp.so-net.ne.jp/nsj_sendai", "内容": "熊野ふみえ助産院【4:助産院】宮城県仙台市泉区市名坂字本町１４－１　１０２" }, "geometry": { "type": "Point", "coordinates": [ 140.913406, 38.314487 ] } },
{ "type": "Feature", "properties": { "ID": 44795003, "正式名称": "ひかり助産院", "機関区分": 4, "都道府県コード": 4, "市区町村コード": 105, "所在地": "宮城県仙台市泉区みずほ台２７－１０", "緯度": 38.309917, "経度": 140.870789, "url": "https://www.iryou.teikyouseido.mhlw.go.jp/znk-web/juminkanja/S2430/initialize?prefCd=04&kikanCd=795003&kikanKbn=4", "url2": "http://midwifemap.com/hikari-josanin/mysite/", "内容": "ひかり助産院【4:助産院】宮城県仙台市泉区みずほ台２７－１０" }, "geometry": { "type": "Point", "coordinates": [ 140.870789, 38.309917 ] } },
{ "type": "Feature", "properties": { "ID": 44795005, "正式名称": "出張専門助産師　佐藤由美子", "機関区分": 4, "都道府県コード": 4, "市区町村コード": 209, "所在地": "宮城県多賀城市城南１丁目１９－２　グリーンコート城南Ｇ１０２", "緯度": 38.298508, "経度": 140.991379, "url": "https://www.iryou.teikyouseido.mhlw.go.jp/znk-web/juminkanja/S2430/initialize?prefCd=04&kikanCd=795005&kikanKbn=4", "url2": "https://yumimomi.com", "内容": "出張専門助産師　佐藤由美子【4:助産院】宮城県多賀城市城南１丁目１９－２　グリーンコート城南Ｇ１０２" }, "geometry": { "type": "Point", "coordinates": [ 140.991379, 38.298508 ] } },
{ "type": "Feature", "properties": { "ID": 44890010, "正式名称": "とも子助産院", "機関区分": 4, "都道府県コード": 4, "市区町村コード": 105, "所在地": "宮城県仙台市泉区野村字野村９５－６", "緯度": 38.317551, "経度": 140.865326, "url": "https://www.iryou.teikyouseido.mhlw.go.jp/znk-web/juminkanja/S2430/initialize?prefCd=04&kikanCd=890010&kikanKbn=4", "url2": "https://www.tomo-j.jp", "内容": "とも子助産院【4:助産院】宮城県仙台市泉区野村字野村９５－６" }, "geometry": { "type": "Point", "coordinates": [ 140.865326, 38.317551 ] } },
{ "type": "Feature", "properties": { "ID": 44890020, "正式名称": "森のおひさま助産院", "機関区分": 4, "都道府県コード": 4, "市区町村コード": 101, "所在地": "宮城県仙台市青葉区高野原４−１２−１８", "緯度": 38.289371, "経度": 140.756714, "url": "https://www.iryou.teikyouseido.mhlw.go.jp/znk-web/juminkanja/S2430/initialize?prefCd=04&kikanCd=890020&kikanKbn=4", "url2": "http://www.mori-ohisama.com", "内容": "森のおひさま助産院【4:助産院】宮城県仙台市青葉区高野原４−１２−１８" }, "geometry": { "type": "Point", "coordinates": [ 140.756714, 38.289371 ] } },
{ "type": "Feature", "properties": { "ID": 44890030, "正式名称": "ははこっこ助産院", "機関区分": 4, "都道府県コード": 4, "市区町村コード": 215, "所在地": "宮城県大崎市古川大幡字原田１４－１", "緯度": 38.561745, "経度": 140.966217, "url": "https://www.iryou.teikyouseido.mhlw.go.jp/znk-web/juminkanja/S2430/initialize?prefCd=04&kikanCd=890030&kikanKbn=4", "url2": "http://www.hahakokko-jyosanin.com/", "内容": "ははこっこ助産院【4:助産院】宮城県大崎市古川大幡字原田１４－１" }, "geometry": { "type": "Point", "coordinates": [ 140.966217, 38.561745 ] } },
{ "type": "Feature", "properties": { "ID": 44890040, "正式名称": "ドルフィンスペース須江助産院", "機関区分": 4, "都道府県コード": 4, "市区町村コード": 206, "所在地": "宮城県白石市沢端町１－６", "緯度": 38.003704, "経度": 140.620239, "url": "https://www.iryou.teikyouseido.mhlw.go.jp/znk-web/juminkanja/S2430/initialize?prefCd=04&kikanCd=890040&kikanKbn=4", "url2": "http://www.midwife.or.jp", "内容": "ドルフィンスペース須江助産院【4:助産院】宮城県白石市沢端町１－６" }, "geometry": { "type": "Point", "coordinates": [ 140.620239, 38.003704 ] } },
{ "type": "Feature", "properties": { "ID": 44890050, "正式名称": "将監エンゼル助産院", "機関区分": 4, "都道府県コード": 4, "市区町村コード": 105, "所在地": "宮城県仙台市泉区将監４丁目１６－３", "緯度": 38.335312, "経度": 140.881104, "url": "https://www.iryou.teikyouseido.mhlw.go.jp/znk-web/juminkanja/S2430/initialize?prefCd=04&kikanCd=890050&kikanKbn=4", "url2": "http://www.angel7.jp/", "内容": "将監エンゼル助産院【4:助産院】宮城県仙台市泉区将監４丁目１６－３" }, "geometry": { "type": "Point", "coordinates": [ 140.881104, 38.335312 ] } },
{ "type": "Feature", "properties": { "ID": 44890060, "正式名称": "ヤハタ母乳哺育相談室", "機関区分": 4, "都道府県コード": 4, "市区町村コード": 101, "所在地": "宮城県仙台市青葉区八幡６丁目２－１６　２０１", "緯度": 38.270706, "経度": 140.836288, "url": "https://www.iryou.teikyouseido.mhlw.go.jp/znk-web/juminkanja/S2430/initialize?prefCd=04&kikanCd=890060&kikanKbn=4", "url2": null, "内容": "ヤハタ母乳哺育相談室【4:助産院】宮城県仙台市青葉区八幡６丁目２－１６　２０１" }, "geometry": { "type": "Point", "coordinates": [ 140.836288, 38.270706 ] } },
{ "type": "Feature", "properties": { "ID": 44890080, "正式名称": "ちさか助産院", "機関区分": 4, "都道府県コード": 4, "市区町村コード": 101, "所在地": "宮城県仙台市青葉区国見６丁目８－３７", "緯度": 38.277523, "経度": 140.837021, "url": "https://www.iryou.teikyouseido.mhlw.go.jp/znk-web/juminkanja/S2430/initialize?prefCd=04&kikanCd=890080&kikanKbn=4", "url2": "http://www.zg.em-net.ne.jp/~komorebaby", "内容": "ちさか助産院【4:助産院】宮城県仙台市青葉区国見６丁目８－３７" }, "geometry": { "type": "Point", "coordinates": [ 140.837021, 38.277523 ] } },
{ "type": "Feature", "properties": { "ID": 44890090, "正式名称": "母乳育児相談室　まんまはうす", "機関区分": 4, "都道府県コード": 4, "市区町村コード": 104, "所在地": "宮城県仙台市太白区長町５丁目５－３６　１０１", "緯度": 38.227917, "経度": 140.883759, "url": "https://www.iryou.teikyouseido.mhlw.go.jp/znk-web/juminkanja/S2430/initialize?prefCd=04&kikanCd=890090&kikanKbn=4", "url2": "https://mamma-house.com/", "内容": "母乳育児相談室　まんまはうす【4:助産院】宮城県仙台市太白区長町５丁目５－３６　１０１" }, "geometry": { "type": "Point", "coordinates": [ 140.883759, 38.227917 ] } },
{ "type": "Feature", "properties": { "ID": 44890100, "正式名称": "かとう母乳育児相談室", "機関区分": 4, "都道府県コード": 4, "市区町村コード": 104, "所在地": "宮城県仙台市太白区八木山南１ー９ー３１", "緯度": 38.237225, "経度": 140.834625, "url": "https://www.iryou.teikyouseido.mhlw.go.jp/znk-web/juminkanja/S2430/initialize?prefCd=04&kikanCd=890100&kikanKbn=4", "url2": "https://oppa.oketani.or.jp/view/W06DBRClX5njBH62ncKdrEKsGjrvffOOkfqGimRobhD", "内容": "かとう母乳育児相談室【4:助産院】宮城県仙台市太白区八木山南１ー９ー３１" }, "geometry": { "type": "Point", "coordinates": [ 140.834625, 38.237225 ] } },
{ "type": "Feature", "properties": { "ID": 44890110, "正式名称": "出張助産師　高津　真理子", "機関区分": 4, "都道府県コード": 4, "市区町村コード": 203, "所在地": "宮城県塩竈市袖野田町３０－２０", "緯度": 38.306591, "経度": 141.00502, "url": "https://www.iryou.teikyouseido.mhlw.go.jp/znk-web/juminkanja/S2430/initialize?prefCd=04&kikanCd=890110&kikanKbn=4", "url2": null, "内容": "出張助産師　高津　真理子【4:助産院】宮城県塩竈市袖野田町３０－２０" }, "geometry": { "type": "Point", "coordinates": [ 141.00502, 38.306591 ] } },
{ "type": "Feature", "properties": { "ID": 44890120, "正式名称": "小山みね子助産師相談室", "機関区分": 4, "都道府県コード": 4, "市区町村コード": 209, "所在地": "宮城県多賀城市伝上山４丁目１－３０", "緯度": 38.302307, "経度": 141.009186, "url": "https://www.iryou.teikyouseido.mhlw.go.jp/znk-web/juminkanja/S2430/initialize?prefCd=04&kikanCd=890120&kikanKbn=4", "url2": "https://blog.goo.ne.jp/mineko0118/", "内容": "小山みね子助産師相談室【4:助産院】宮城県多賀城市伝上山４丁目１－３０" }, "geometry": { "type": "Point", "coordinates": [ 141.009186, 38.302307 ] } },
{ "type": "Feature", "properties": { "ID": 44890140, "正式名称": "ほんだ母乳育児相談室", "機関区分": 4, "都道府県コード": 4, "市区町村コード": 214, "所在地": "宮城県東松島市小松字若葉９－１", "緯度": 38.42926, "経度": 141.208908, "url": "https://www.iryou.teikyouseido.mhlw.go.jp/znk-web/juminkanja/S2430/initialize?prefCd=04&kikanCd=890140&kikanKbn=4", "url2": "https://honda-no-kokoro.jp", "内容": "ほんだ母乳育児相談室【4:助産院】宮城県東松島市小松字若葉９－１" }, "geometry": { "type": "Point", "coordinates": [ 141.208908, 38.42926 ] } },
{ "type": "Feature", "properties": { "ID": 44890150, "正式名称": "ひととて助産院", "機関区分": 4, "都道府県コード": 4, "市区町村コード": 212, "所在地": "宮城県登米市東和町米谷字南沢１５６－１", "緯度": 38.726093, "経度": 141.338623, "url": "https://www.iryou.teikyouseido.mhlw.go.jp/znk-web/juminkanja/S2430/initialize?prefCd=04&kikanCd=890150&kikanKbn=4", "url2": "https://r.goope.jp/hitotote", "内容": "ひととて助産院【4:助産院】宮城県登米市東和町米谷字南沢１５６－１" }, "geometry": { "type": "Point", "coordinates": [ 141.338623, 38.726093 ] } },
{ "type": "Feature", "properties": { "ID": 44890160, "正式名称": "氏家母乳育児相談室", "機関区分": 4, "都道府県コード": 4, "市区町村コード": 216, "所在地": "宮城県富谷市富ヶ丘１丁目１０－６", "緯度": 38.36293, "経度": 140.869339, "url": "https://www.iryou.teikyouseido.mhlw.go.jp/znk-web/juminkanja/S2430/initialize?prefCd=04&kikanCd=890160&kikanKbn=4", "url2": null, "内容": "氏家母乳育児相談室【4:助産院】宮城県富谷市富ヶ丘１丁目１０－６" }, "geometry": { "type": "Point", "coordinates": [ 140.869339, 38.36293 ] } },
{ "type": "Feature", "properties": { "ID": 44890170, "正式名称": "母乳育児相談室マミーぱいぱい", "機関区分": 4, "都道府県コード": 4, "市区町村コード": 362, "所在地": "宮城県亘理郡山元町高瀬字天王川７－３１", "緯度": 37.962193, "経度": 140.904129, "url": "https://www.iryou.teikyouseido.mhlw.go.jp/znk-web/juminkanja/S2430/initialize?prefCd=04&kikanCd=890170&kikanKbn=4", "url2": null, "内容": "母乳育児相談室マミーぱいぱい【4:助産院】宮城県亘理郡山元町高瀬字天王川７－３１" }, "geometry": { "type": "Point", "coordinates": [ 140.904129, 37.962193 ] } },
{ "type": "Feature", "properties": { "ID": 44890190, "正式名称": "佐藤ミツ子母乳育児相談室", "機関区分": 4, "都道府県コード": 4, "市区町村コード": 104, "所在地": "宮城県仙台市太白区鹿野３丁目１７－２６", "緯度": 38.224922, "経度": 140.868149, "url": "https://www.iryou.teikyouseido.mhlw.go.jp/znk-web/juminkanja/S2430/initialize?prefCd=04&kikanCd=890190&kikanKbn=4", "url2": null, "内容": "佐藤ミツ子母乳育児相談室【4:助産院】宮城県仙台市太白区鹿野３丁目１７－２６" }, "geometry": { "type": "Point", "coordinates": [ 140.868149, 38.224922 ] } },
{ "type": "Feature", "properties": { "ID": 44890200, "正式名称": "こんの助産院", "機関区分": 4, "都道府県コード": 4, "市区町村コード": 105, "所在地": "宮城県仙台市泉区山の寺３丁目１０－２３", "緯度": 38.33363, "経度": 140.903122, "url": "https://www.iryou.teikyouseido.mhlw.go.jp/znk-web/juminkanja/S2430/initialize?prefCd=04&kikanCd=890200&kikanKbn=4", "url2": "https://konno-josanin.com", "内容": "こんの助産院【4:助産院】宮城県仙台市泉区山の寺３丁目１０－２３" }, "geometry": { "type": "Point", "coordinates": [ 140.903122, 38.33363 ] } },
{ "type": "Feature", "properties": { "ID": 44910360, "正式名称": "しょうこ助産院", "機関区分": 4, "都道府県コード": 4, "市区町村コード": 505, "所在地": "宮城県遠田郡美里町字新妻の神２４ー１", "緯度": 38.531581, "経度": 141.073011, "url": "https://www.iryou.teikyouseido.mhlw.go.jp/znk-web/juminkanja/S2430/initialize?prefCd=04&kikanCd=910360&kikanKbn=4", "url2": null, "内容": "しょうこ助産院【4:助産院】宮城県遠田郡美里町字新妻の神２４ー１" }, "geometry": { "type": "Point", "coordinates": [ 141.073011, 38.531581 ] } },
{ "type": "Feature", "properties": { "ID": 44910367, "正式名称": "にじのわ助産院", "機関区分": 4, "都道府県コード": 4, "市区町村コード": 205, "所在地": "宮城県気仙沼市内の脇１－１１－４", "緯度": 38.895823, "経度": 141.574055, "url": "https://www.iryou.teikyouseido.mhlw.go.jp/znk-web/juminkanja/S2430/initialize?prefCd=04&kikanCd=910367&kikanKbn=4", "url2": null, "内容": "にじのわ助産院【4:助産院】宮城県気仙沼市内の脇１－１１－４" }, "geometry": { "type": "Point", "coordinates": [ 141.574055, 38.895823 ] } },
{ "type": "Feature", "properties": { "ID": 44910386, "正式名称": "ユーカリ助産院", "機関区分": 4, "都道府県コード": 4, "市区町村コード": 505, "所在地": "宮城県遠田郡美里町大柳字高出２４番地３", "緯度": 38.5043929, "経度": 141.1217645, "url": "https://www.iryou.teikyouseido.mhlw.go.jp/znk-web/juminkanja/S2430/initialize?prefCd=04&kikanCd=910386&kikanKbn=4", "url2": null, "内容": "ユーカリ助産院【4:助産院】宮城県遠田郡美里町大柳字高出２４番地３" }, "geometry": { "type": "Point", "coordinates": [ 141.121764500000012, 38.5043929 ] } },
{ "type": "Feature", "properties": { "ID": 44910398, "正式名称": "特定非営利活動法人　産後ケアハウス　ママん家", "機関区分": 4, "都道府県コード": 4, "市区町村コード": 101, "所在地": "宮城県仙台市青葉区宮町５丁目３番１６号", "緯度": 38.277362, "経度": 140.883016, "url": "https://www.iryou.teikyouseido.mhlw.go.jp/znk-web/juminkanja/S2430/initialize?prefCd=04&kikanCd=910398&kikanKbn=4", "url2": "https://35mamanchi.com", "内容": "特定非営利活動法人　産後ケアハウス　ママん家【4:助産院】宮城県仙台市青葉区宮町５丁目３番１６号" }, "geometry": { "type": "Point", "coordinates": [ 140.883016, 38.277362 ] } },
{ "type": "Feature", "properties": { "ID": 44910412, "正式名称": "たんぽぽ助産院", "機関区分": 4, "都道府県コード": 4, "市区町村コード": 105, "所在地": "宮城県仙台市泉区", "緯度": 38.32537, "経度": 140.88281, "url": "https://www.iryou.teikyouseido.mhlw.go.jp/znk-web/juminkanja/S2430/initialize?prefCd=04&kikanCd=910412&kikanKbn=4", "url2": null, "内容": "たんぽぽ助産院【4:助産院】宮城県仙台市泉区" }, "geometry": { "type": "Point", "coordinates": [ 140.88281, 38.32537 ] } },
{ "type": "Feature", "properties": { "ID": 44910447, "正式名称": "まぁーるい助産院", "機関区分": 4, "都道府県コード": 4, "市区町村コード": 406, "所在地": "宮城県宮城郡利府町森郷字後楽西２８－５", "緯度": 38.328173, "経度": 140.989474, "url": "https://www.iryou.teikyouseido.mhlw.go.jp/znk-web/juminkanja/S2430/initialize?prefCd=04&kikanCd=910447&kikanKbn=4", "url2": null, "内容": "まぁーるい助産院【4:助産院】宮城県宮城郡利府町森郷字後楽西２８－５" }, "geometry": { "type": "Point", "coordinates": [ 140.989474, 38.328173 ] } }
]
}
