{
"type": "FeatureCollection",
"name": "geo_04_各種学校",
"crs": { "type": "name", "properties": { "name": "urn:ogc:def:crs:EPSG::6668" } },
"features": [
{ "type": "Feature", "properties": { "P29_001": "04101", "P29_002": "H204391010017", "P29_003": "16015", "P29_004": "仙台ア－トスク－ルメロン", "P29_005": "宮城県仙台市青葉区春日町3-7", "P29_006": "4", "P29_007": "0", "P29_008": "00", "P29_009": null }, "geometry": { "type": "Point", "coordinates": [ 140.864032679600058, 38.26524527779317 ] } },
{ "type": "Feature", "properties": { "P29_001": "04101", "P29_002": "H204391010026", "P29_003": "16015", "P29_004": "環球日本語学習院", "P29_005": "宮城県仙台市青葉区土樋1-1-15", "P29_006": "4", "P29_007": "0", "P29_008": "00", "P29_009": null }, "geometry": { "type": "Point", "coordinates": [ 140.87952247381628, 38.248558257341358 ] } },
{ "type": "Feature", "properties": { "P29_001": "04101", "P29_002": "H204391010035", "P29_003": "16015", "P29_004": "東洋国際文化アカデミー", "P29_005": "宮城県仙台市青葉区宮町1-4-18", "P29_006": "4", "P29_007": "0", "P29_008": "00", "P29_009": null }, "geometry": { "type": "Point", "coordinates": [ 140.883972432201318, 38.268884267882825 ] } },
{ "type": "Feature", "properties": { "P29_001": "04101", "P29_002": "H204391010044", "P29_003": "16015", "P29_004": "未来の杜学園", "P29_005": "宮城県仙台市青葉区北目町2-24", "P29_006": "4", "P29_007": "0", "P29_008": "00", "P29_009": null }, "geometry": { "type": "Point", "coordinates": [ 140.877238650729936, 38.253979398290724 ] } },
{ "type": "Feature", "properties": { "P29_001": "04101", "P29_002": "H204391010053", "P29_003": "16015", "P29_004": "仙台国際日本語学校", "P29_005": "宮城県仙台市青葉区花京院1-3-1", "P29_006": "4", "P29_007": "0", "P29_008": "00", "P29_009": null }, "geometry": { "type": "Point", "coordinates": [ 140.881494708304501, 38.264803691430565 ] } },
{ "type": "Feature", "properties": { "P29_001": "04101", "P29_002": "H204391010062", "P29_003": "16015", "P29_004": "理知の杜日本語学校仙台校", "P29_005": "宮城県仙台市青葉区角五郎2-5-4", "P29_006": "4", "P29_007": "0", "P29_008": "00", "P29_009": null }, "geometry": { "type": "Point", "coordinates": [ 140.844311880235125, 38.267546905065807 ] } },
{ "type": "Feature", "properties": { "P29_001": "04102", "P29_002": "H204391020015", "P29_003": "16015", "P29_004": "駿台予備学校仙台校", "P29_005": "宮城県仙台市宮城野区榴岡1-5-11", "P29_006": "4", "P29_007": "0", "P29_008": "00", "P29_009": null }, "geometry": { "type": "Point", "coordinates": [ 140.884047754181267, 38.258174597168619 ] } },
{ "type": "Feature", "properties": { "P29_001": "04104", "P29_002": "H204391040011", "P29_003": "16015", "P29_004": "東北朝鮮初中高級学校", "P29_005": "宮城県仙台市太白区長町字越路19-558", "P29_006": "4", "P29_007": "0", "P29_008": "00", "P29_009": null }, "geometry": { "type": "Point", "coordinates": [ 140.83620044801873, 38.24447251897611 ] } },
{ "type": "Feature", "properties": { "P29_001": "04105", "P29_002": "H204391050018", "P29_003": "16015", "P29_004": "東北インターナショナルスクール", "P29_005": "宮城県仙台市泉区館7-101-1", "P29_006": "4", "P29_007": "0", "P29_008": "00", "P29_009": null }, "geometry": { "type": "Point", "coordinates": [ 140.79920552260478, 38.310903436237773 ] } },
{ "type": "Feature", "properties": { "P29_001": "04105", "P29_002": "H204391050027", "P29_003": "16015", "P29_004": "ホライゾンジャパンインターナショナルスクール仙台", "P29_005": "宮城県仙台市泉区高森4-2-540", "P29_006": "4", "P29_007": "0", "P29_008": "00", "P29_009": null }, "geometry": { "type": "Point", "coordinates": [ 140.848502061216266, 38.331638840940087 ] } },
{ "type": "Feature", "properties": { "P29_001": "04202", "P29_002": "H204392020013", "P29_003": "16015", "P29_004": "石巻市医師会附属准看護学校", "P29_005": "宮城県石巻市鋳銭場1-27", "P29_006": "4", "P29_007": "0", "P29_008": "00", "P29_009": null }, "geometry": { "type": "Point", "coordinates": [ 141.305711144096051, 38.434001443940822 ] } },
{ "type": "Feature", "properties": { "P29_001": "04203", "P29_002": "H204392030011", "P29_003": "16015", "P29_004": "塩釜医師会附属准看護学院", "P29_005": "宮城県塩竈市錦町7-10", "P29_006": "4", "P29_007": "0", "P29_008": "00", "P29_009": null }, "geometry": { "type": "Point", "coordinates": [ 141.018929395317627, 38.309087327080853 ] } },
{ "type": "Feature", "properties": { "P29_001": "04205", "P29_002": "H204392050025", "P29_003": "16015", "P29_004": "気仙沼市医師会附属高等看護学校", "P29_005": "宮城県気仙沼市四反田95-4", "P29_006": "4", "P29_007": "0", "P29_008": "00", "P29_009": null }, "geometry": { "type": "Point", "coordinates": [ 141.561517459709961, 38.90029099546738 ] } },
{ "type": "Feature", "properties": { "P29_001": "04208", "P29_002": "H204392080010", "P29_003": "16015", "P29_004": "角田明和女学院", "P29_005": "宮城県角田市角田字町152-1", "P29_006": "4", "P29_007": "0", "P29_008": "00", "P29_009": null }, "geometry": { "type": "Point", "coordinates": [ 140.777412053882443, 37.975659339267423 ] } },
{ "type": "Feature", "properties": { "P29_001": "04211", "P29_002": "H204392080029", "P29_003": "16015", "P29_004": "宮城高等技芸学院", "P29_005": "宮城県角田市角田字旭町28-3", "P29_006": "4", "P29_007": "0", "P29_008": "00", "P29_009": null }, "geometry": { "type": "Point", "coordinates": [ 140.879408990071056, 38.108974784471883 ] } },
{ "type": "Feature", "properties": { "P29_001": "04211", "P29_002": "H204392110014", "P29_003": "16015", "P29_004": "医療法人社団スズキ病院附属助産学校", "P29_005": "宮城県岩沼市里の杜3-5-21", "P29_006": "4", "P29_007": "0", "P29_008": "00", "P29_009": null }, "geometry": { "type": "Point", "coordinates": [ 140.879404749413084, 38.109001405449462 ] } },
{ "type": "Feature", "properties": { "P29_001": "04212", "P29_002": "H204392120012", "P29_003": "16015", "P29_004": "佐沼経理学校", "P29_005": "宮城県登米市迫町佐沼字錦150", "P29_006": "4", "P29_007": "0", "P29_008": "00", "P29_009": null }, "geometry": { "type": "Point", "coordinates": [ 141.201439109608316, 38.689697594034229 ] } },
{ "type": "Feature", "properties": { "P29_001": "04215", "P29_002": "H204392150015", "P29_003": "16015", "P29_004": "大崎市医師会附属准看護学校", "P29_005": "宮城県大崎市古川駅前大通3-3-17", "P29_006": "4", "P29_007": "0", "P29_008": "00", "P29_009": null }, "geometry": { "type": "Point", "coordinates": [ 140.966274392180651, 38.57386097091792 ] } },
{ "type": "Feature", "properties": { "P29_001": "04215", "P29_002": "H204392150024", "P29_003": "16015", "P29_004": "大崎市医師会附属高等看護学校", "P29_005": "宮城県大崎市古川駅前大通3-3-17", "P29_006": "4", "P29_007": "0", "P29_008": "00", "P29_009": null }, "geometry": { "type": "Point", "coordinates": [ 140.96627847322921, 38.57382247316243 ] } },
{ "type": "Feature", "properties": { "P29_001": "04215", "P29_002": "H204392150033", "P29_003": "16015", "P29_004": "奥山編物学院", "P29_005": "宮城県大崎市古川幸町1-2-16", "P29_006": "4", "P29_007": "0", "P29_008": "00", "P29_009": null }, "geometry": { "type": "Point", "coordinates": [ 140.96824295915539, 38.575154273924284 ] } },
{ "type": "Feature", "properties": { "P29_001": "04324", "P29_002": "H204393240015", "P29_003": "16015", "P29_004": "川崎和洋裁女学院", "P29_005": "宮城県柴田郡川崎町大字前川字裏丁187-1", "P29_006": "4", "P29_007": "0", "P29_008": "00", "P29_009": null }, "geometry": { "type": "Point", "coordinates": [ 140.642405758587529, 38.176451516856233 ] } },
{ "type": "Feature", "properties": { "P29_001": "04422", "P29_002": "H204394220017", "P29_003": "16015", "P29_004": "大郷女子技芸学校", "P29_005": "宮城県黒川郡大郷町中村屋舗2-11", "P29_006": "4", "P29_007": "0", "P29_008": "00", "P29_009": null }, "geometry": { "type": "Point", "coordinates": [ 140.99565421483311, 38.420097940759135 ] } }
]
}
