{
"type": "FeatureCollection",
"name": "geo_04_認知症対応型共同生活介護",
"crs": { "type": "name", "properties": { "name": "urn:ogc:def:crs:OGC:1.3:CRS84" } },
"features": [
{ "type": "Feature", "properties": { "内容": "けあビジョンホーム仙台上愛子【認知症対応型共同生活介護】宮城県仙台市青葉区上愛子字上遠野原23-10けあビジョンホーム仙台上愛子", "url2": "https://www.kaigokensaku.mhlw.go.jp/04/index.php?action_kouhyou_detail_004_kani=true&JigyosyoCd=0495100414-00&ServiceCd=320&Type=search" }, "geometry": { "type": "Point", "coordinates": [ 140.728214500000036, 38.2739469 ] } },
{ "type": "Feature", "properties": { "内容": "ライブラリ台原【認知症対応型共同生活介護】宮城県仙台市青葉区台原7丁目6-48", "url2": "https://www.kaigokensaku.mhlw.go.jp/04/index.php?action_kouhyou_detail_004_kani=true&JigyosyoCd=0495100729-00&ServiceCd=320&Type=search" }, "geometry": { "type": "Point", "coordinates": [ 140.8833888, 38.2847788 ] } },
{ "type": "Feature", "properties": { "内容": "グループホームエムズ赤坂【認知症対応型共同生活介護】宮城県仙台市青葉区芋沢字赤坂27-3", "url2": "https://www.kaigokensaku.mhlw.go.jp/04/index.php?action_kouhyou_detail_004_kani=true&JigyosyoCd=0495100398-00&ServiceCd=320&Type=search" }, "geometry": { "type": "Point", "coordinates": [ 140.750936700000011, 38.287412 ] } },
{ "type": "Feature", "properties": { "内容": "グループホーム愛和の郷【認知症対応型共同生活介護】宮城県仙台市青葉区西花苑1丁目39-43グループホーム愛和の郷", "url2": "https://www.kaigokensaku.mhlw.go.jp/04/index.php?action_kouhyou_detail_004_kani=true&JigyosyoCd=0495100513-00&ServiceCd=320&Type=search" }, "geometry": { "type": "Point", "coordinates": [ 140.7993232, 38.266011 ] } },
{ "type": "Feature", "properties": { "内容": "グループホーム　さくら高野原【認知症対応型共同生活介護】宮城県仙台市青葉区高野原４丁目１２－２９", "url2": "https://www.kaigokensaku.mhlw.go.jp/04/index.php?action_kouhyou_detail_004_kani=true&JigyosyoCd=0475102307-00&ServiceCd=320&Type=search" }, "geometry": { "type": "Point", "coordinates": [ 140.755591699999968, 38.2895091 ] } },
{ "type": "Feature", "properties": { "内容": "愛・グループホーム仙台栗生【認知症対応型共同生活介護】仙台市青葉区栗生５－２１－７", "url2": "https://www.kaigokensaku.mhlw.go.jp/04/index.php?action_kouhyou_detail_004_kani=true&JigyosyoCd=0495100158-00&ServiceCd=320&Type=search" }, "geometry": { "type": "Point", "coordinates": [ 140.7901491, 38.2685987 ] } },
{ "type": "Feature", "properties": { "内容": "ツクイ仙台愛子グループホーム【認知症対応型共同生活介護】下愛子字町18", "url2": "https://www.kaigokensaku.mhlw.go.jp/04/index.php?action_kouhyou_detail_004_kani=true&JigyosyoCd=0495100562-00&ServiceCd=320&Type=search" }, "geometry": { "type": "Point", "coordinates": [ 140.764983539286845, 38.270838629922721 ] } },
{ "type": "Feature", "properties": { "内容": "医療法人社団初心会　グループホームひじり【認知症対応型共同生活介護】宮城県仙台市青葉区八幡六丁目8番26号", "url2": "https://www.kaigokensaku.mhlw.go.jp/04/index.php?action_kouhyou_detail_004_kani=true&JigyosyoCd=0495100455-00&ServiceCd=320&Type=search" }, "geometry": { "type": "Point", "coordinates": [ 140.83577, 38.2686556 ] } },
{ "type": "Feature", "properties": { "内容": "グループホーム　ノテ国見【認知症対応型共同生活介護】宮城県仙台市青葉区荒巻字坊主門13-1", "url2": "https://www.kaigokensaku.mhlw.go.jp/04/index.php?action_kouhyou_detail_004_kani=true&JigyosyoCd=0495100539-00&ServiceCd=320&Type=search" }, "geometry": { "type": "Point", "coordinates": [ 140.833254356483479, 38.274523751954312 ] } },
{ "type": "Feature", "properties": { "内容": "グループホームはちまんの風【認知症対応型共同生活介護】宮城県仙台市青葉区八幡4丁目7-62F", "url2": "https://www.kaigokensaku.mhlw.go.jp/04/index.php?action_kouhyou_detail_004_kani=true&JigyosyoCd=0495100232-00&ServiceCd=320&Type=search" }, "geometry": { "type": "Point", "coordinates": [ 140.8456079, 38.2707196 ] } },
{ "type": "Feature", "properties": { "内容": "医療法人社団　初心会　グループホームみたき【認知症対応型共同生活介護】宮城県仙台市青葉区八幡7丁目14-17", "url2": "https://www.kaigokensaku.mhlw.go.jp/04/index.php?action_kouhyou_detail_004_kani=true&JigyosyoCd=0495100299-00&ServiceCd=320&Type=search" }, "geometry": { "type": "Point", "coordinates": [ 140.8216463, 38.2656778 ] } },
{ "type": "Feature", "properties": { "内容": "グループホームあおばの杜～カメリア～【認知症対応型共同生活介護】宮城県仙台市青葉区八幡一丁目３番１９号", "url2": "https://www.kaigokensaku.mhlw.go.jp/04/index.php?action_kouhyou_detail_004_kani=true&JigyosyoCd=0495100604-00&ServiceCd=320&Type=search" }, "geometry": { "type": "Point", "coordinates": [ 140.8541964, 38.2693465 ] } },
{ "type": "Feature", "properties": { "内容": "青葉の風【認知症対応型共同生活介護】宮城県仙台市青葉区荒巻字三居沢１－１６", "url2": "https://www.kaigokensaku.mhlw.go.jp/04/index.php?action_kouhyou_detail_004_kani=true&JigyosyoCd=0475101598-00&ServiceCd=320&Type=search" }, "geometry": { "type": "Point", "coordinates": [ 140.838103100000012, 38.2685724 ] } },
{ "type": "Feature", "properties": { "内容": "グループホームせせらぎの里【認知症対応型共同生活介護】仙台市青葉区作並字川崎34-2", "url2": "https://www.kaigokensaku.mhlw.go.jp/04/index.php?action_kouhyou_detail_004_kani=true&JigyosyoCd=0475101358-00&ServiceCd=320&Type=search" }, "geometry": { "type": "Point", "coordinates": [ 140.655778400000031, 38.3092315 ] } },
{ "type": "Feature", "properties": { "内容": "グループホーム　楽庵【認知症対応型共同生活介護】宮城県仙台市青葉区葉山町８番１号", "url2": "https://www.kaigokensaku.mhlw.go.jp/04/index.php?action_kouhyou_detail_004_kani=true&JigyosyoCd=0475102083-00&ServiceCd=320&Type=search" }, "geometry": { "type": "Point", "coordinates": [ 140.86306639999998, 38.2855655 ] } },
{ "type": "Feature", "properties": { "内容": "グループホーム　ほくと苑【認知症対応型共同生活介護】仙台市青葉区新坂町6番11号", "url2": "https://www.kaigokensaku.mhlw.go.jp/04/index.php?action_kouhyou_detail_004_kani=true&JigyosyoCd=0475101143-00&ServiceCd=320&Type=search" }, "geometry": { "type": "Point", "coordinates": [ 140.853029, 38.2772524 ] } },
{ "type": "Feature", "properties": { "内容": "グループホームひなた【認知症対応型共同生活介護】宮城県仙台市青葉区子平町17-19", "url2": "https://www.kaigokensaku.mhlw.go.jp/04/index.php?action_kouhyou_detail_004_kani=true&JigyosyoCd=0475101853-00&ServiceCd=320&Type=search" }, "geometry": { "type": "Point", "coordinates": [ 140.850651839286826, 38.277892587866674 ] } },
{ "type": "Feature", "properties": { "内容": "グループホーム　木かげ【認知症対応型共同生活介護】宮城県仙台市青葉区西勝山１４番８号", "url2": "https://www.kaigokensaku.mhlw.go.jp/04/index.php?action_kouhyou_detail_004_kani=true&JigyosyoCd=0495100075-00&ServiceCd=320&Type=search" }, "geometry": { "type": "Point", "coordinates": [ 140.838220699999965, 38.2992715 ] } },
{ "type": "Feature", "properties": { "内容": "せんだんの里グループホーム【認知症対応型共同生活介護】宮城県仙台市青葉区国見ヶ丘6丁目149番地1", "url2": "https://www.kaigokensaku.mhlw.go.jp/04/index.php?action_kouhyou_detail_004_kani=true&JigyosyoCd=0475101002-00&ServiceCd=320&Type=search" }, "geometry": { "type": "Point", "coordinates": [ 140.8346024, 38.284787 ] } },
{ "type": "Feature", "properties": { "内容": "グループホーム木だち【認知症対応型共同生活介護】宮城県仙台市青葉区西勝山21-15", "url2": "https://www.kaigokensaku.mhlw.go.jp/04/index.php?action_kouhyou_detail_004_kani=true&JigyosyoCd=0495100323-00&ServiceCd=320&Type=search" }, "geometry": { "type": "Point", "coordinates": [ 140.837779233065817, 38.300258915437055 ] } },
{ "type": "Feature", "properties": { "内容": "グループホームＪ＆Ｂ小田原【認知症対応型共同生活介護】宮城県仙台市青葉区小田原８丁目６番２３号１階パンジー・２階ビオラ", "url2": "https://www.kaigokensaku.mhlw.go.jp/04/index.php?action_kouhyou_detail_004_kani=true&JigyosyoCd=0495100331-00&ServiceCd=320&Type=search" }, "geometry": { "type": "Point", "coordinates": [ 140.892397708077539, 38.27097984455196 ] } },
{ "type": "Feature", "properties": { "内容": "グループホームJ＆B小田原2号館【認知症対応型共同生活介護】宮城県仙台市青葉区小田原８丁目６ー２５", "url2": "https://www.kaigokensaku.mhlw.go.jp/04/index.php?action_kouhyou_detail_004_kani=true&JigyosyoCd=0495100521-00&ServiceCd=320&Type=search" }, "geometry": { "type": "Point", "coordinates": [ 140.892477142189023, 38.2706981 ] } },
{ "type": "Feature", "properties": { "内容": "ライフの学校グループホーム幸町キャンパス【認知症対応型共同生活介護】宮城県仙台市青葉区高松1丁目6-3", "url2": "https://www.kaigokensaku.mhlw.go.jp/04/index.php?action_kouhyou_detail_004_kani=true&JigyosyoCd=0495100596-00&ServiceCd=320&Type=search" }, "geometry": { "type": "Point", "coordinates": [ 140.892567111152061, 38.275622710764814 ] } },
{ "type": "Feature", "properties": { "内容": "ハートピアエスト【認知症対応型共同生活介護】下愛子字観音9-12", "url2": "https://www.kaigokensaku.mhlw.go.jp/04/index.php?action_kouhyou_detail_004_kani=true&JigyosyoCd=0495100737-00&ServiceCd=320&Type=search" }, "geometry": { "type": "Point", "coordinates": [ 140.7668692, 38.2695682 ] } },
{ "type": "Feature", "properties": { "内容": "セントケア　ホーム北根黒松【認知症対応型共同生活介護】宮城県仙台市青葉区北根黒松6-15", "url2": "https://www.kaigokensaku.mhlw.go.jp/04/index.php?action_kouhyou_detail_004_kani=true&JigyosyoCd=0495100091-00&ServiceCd=320&Type=search" }, "geometry": { "type": "Point", "coordinates": [ 140.880379700000049, 38.3057831 ] } },
{ "type": "Feature", "properties": { "内容": "グループホーム　みつばち【認知症対応型共同生活介護】宮城県仙台市青葉区桜ヶ丘3丁目１－１２", "url2": "https://www.kaigokensaku.mhlw.go.jp/04/index.php?action_kouhyou_detail_004_kani=true&JigyosyoCd=0495100109-00&ServiceCd=320&Type=search" }, "geometry": { "type": "Point", "coordinates": [ 140.855524800000012, 38.2977777 ] } },
{ "type": "Feature", "properties": { "内容": "広瀬の郷【認知症対応型共同生活介護】宮城県仙台市青葉区大倉字大原新田２６－１２", "url2": "https://www.kaigokensaku.mhlw.go.jp/04/index.php?action_kouhyou_detail_004_kani=true&JigyosyoCd=0475101549-00&ServiceCd=320&Type=search" }, "geometry": { "type": "Point", "coordinates": [ 140.694163300000014, 38.294515 ] } },
{ "type": "Feature", "properties": { "内容": "株式会社リビングプラットフォームケア　ライブラリ北仙台【認知症対応型共同生活介護】宮城県仙台市青葉区北山1丁目10番22号ライブラリ北仙台", "url2": "https://www.kaigokensaku.mhlw.go.jp/04/index.php?action_kouhyou_detail_004_kani=true&JigyosyoCd=0495100653-00&ServiceCd=320&Type=search" }, "geometry": { "type": "Point", "coordinates": [ 140.8617619, 38.2810968 ] } },
{ "type": "Feature", "properties": { "内容": "ライブラリ仙台川内【認知症対応型共同生活介護】宮城県仙台市青葉区荒巻字青葉428ライブラリ仙台川内", "url2": "https://www.kaigokensaku.mhlw.go.jp/04/index.php?action_kouhyou_detail_004_kani=true&JigyosyoCd=0495100661-00&ServiceCd=320&Type=search" }, "geometry": { "type": "Point", "coordinates": [ 140.8446371, 38.2601125 ] } },
{ "type": "Feature", "properties": { "内容": "グループホーム　なんてん上杉【認知症対応型共同生活介護】宮城県仙台市青葉区上杉3丁目8番3号", "url2": "https://www.kaigokensaku.mhlw.go.jp/04/index.php?action_kouhyou_detail_004_kani=true&JigyosyoCd=0495100059-00&ServiceCd=320&Type=search" }, "geometry": { "type": "Point", "coordinates": [ 140.87775750000003, 38.2733397 ] } },
{ "type": "Feature", "properties": { "内容": "グループホームこころ【認知症対応型共同生活介護】宮城県仙台市青葉区南吉成7丁目4-1", "url2": "https://www.kaigokensaku.mhlw.go.jp/04/index.php?action_kouhyou_detail_004_kani=true&JigyosyoCd=0495100174-00&ServiceCd=320&Type=search" }, "geometry": { "type": "Point", "coordinates": [ 140.81679273135228, 38.283349856688233 ] } },
{ "type": "Feature", "properties": { "内容": "ｸﾞﾙｰﾌﾟﾎｰﾑよもぎ埜【認知症対応型共同生活介護】宮城県仙台市宮城野区幸町2-9-8", "url2": "https://www.kaigokensaku.mhlw.go.jp/04/index.php?action_kouhyou_detail_004_kani=true&JigyosyoCd=0495200321-00&ServiceCd=320&Type=search" }, "geometry": { "type": "Point", "coordinates": [ 140.894466125131203, 38.275150586911437 ] } },
{ "type": "Feature", "properties": { "内容": "グループホームここさいむら小田原【認知症対応型共同生活介護】宮城県仙台市宮城野区小田原3-4-55ここさいむら　小田原", "url2": "https://www.kaigokensaku.mhlw.go.jp/04/index.php?action_kouhyou_detail_004_kani=true&JigyosyoCd=0495200255-00&ServiceCd=320&Type=search" }, "geometry": { "type": "Point", "coordinates": [ 140.894605800000022, 38.2682861 ] } },
{ "type": "Feature", "properties": { "内容": "けあビジョンホーム仙台萩野町【認知症対応型共同生活介護】宮城県仙台市宮城野区萩野町4-3-50", "url2": "https://www.kaigokensaku.mhlw.go.jp/04/index.php?action_kouhyou_detail_004_kani=true&JigyosyoCd=0495200305-00&ServiceCd=320&Type=search" }, "geometry": { "type": "Point", "coordinates": [ 140.914275961376916, 38.260298956218719 ] } },
{ "type": "Feature", "properties": { "内容": "愛の家グループホーム仙台燕沢【認知症対応型共同生活介護】宮城県仙台市宮城野区燕沢1丁目22番73号愛の家グループホーム仙台燕沢", "url2": "https://www.kaigokensaku.mhlw.go.jp/04/index.php?action_kouhyou_detail_004_kani=true&JigyosyoCd=0495200370-00&ServiceCd=320&Type=search" }, "geometry": { "type": "Point", "coordinates": [ 140.921897819049036, 38.282530151899344 ] } },
{ "type": "Feature", "properties": { "内容": "ふくろうの杜田子【認知症対応型共同生活介護】宮城県仙台市宮城野区田子1丁目6-45", "url2": "https://www.kaigokensaku.mhlw.go.jp/04/index.php?action_kouhyou_detail_004_kani=true&JigyosyoCd=0495200487-00&ServiceCd=320&Type=search" }, "geometry": { "type": "Point", "coordinates": [ 140.9631077, 38.2761612 ] } },
{ "type": "Feature", "properties": { "内容": "そんぽの家ＧＨ仙台萩野町【認知症対応型共同生活介護】宮城県仙台市宮城野区萩野町3丁目12番1号", "url2": "https://www.kaigokensaku.mhlw.go.jp/04/index.php?action_kouhyou_detail_004_kani=true&JigyosyoCd=0495200446-00&ServiceCd=320&Type=search" }, "geometry": { "type": "Point", "coordinates": [ 140.917659599999979, 38.2576844 ] } },
{ "type": "Feature", "properties": { "内容": "グループホームあったかいご燕沢東【認知症対応型共同生活介護】宮城県仙台市宮城野区燕沢東3丁目20-32", "url2": "https://www.kaigokensaku.mhlw.go.jp/04/index.php?action_kouhyou_detail_004_kani=true&JigyosyoCd=0495200123-00&ServiceCd=320&Type=search" }, "geometry": { "type": "Point", "coordinates": [ 140.933617300000037, 38.2890534 ] } },
{ "type": "Feature", "properties": { "内容": "グループホーム東仙台【認知症対応型共同生活介護】宮城県仙台市宮城野区新田３－１５－２１", "url2": "https://www.kaigokensaku.mhlw.go.jp/04/index.php?action_kouhyou_detail_004_kani=true&JigyosyoCd=0495200297-00&ServiceCd=320&Type=search" }, "geometry": { "type": "Point", "coordinates": [ 140.919814, 38.2732271 ] } },
{ "type": "Feature", "properties": { "内容": "ニチイケアセンター仙台福室【認知症対応型共同生活介護】宮城県仙台市宮城野区福室5丁目4-38", "url2": "https://www.kaigokensaku.mhlw.go.jp/04/index.php?action_kouhyou_detail_004_kani=true&JigyosyoCd=0495200115-00&ServiceCd=320&Type=search" }, "geometry": { "type": "Point", "coordinates": [ 140.9700841, 38.2815947 ] } },
{ "type": "Feature", "properties": { "内容": "愛の家グループホーム仙台岩切【認知症対応型共同生活介護】宮城県仙台市宮城野区岩切字稲荷193-2", "url2": "https://www.kaigokensaku.mhlw.go.jp/04/index.php?action_kouhyou_detail_004_kani=true&JigyosyoCd=0475201117-00&ServiceCd=320&Type=search" }, "geometry": { "type": "Point", "coordinates": [ 140.935790641975245, 38.296569861112062 ] } },
{ "type": "Feature", "properties": { "内容": "グループホーム　かりんの家【認知症対応型共同生活介護】宮城県仙台市宮城野区燕沢東2-1-50", "url2": "https://www.kaigokensaku.mhlw.go.jp/04/index.php?action_kouhyou_detail_004_kani=true&JigyosyoCd=0495200198-00&ServiceCd=320&Type=search" }, "geometry": { "type": "Point", "coordinates": [ 140.930087299999968, 38.2855259 ] } },
{ "type": "Feature", "properties": { "内容": "グループホーム　にこトピア萩野町【認知症対応型共同生活介護】宮城県仙台市宮城野区萩野町２丁目８番１２号", "url2": "https://www.kaigokensaku.mhlw.go.jp/04/index.php?action_kouhyou_detail_004_kani=true&JigyosyoCd=0495200479-00&ServiceCd=320&Type=search" }, "geometry": { "type": "Point", "coordinates": [ 140.915109300000012, 38.2549854 ] } },
{ "type": "Feature", "properties": { "内容": "愛・グループホーム仙台高砂【認知症対応型共同生活介護】宮城県仙台市宮城野区高砂2-7-8", "url2": "https://www.kaigokensaku.mhlw.go.jp/04/index.php?action_kouhyou_detail_004_kani=true&JigyosyoCd=0495200289-00&ServiceCd=320&Type=search" }, "geometry": { "type": "Point", "coordinates": [ 140.968740225153169, 38.268540681793233 ] } },
{ "type": "Feature", "properties": { "内容": "グループホームコスモス鶴ヶ谷【認知症対応型共同生活介護】宮城県仙台市宮城野区鶴ケ谷東4丁目13-8", "url2": "https://www.kaigokensaku.mhlw.go.jp/04/index.php?action_kouhyou_detail_004_kani=true&JigyosyoCd=0475201281-00&ServiceCd=320&Type=search" }, "geometry": { "type": "Point", "coordinates": [ 140.927909099999965, 38.2946275 ] } },
{ "type": "Feature", "properties": { "内容": "グループホーム　やわらぎ【認知症対応型共同生活介護】宮城県仙台市宮城野区東仙台五丁目1-25", "url2": "https://www.kaigokensaku.mhlw.go.jp/04/index.php?action_kouhyou_detail_004_kani=true&JigyosyoCd=0475201059-00&ServiceCd=320&Type=search" }, "geometry": { "type": "Point", "coordinates": [ 140.913390646032695, 38.274440331896798 ] } },
{ "type": "Feature", "properties": { "内容": "グループホームやわらぎ２号館【認知症対応型共同生活介護】宮城県仙台市宮城野区東仙台５丁目1-27", "url2": "https://www.kaigokensaku.mhlw.go.jp/04/index.php?action_kouhyou_detail_004_kani=true&JigyosyoCd=0495200602-00&ServiceCd=320&Type=search" }, "geometry": { "type": "Point", "coordinates": [ 140.913739919187918, 38.274639453484745 ] } },
{ "type": "Feature", "properties": { "内容": "グループホームみやぎの杜【認知症対応型共同生活介護】宮城県仙台市宮城野区岩切字余目11番地", "url2": "https://www.kaigokensaku.mhlw.go.jp/04/index.php?action_kouhyou_detail_004_kani=true&JigyosyoCd=0495200537-00&ServiceCd=320&Type=search" }, "geometry": { "type": "Point", "coordinates": [ 140.9565016, 38.292367 ] } },
{ "type": "Feature", "properties": { "内容": "グループホームゆづるの杜【認知症対応型共同生活介護】宮城県仙台市宮城野区鶴巻一丁目19番3号", "url2": "https://www.kaigokensaku.mhlw.go.jp/04/index.php?action_kouhyou_detail_004_kani=true&JigyosyoCd=0495200545-00&ServiceCd=320&Type=search" }, "geometry": { "type": "Point", "coordinates": [ 140.965687800000012, 38.2625046 ] } },
{ "type": "Feature", "properties": { "内容": "ふくろうの杜　田子西【認知症対応型共同生活介護】宮城県仙台市宮城野区田子字田子西115-1", "url2": "https://www.kaigokensaku.mhlw.go.jp/04/index.php?action_kouhyou_detail_004_kani=true&JigyosyoCd=0495200636-00&ServiceCd=320&Type=search" }, "geometry": { "type": "Point", "coordinates": [ 140.9586316, 38.2879046 ] } },
{ "type": "Feature", "properties": { "内容": "ふくろうの杜　白鳥【認知症対応型共同生活介護】宮城県仙台市宮城野区白鳥１丁目34-12", "url2": "https://www.kaigokensaku.mhlw.go.jp/04/index.php?action_kouhyou_detail_004_kani=true&JigyosyoCd=0475201042-00&ServiceCd=320&Type=search" }, "geometry": { "type": "Point", "coordinates": [ 140.974906799999985, 38.2645553 ] } },
{ "type": "Feature", "properties": { "内容": "ライブラリ福室【認知症対応型共同生活介護】宮城県仙台市宮城野区福室7丁目6-17ライブラリ福室", "url2": "https://www.kaigokensaku.mhlw.go.jp/04/index.php?action_kouhyou_detail_004_kani=true&JigyosyoCd=0495200594-00&ServiceCd=320&Type=search" }, "geometry": { "type": "Point", "coordinates": [ 140.9720328, 38.282806 ] } },
{ "type": "Feature", "properties": { "内容": "ライブラリひなたぼっこ【認知症対応型共同生活介護】宮城県仙台市若林区五十人町77-2", "url2": "https://www.kaigokensaku.mhlw.go.jp/04/index.php?action_kouhyou_detail_004_kani=true&JigyosyoCd=0495300519-00&ServiceCd=320&Type=search" }, "geometry": { "type": "Point", "coordinates": [ 140.890953599999989, 38.2464927 ] } },
{ "type": "Feature", "properties": { "内容": "グループホームなつぎ埜【認知症対応型共同生活介護】宮城県仙台市若林区今泉字小在家東97-2", "url2": "https://www.kaigokensaku.mhlw.go.jp/04/index.php?action_kouhyou_detail_004_kani=true&JigyosyoCd=0495300089-00&ServiceCd=320&Type=search" }, "geometry": { "type": "Point", "coordinates": [ 140.936737692956513, 38.202807139895761 ] } },
{ "type": "Feature", "properties": { "内容": "セントケアホーム若林【認知症対応型共同生活介護】宮城県仙台市若林区若林7丁目6番15号", "url2": "https://www.kaigokensaku.mhlw.go.jp/04/index.php?action_kouhyou_detail_004_kani=true&JigyosyoCd=0495300170-00&ServiceCd=320&Type=search" }, "geometry": { "type": "Point", "coordinates": [ 140.904940099999976, 38.2270843 ] } },
{ "type": "Feature", "properties": { "内容": "くつろぎ保養館仙台東【認知症対応型共同生活介護】宮城県仙台市若林区長喜城字宮浦27-5", "url2": "https://www.kaigokensaku.mhlw.go.jp/04/index.php?action_kouhyou_detail_004_kani=true&JigyosyoCd=0475300430-00&ServiceCd=320&Type=search" }, "geometry": { "type": "Point", "coordinates": [ 140.936129100000016, 38.238612 ] } },
{ "type": "Feature", "properties": { "内容": "愛・グループホーム荒井西【認知症対応型共同生活介護】宮城県仙台市若林区なないろの里2-28-12", "url2": "https://www.kaigokensaku.mhlw.go.jp/04/index.php?action_kouhyou_detail_004_kani=true&JigyosyoCd=0495300303-00&ServiceCd=320&Type=search" }, "geometry": { "type": "Point", "coordinates": [ 140.93574638764926, 38.239894380136384 ] } },
{ "type": "Feature", "properties": { "内容": "ニチイケアセンター仙台やまとまち【認知症対応型共同生活介護】仙台市若林区大和町1丁目14番2号", "url2": "https://www.kaigokensaku.mhlw.go.jp/04/index.php?action_kouhyou_detail_004_kani=true&JigyosyoCd=0495300097-00&ServiceCd=320&Type=search" }, "geometry": { "type": "Point", "coordinates": [ 140.906086773016369, 38.247738254810365 ] } },
{ "type": "Feature", "properties": { "内容": "グループホーム夢眠せんだい【認知症対応型共同生活介護】宮城県仙台市若林区荒町15番3号", "url2": "https://www.kaigokensaku.mhlw.go.jp/04/index.php?action_kouhyou_detail_004_kani=true&JigyosyoCd=0495300451-00&ServiceCd=320&Type=search" }, "geometry": { "type": "Point", "coordinates": [ 140.8864154, 38.2478728 ] } },
{ "type": "Feature", "properties": { "内容": "グループホーム憩いの園【認知症対応型共同生活介護】宮城県仙台市若林区上飯田1-3-31", "url2": "https://www.kaigokensaku.mhlw.go.jp/04/index.php?action_kouhyou_detail_004_kani=true&JigyosyoCd=0495300204-00&ServiceCd=320&Type=search" }, "geometry": { "type": "Point", "coordinates": [ 140.911639799999989, 38.2216324 ] } },
{ "type": "Feature", "properties": { "内容": "グループホーム大和町【認知症対応型共同生活介護】宮城県仙台市若林区大和町5丁目６番5号", "url2": "https://www.kaigokensaku.mhlw.go.jp/04/index.php?action_kouhyou_detail_004_kani=true&JigyosyoCd=0495300311-00&ServiceCd=320&Type=search" }, "geometry": { "type": "Point", "coordinates": [ 140.9217152, 38.2495883 ] } },
{ "type": "Feature", "properties": { "内容": "グループホーム　ノテ五橋【認知症対応型共同生活介護】宮城県仙台市若林区東七番丁166-1", "url2": "https://www.kaigokensaku.mhlw.go.jp/04/index.php?action_kouhyou_detail_004_kani=true&JigyosyoCd=0495300279-00&ServiceCd=320&Type=search" }, "geometry": { "type": "Point", "coordinates": [ 140.882957900000065, 38.2505615 ] } },
{ "type": "Feature", "properties": { "内容": "グループホームなんてん伊在荘【認知症対応型共同生活介護】宮城県仙台市若林区蒲町５－１", "url2": "https://www.kaigokensaku.mhlw.go.jp/04/index.php?action_kouhyou_detail_004_kani=true&JigyosyoCd=0475300562-00&ServiceCd=320&Type=search" }, "geometry": { "type": "Point", "coordinates": [ 140.926500814753467, 38.247146546607482 ] } },
{ "type": "Feature", "properties": { "内容": "グループホームたのしい家仙台上飯田【認知症対応型共同生活介護】宮城県仙台市若林区上飯田1-19-38", "url2": "https://www.kaigokensaku.mhlw.go.jp/04/index.php?action_kouhyou_detail_004_kani=true&JigyosyoCd=0495300535-00&ServiceCd=320&Type=search" }, "geometry": { "type": "Point", "coordinates": [ 140.918601, 38.2213485 ] } },
{ "type": "Feature", "properties": { "内容": "グループホームやよいの杜【認知症対応型共同生活介護】宮城県仙台市若林区若林七丁目１０番１９号", "url2": "https://www.kaigokensaku.mhlw.go.jp/04/index.php?action_kouhyou_detail_004_kani=true&JigyosyoCd=0495300477-00&ServiceCd=320&Type=search" }, "geometry": { "type": "Point", "coordinates": [ 140.90688578413085, 38.226328980901265 ] } },
{ "type": "Feature", "properties": { "内容": "ライブラリ大和町【認知症対応型共同生活介護】宮城県仙台市若林区大和町5丁目23-8", "url2": "https://www.kaigokensaku.mhlw.go.jp/04/index.php?action_kouhyou_detail_004_kani=true&JigyosyoCd=0495300428-00&ServiceCd=320&Type=search" }, "geometry": { "type": "Point", "coordinates": [ 140.924359900000013, 38.2502537 ] } },
{ "type": "Feature", "properties": { "内容": "グループホームすだちの里【認知症対応型共同生活介護】仙台市若林区沖野７丁目６－３０", "url2": "https://www.kaigokensaku.mhlw.go.jp/04/index.php?action_kouhyou_detail_004_kani=true&JigyosyoCd=0495300022-00&ServiceCd=320&Type=search" }, "geometry": { "type": "Point", "coordinates": [ 140.9191194, 38.2293182 ] } },
{ "type": "Feature", "properties": { "内容": "やぎあん【認知症対応型共同生活介護】宮城県仙台市太白区八木山南３－１－１２", "url2": "https://www.kaigokensaku.mhlw.go.jp/04/index.php?action_kouhyou_detail_004_kani=true&JigyosyoCd=0495400053-00&ServiceCd=320&Type=search" }, "geometry": { "type": "Point", "coordinates": [ 140.835232099999985, 38.2341681 ] } },
{ "type": "Feature", "properties": { "内容": "グループホームあかね【認知症対応型共同生活介護】宮城県仙台市太白区金剛沢1丁目3番15号", "url2": "https://www.kaigokensaku.mhlw.go.jp/04/index.php?action_kouhyou_detail_004_kani=true&JigyosyoCd=0495400426-00&ServiceCd=320&Type=search" }, "geometry": { "type": "Point", "coordinates": [ 140.849672599999963, 38.2299494 ] } },
{ "type": "Feature", "properties": { "内容": "グループホーム　こまち【認知症対応型共同生活介護】宮城県仙台市太白区茂庭字町北41番地3号", "url2": "https://www.kaigokensaku.mhlw.go.jp/04/index.php?action_kouhyou_detail_004_kani=true&JigyosyoCd=0495400665-00&ServiceCd=320&Type=search" }, "geometry": { "type": "Point", "coordinates": [ 140.786331600000011, 38.2225552 ] } },
{ "type": "Feature", "properties": { "内容": "やすらぎホーム中田【認知症対応型共同生活介護】宮城県仙台市太白区中田町字二軒橋25-9やすらぎホーム中田", "url2": "https://www.kaigokensaku.mhlw.go.jp/04/index.php?action_kouhyou_detail_004_kani=true&JigyosyoCd=0495400269-00&ServiceCd=320&Type=search" }, "geometry": { "type": "Point", "coordinates": [ 140.895335891983592, 38.194383209510015 ] } },
{ "type": "Feature", "properties": { "内容": "ニチイケアセンター仙台なかた【認知症対応型共同生活介護】宮城県仙台市太白区中田6丁目24-8", "url2": "https://www.kaigokensaku.mhlw.go.jp/04/index.php?action_kouhyou_detail_004_kani=true&JigyosyoCd=0495400103-00&ServiceCd=320&Type=search" }, "geometry": { "type": "Point", "coordinates": [ 140.889348299999938, 38.1922873 ] } },
{ "type": "Feature", "properties": { "内容": "ニチイケアセンター仙台柳生【認知症対応型共同生活介護】宮城県仙台市太白区柳生四丁目6-15", "url2": "https://www.kaigokensaku.mhlw.go.jp/04/index.php?action_kouhyou_detail_004_kani=true&JigyosyoCd=0495400111-00&ServiceCd=320&Type=search" }, "geometry": { "type": "Point", "coordinates": [ 140.8673612, 38.1955058 ] } },
{ "type": "Feature", "properties": { "内容": "グループホーム　長寿の郷　青山【認知症対応型共同生活介護】宮城県仙台市太白区青山二丁目９番６号", "url2": "https://www.kaigokensaku.mhlw.go.jp/04/index.php?action_kouhyou_detail_004_kani=true&JigyosyoCd=0495400467-00&ServiceCd=320&Type=search" }, "geometry": { "type": "Point", "coordinates": [ 140.856641200000013, 38.238171 ] } },
{ "type": "Feature", "properties": { "内容": "愛・グループホーム富沢【認知症対応型共同生活介護】宮城県仙台市太白区富沢2丁目10-12愛・グループホーム富沢", "url2": "https://www.kaigokensaku.mhlw.go.jp/04/index.php?action_kouhyou_detail_004_kani=true&JigyosyoCd=0495400509-00&ServiceCd=320&Type=search" }, "geometry": { "type": "Point", "coordinates": [ 140.862774228172242, 38.221515417273913 ] } },
{ "type": "Feature", "properties": { "内容": "グループホームたのしい家仙台柳生【認知症対応型共同生活介護】宮城県仙台市太白区柳生字前原北69-3", "url2": "https://www.kaigokensaku.mhlw.go.jp/04/index.php?action_kouhyou_detail_004_kani=true&JigyosyoCd=0495400525-00&ServiceCd=320&Type=search" }, "geometry": { "type": "Point", "coordinates": [ 140.870094600000016, 38.1907424 ] } },
{ "type": "Feature", "properties": { "内容": "グループホーム人来田の風【認知症対応型共同生活介護】宮城県仙台市太白区人来田3丁目17-8", "url2": "https://www.kaigokensaku.mhlw.go.jp/04/index.php?action_kouhyou_detail_004_kani=true&JigyosyoCd=0495400095-00&ServiceCd=320&Type=search" }, "geometry": { "type": "Point", "coordinates": [ 140.802849700000024, 38.2188384 ] } },
{ "type": "Feature", "properties": { "内容": "グループホーム　ほくとの里【認知症対応型共同生活介護】仙台市太白区秋保町湯向28-10", "url2": "https://www.kaigokensaku.mhlw.go.jp/04/index.php?action_kouhyou_detail_004_kani=true&JigyosyoCd=0475401402-00&ServiceCd=320&Type=search" }, "geometry": { "type": "Point", "coordinates": [ 140.720927800000027, 38.2304734 ] } },
{ "type": "Feature", "properties": { "内容": "愛の家グループホーム仙台東中田【認知症対応型共同生活介護】宮城県仙台市太白区東中田３丁目27番30号", "url2": "https://www.kaigokensaku.mhlw.go.jp/04/index.php?action_kouhyou_detail_004_kani=true&JigyosyoCd=0495400178-00&ServiceCd=320&Type=search" }, "geometry": { "type": "Point", "coordinates": [ 140.90555976328784, 38.199921531902675 ] } },
{ "type": "Feature", "properties": { "内容": "グループホーム縄文の風【認知症対応型共同生活介護】仙台市太白区山田上ノ台町6－43", "url2": "https://www.kaigokensaku.mhlw.go.jp/04/index.php?action_kouhyou_detail_004_kani=true&JigyosyoCd=0475401154-00&ServiceCd=320&Type=search" }, "geometry": { "type": "Point", "coordinates": [ 140.833077199999906, 38.2198918 ] } },
{ "type": "Feature", "properties": { "内容": "グループホーム　あったかいごこおりやま【認知症対応型共同生活介護】宮城県仙台市太白区郡山５丁目８－２４あったかいごこおりやま", "url2": "https://www.kaigokensaku.mhlw.go.jp/04/index.php?action_kouhyou_detail_004_kani=true&JigyosyoCd=0495400350-00&ServiceCd=320&Type=search" }, "geometry": { "type": "Point", "coordinates": [ 140.892549799999983, 38.2183458 ] } },
{ "type": "Feature", "properties": { "内容": "中田高齢者グループホーム　ゆきあい【認知症対応型共同生活介護】宮城県仙台市太白区西中田2丁目23－5", "url2": "https://www.kaigokensaku.mhlw.go.jp/04/index.php?action_kouhyou_detail_004_kani=true&JigyosyoCd=0475400891-00&ServiceCd=320&Type=search" }, "geometry": { "type": "Point", "coordinates": [ 140.876755812164333, 38.202352076989762 ] } },
{ "type": "Feature", "properties": { "内容": "ライブラリ八木山南【認知症対応型共同生活介護】宮城県仙台市太白区八木山南１丁目１２－６", "url2": "https://www.kaigokensaku.mhlw.go.jp/04/index.php?action_kouhyou_detail_004_kani=true&JigyosyoCd=0495400723-00&ServiceCd=320&Type=search" }, "geometry": { "type": "Point", "coordinates": [ 140.8352353, 38.2385897 ] } },
{ "type": "Feature", "properties": { "内容": "グループホームなんてん長嶺荘【認知症対応型共同生活介護】宮城県仙台市太白区長嶺８番10号", "url2": "https://www.kaigokensaku.mhlw.go.jp/04/index.php?action_kouhyou_detail_004_kani=true&JigyosyoCd=0475400966-00&ServiceCd=320&Type=search" }, "geometry": { "type": "Point", "coordinates": [ 140.867634700000053, 38.2363768 ] } },
{ "type": "Feature", "properties": { "内容": "グループホームはるかの杜【認知症対応型共同生活介護】宮城県仙台市太白区向山二丁目１３番８号", "url2": "https://www.kaigokensaku.mhlw.go.jp/04/index.php?action_kouhyou_detail_004_kani=true&JigyosyoCd=0495400707-00&ServiceCd=320&Type=search" }, "geometry": { "type": "Point", "coordinates": [ 140.8683609, 38.244955 ] } },
{ "type": "Feature", "properties": { "内容": "やすらぎホーム袋原【認知症対応型共同生活介護】宮城県仙台市太白区四郎丸字落合105-4やすらぎホーム袋原", "url2": "https://www.kaigokensaku.mhlw.go.jp/04/index.php?action_kouhyou_detail_004_kani=true&JigyosyoCd=0495400780-00&ServiceCd=320&Type=search" }, "geometry": { "type": "Point", "coordinates": [ 140.9185453, 38.1971297 ] } },
{ "type": "Feature", "properties": { "内容": "四郎丸高齢者グループホーム　「おちあい」【認知症対応型共同生活介護】宮城県仙台市太白区四郎丸字大宮４５－２８", "url2": "https://www.kaigokensaku.mhlw.go.jp/04/index.php?action_kouhyou_detail_004_kani=true&JigyosyoCd=0475400461-00&ServiceCd=320&Type=search" }, "geometry": { "type": "Point", "coordinates": [ 140.918607299999962, 38.1946493 ] } },
{ "type": "Feature", "properties": { "内容": "グループホーム長寿の郷緑ヶ丘【認知症対応型共同生活介護】宮城県仙台市太白区緑ヶ丘一丁目７番２７号", "url2": "https://www.kaigokensaku.mhlw.go.jp/04/index.php?action_kouhyou_detail_004_kani=true&JigyosyoCd=0495400699-00&ServiceCd=320&Type=search" }, "geometry": { "type": "Point", "coordinates": [ 140.869190875508679, 38.230514757481629 ] } },
{ "type": "Feature", "properties": { "内容": "やすらぎホーム富沢【認知症対応型共同生活介護】宮城県仙台市太白区富沢西4丁目3-5", "url2": "https://www.kaigokensaku.mhlw.go.jp/04/index.php?action_kouhyou_detail_004_kani=true&JigyosyoCd=0475401014-00&ServiceCd=320&Type=search" }, "geometry": { "type": "Point", "coordinates": [ 140.862749933729532, 38.210938849166205 ] } },
{ "type": "Feature", "properties": { "内容": "グループホームノテ東大野田【認知症対応型共同生活介護】宮城県仙台市太白区東大野田11番5号", "url2": "https://www.kaigokensaku.mhlw.go.jp/04/index.php?action_kouhyou_detail_004_kani=true&JigyosyoCd=0495400376-00&ServiceCd=320&Type=search" }, "geometry": { "type": "Point", "coordinates": [ 140.886831, 38.2108381 ] } },
{ "type": "Feature", "properties": { "内容": "愛の家グループホーム仙台茂庭台【認知症対応型共同生活介護】宮城県仙台市太白区茂庭台4-21-5", "url2": "https://www.kaigokensaku.mhlw.go.jp/04/index.php?action_kouhyou_detail_004_kani=true&JigyosyoCd=0495400210-00&ServiceCd=320&Type=search" }, "geometry": { "type": "Point", "coordinates": [ 140.785260490876794, 38.237807392208438 ] } },
{ "type": "Feature", "properties": { "内容": "グループホーム萩ヶ丘【認知症対応型共同生活介護】宮城県仙台市太白区萩ヶ丘28-24", "url2": "https://www.kaigokensaku.mhlw.go.jp/04/index.php?action_kouhyou_detail_004_kani=true&JigyosyoCd=0495400137-00&ServiceCd=320&Type=search" }, "geometry": { "type": "Point", "coordinates": [ 140.866637500000024, 38.239868 ] } },
{ "type": "Feature", "properties": { "内容": "グループホーム　あったかいご西多賀【認知症対応型共同生活介護】宮城県仙台市太白区鈎取二丁目３０－３０ｸﾞﾙｰﾌﾟﾎｰﾑ　あったかいご西多賀", "url2": "https://www.kaigokensaku.mhlw.go.jp/04/index.php?action_kouhyou_detail_004_kani=true&JigyosyoCd=0495400368-00&ServiceCd=320&Type=search" }, "geometry": { "type": "Point", "coordinates": [ 140.839754, 38.232224 ] } },
{ "type": "Feature", "properties": { "内容": "愛・グループホーム仙台東大野田【認知症対応型共同生活介護】宮城県仙台市太白区東大野田19-28", "url2": "https://www.kaigokensaku.mhlw.go.jp/04/index.php?action_kouhyou_detail_004_kani=true&JigyosyoCd=0495400285-00&ServiceCd=320&Type=search" }, "geometry": { "type": "Point", "coordinates": [ 140.887997600000062, 38.209205 ] } },
{ "type": "Feature", "properties": { "内容": "グループホーム山田【認知症対応型共同生活介護】宮城県仙台市太白区山田北前町44-14グループホーム山田", "url2": "https://www.kaigokensaku.mhlw.go.jp/04/index.php?action_kouhyou_detail_004_kani=true&JigyosyoCd=0495400418-00&ServiceCd=320&Type=search" }, "geometry": { "type": "Point", "coordinates": [ 140.826055600000018, 38.2227636 ] } },
{ "type": "Feature", "properties": { "内容": "ツクイ袋原グループホーム【認知症対応型共同生活介護】宮城県仙台市太白区中田町字法地南4-1ツクイ袋原グループホーム", "url2": "https://www.kaigokensaku.mhlw.go.jp/04/index.php?action_kouhyou_detail_004_kani=true&JigyosyoCd=0495400624-00&ServiceCd=320&Type=search" }, "geometry": { "type": "Point", "coordinates": [ 140.903397099999978, 38.1968345 ] } },
{ "type": "Feature", "properties": { "内容": "グループホーム仙台みなみさくらそう【認知症対応型共同生活介護】宮城県仙台市太白区西中田3-2-45", "url2": "https://www.kaigokensaku.mhlw.go.jp/04/index.php?action_kouhyou_detail_004_kani=true&JigyosyoCd=0495200347-00&ServiceCd=320&Type=search" }, "geometry": { "type": "Point", "coordinates": [ 140.87856407298159, 38.200376582649625 ] } },
{ "type": "Feature", "properties": { "内容": "愛の家グループホーム仙台実沢【認知症対応型共同生活介護】宮城県仙台市泉区実沢一本橋1-2", "url2": "https://www.kaigokensaku.mhlw.go.jp/04/index.php?action_kouhyou_detail_004_kani=true&JigyosyoCd=0495500118-00&ServiceCd=320&Type=search" }, "geometry": { "type": "Point", "coordinates": [ 140.819640099999987, 38.3280259 ] } },
{ "type": "Feature", "properties": { "内容": "ふくろうの杜　泉ヶ丘【認知症対応型共同生活介護】宮城県仙台市泉区泉ヶ丘４－１１－２３", "url2": "https://www.kaigokensaku.mhlw.go.jp/04/index.php?action_kouhyou_detail_004_kani=true&JigyosyoCd=0495500308-00&ServiceCd=320&Type=search" }, "geometry": { "type": "Point", "coordinates": [ 140.865596340475435, 38.358053644127665 ] } },
{ "type": "Feature", "properties": { "内容": "グループホームここさいむら泉中央【認知症対応型共同生活介護】宮城県仙台市泉区野村字菅間前25-40ここさいむら泉中央", "url2": "https://www.kaigokensaku.mhlw.go.jp/04/index.php?action_kouhyou_detail_004_kani=true&JigyosyoCd=0495500472-00&ServiceCd=320&Type=search" }, "geometry": { "type": "Point", "coordinates": [ 140.8683218, 38.3255442 ] } },
{ "type": "Feature", "properties": { "内容": "グループホーム　ひまわり【認知症対応型共同生活介護】宮城県仙台市泉区住吉台西4丁目３－１", "url2": "https://www.kaigokensaku.mhlw.go.jp/04/index.php?action_kouhyou_detail_004_kani=true&JigyosyoCd=0475501391-00&ServiceCd=320&Type=search" }, "geometry": { "type": "Point", "coordinates": [ 140.783405099999982, 38.3319029 ] } },
{ "type": "Feature", "properties": { "内容": "ニチイケアセンター仙台あさひがおか【認知症対応型共同生活介護】宮城県仙台市泉区南光台3-14-17ニチイケアセンター仙台あさひがおか", "url2": "https://www.kaigokensaku.mhlw.go.jp/04/index.php?action_kouhyou_detail_004_kani=true&JigyosyoCd=0495500126-00&ServiceCd=320&Type=search" }, "geometry": { "type": "Point", "coordinates": [ 140.891790300000025, 38.295917899999985 ] } },
{ "type": "Feature", "properties": { "内容": "グループホーム　コスモス向陽台【認知症対応型共同生活介護】宮城県仙台市泉区向陽台５丁目１６番２０号", "url2": "https://www.kaigokensaku.mhlw.go.jp/04/index.php?action_kouhyou_detail_004_kani=true&JigyosyoCd=0495500332-00&ServiceCd=320&Type=search" }, "geometry": { "type": "Point", "coordinates": [ 140.899390499999981, 38.3347277 ] } },
{ "type": "Feature", "properties": { "内容": "グループホームコスモス八乙女【認知症対応型共同生活介護】宮城県仙台市泉区八乙女中央３－９－２３", "url2": "https://www.kaigokensaku.mhlw.go.jp/04/index.php?action_kouhyou_detail_004_kani=true&JigyosyoCd=0495500480-00&ServiceCd=320&Type=search" }, "geometry": { "type": "Point", "coordinates": [ 140.88737976871721, 38.314012695093709 ] } },
{ "type": "Feature", "properties": { "内容": "グループホームいずみの杜【認知症対応型共同生活介護】宮城県仙台市泉区松森字下町7番地の2", "url2": "https://www.kaigokensaku.mhlw.go.jp/04/index.php?action_kouhyou_detail_004_kani=true&JigyosyoCd=0495500670-00&ServiceCd=320&Type=search" }, "geometry": { "type": "Point", "coordinates": [ 140.9138763, 38.3164374 ] } },
{ "type": "Feature", "properties": { "内容": "グループホーム　長徳【認知症対応型共同生活介護】宮城県仙台市泉区長命ヶ丘4丁目14-14", "url2": "https://www.kaigokensaku.mhlw.go.jp/04/index.php?action_kouhyou_detail_004_kani=true&JigyosyoCd=0495500167-00&ServiceCd=320&Type=search" }, "geometry": { "type": "Point", "coordinates": [ 140.837217199999941, 38.3135086 ] } },
{ "type": "Feature", "properties": { "内容": "グループホームかぐらの杜【認知症対応型共同生活介護】宮城県仙台市泉区八乙女三丁目４番７号", "url2": "https://www.kaigokensaku.mhlw.go.jp/04/index.php?action_kouhyou_detail_004_kani=true&JigyosyoCd=0495500704-00&ServiceCd=320&Type=search" }, "geometry": { "type": "Point", "coordinates": [ 140.897622934098791, 38.308874621249032 ] } },
{ "type": "Feature", "properties": { "内容": "グループホーム　コスモス松陵【認知症対応型共同生活介護】宮城県仙台市泉区松陵1丁目28番1号", "url2": "https://www.kaigokensaku.mhlw.go.jp/04/index.php?action_kouhyou_detail_004_kani=true&JigyosyoCd=0475501326-00&ServiceCd=320&Type=search" }, "geometry": { "type": "Point", "coordinates": [ 140.913386599999967, 38.3233824 ] } },
{ "type": "Feature", "properties": { "内容": "ニチイケアセンター仙台八乙女【認知症対応型共同生活介護】宮城県仙台市泉区八乙女４丁目１２－３", "url2": "https://www.kaigokensaku.mhlw.go.jp/04/index.php?action_kouhyou_detail_004_kani=true&JigyosyoCd=0495500134-00&ServiceCd=320&Type=search" }, "geometry": { "type": "Point", "coordinates": [ 140.897111099999961, 38.3111219 ] } },
{ "type": "Feature", "properties": { "内容": "南光台ケアセンターそよ風【認知症対応型共同生活介護】仙台市泉区南光台南２丁目２６番１０号", "url2": "https://www.kaigokensaku.mhlw.go.jp/04/index.php?action_kouhyou_detail_004_kani=true&JigyosyoCd=0475501417-00&ServiceCd=320&Type=search" }, "geometry": { "type": "Point", "coordinates": [ 140.900331300000062, 38.293288 ] } },
{ "type": "Feature", "properties": { "内容": "グループホームなんてん水の森公園【認知症対応型共同生活介護】宮城県仙台市泉区上谷刈字古堤５－１", "url2": "https://www.kaigokensaku.mhlw.go.jp/04/index.php?action_kouhyou_detail_004_kani=true&JigyosyoCd=0475501102-00&ServiceCd=320&Type=search" }, "geometry": { "type": "Point", "coordinates": [ 140.863106499999958, 38.3100015 ] } },
{ "type": "Feature", "properties": { "内容": "グループホームさちの家【認知症対応型共同生活介護】宮城県仙台市泉区本田町20番7号", "url2": "https://www.kaigokensaku.mhlw.go.jp/04/index.php?action_kouhyou_detail_004_kani=true&JigyosyoCd=0475500765-00&ServiceCd=320&Type=search" }, "geometry": { "type": "Point", "coordinates": [ 140.905565300000035, 38.3225877 ] } },
{ "type": "Feature", "properties": { "内容": "認知症高齢者グループホームファミリア【認知症対応型共同生活介護】宮城県仙台市泉区南光台7丁目1－21", "url2": "https://www.kaigokensaku.mhlw.go.jp/04/index.php?action_kouhyou_detail_004_kani=true&JigyosyoCd=0495500365-00&ServiceCd=320&Type=search" }, "geometry": { "type": "Point", "coordinates": [ 140.89943930000004, 38.2993678 ] } },
{ "type": "Feature", "properties": { "内容": "グループホームむらでん高森【認知症対応型共同生活介護】宮城県仙台市泉区高森2-1-30", "url2": "https://www.kaigokensaku.mhlw.go.jp/04/index.php?action_kouhyou_detail_004_kani=true&JigyosyoCd=0495500142-00&ServiceCd=320&Type=search" }, "geometry": { "type": "Point", "coordinates": [ 140.843812299999968, 38.340028 ] } },
{ "type": "Feature", "properties": { "内容": "グループホーム　いずみの里【認知症対応型共同生活介護】仙台市泉区山の寺１－３４－３", "url2": "https://www.kaigokensaku.mhlw.go.jp/04/index.php?action_kouhyou_detail_004_kani=true&JigyosyoCd=0495500050-00&ServiceCd=320&Type=search" }, "geometry": { "type": "Point", "coordinates": [ 140.9014237, 38.3324253 ] } },
{ "type": "Feature", "properties": { "内容": "グループホーム　蘭【認知症対応型共同生活介護】仙台市泉区上谷刈字長命１番地", "url2": "https://www.kaigokensaku.mhlw.go.jp/04/index.php?action_kouhyou_detail_004_kani=true&JigyosyoCd=0475500872-00&ServiceCd=320&Type=search" }, "geometry": { "type": "Point", "coordinates": [ 140.855773399999947, 38.3199029 ] } },
{ "type": "Feature", "properties": { "内容": "グループホームはごうの杜【認知症対応型共同生活介護】宮城県仙台市泉区七北田字大沢相ノ沢１３番地の１", "url2": "https://www.kaigokensaku.mhlw.go.jp/04/index.php?action_kouhyou_detail_004_kani=true&JigyosyoCd=0495500803-00&ServiceCd=320&Type=search" }, "geometry": { "type": "Point", "coordinates": [ 140.8689943, 38.350455 ] } },
{ "type": "Feature", "properties": { "内容": "セントケアホームサテライト北中山【認知症対応型共同生活介護】宮城県仙台市泉区北中山2-24-1　1F", "url2": "https://www.kaigokensaku.mhlw.go.jp/04/index.php?action_kouhyou_detail_004_kani=true&JigyosyoCd=0495500035-00&ServiceCd=320&Type=search" }, "geometry": { "type": "Point", "coordinates": [ 140.815827974868739, 38.317107835504309 ] } },
{ "type": "Feature", "properties": { "内容": "グループホーム　アール・ド・ヴィーヴルやかた【認知症対応型共同生活介護】宮城県仙台市泉区館７丁目２０１－５", "url2": "https://www.kaigokensaku.mhlw.go.jp/04/index.php?action_kouhyou_detail_004_kani=true&JigyosyoCd=0495500209-00&ServiceCd=320&Type=search" }, "geometry": { "type": "Point", "coordinates": [ -1000.000000000000114, 38.308814384338326 ] } },
{ "type": "Feature", "properties": { "内容": "愛の家グループホーム仙台永和台【認知症対応型共同生活介護】宮城県仙台市泉区永和台25-6", "url2": "https://www.kaigokensaku.mhlw.go.jp/04/index.php?action_kouhyou_detail_004_kani=true&JigyosyoCd=0495500845-00&ServiceCd=320&Type=search" }, "geometry": { "type": "Point", "coordinates": [ 140.9053845, 38.3286329 ] } },
{ "type": "Feature", "properties": { "内容": "グループホームめぶきの杜【認知症対応型共同生活介護】宮城県仙台市泉区将監十丁目11番1号", "url2": "https://www.kaigokensaku.mhlw.go.jp/04/index.php?action_kouhyou_detail_004_kani=true&JigyosyoCd=0495500688-00&ServiceCd=320&Type=search" }, "geometry": { "type": "Point", "coordinates": [ 140.8716077, 38.3356005 ] } },
{ "type": "Feature", "properties": { "内容": "グループホームフォークソング【認知症対応型共同生活介護】宮城県仙台市泉区野村字野村161－１", "url2": "https://www.kaigokensaku.mhlw.go.jp/04/index.php?action_kouhyou_detail_004_kani=true&JigyosyoCd=0475500898-00&ServiceCd=320&Type=search" }, "geometry": { "type": "Point", "coordinates": [ 140.862747399999989, 38.3249191 ] } },
{ "type": "Feature", "properties": { "内容": "グループホームななみの杜【認知症対応型共同生活介護】宮城県仙台市泉区市名坂字万吉前１３番地の１", "url2": "https://www.kaigokensaku.mhlw.go.jp/04/index.php?action_kouhyou_detail_004_kani=true&JigyosyoCd=0495500738-00&ServiceCd=320&Type=search" }, "geometry": { "type": "Point", "coordinates": [ 140.892247674205009, 38.320821055920177 ] } },
{ "type": "Feature", "properties": { "内容": "グループホームゆかりの杜【認知症対応型共同生活介護】宮城県仙台市泉区南光台一丁目５番１８号", "url2": "https://www.kaigokensaku.mhlw.go.jp/04/index.php?action_kouhyou_detail_004_kani=true&JigyosyoCd=0495500720-00&ServiceCd=320&Type=search" }, "geometry": { "type": "Point", "coordinates": [ 140.892998, 38.2893483 ] } },
{ "type": "Feature", "properties": { "内容": "ふくろうの杜寺岡【認知症対応型共同生活介護】仙台市泉区寺岡３丁目１５－５", "url2": "https://www.kaigokensaku.mhlw.go.jp/04/index.php?action_kouhyou_detail_004_kani=true&JigyosyoCd=0495500183-00&ServiceCd=320&Type=search" }, "geometry": { "type": "Point", "coordinates": [ 140.824933500000043, 38.338758 ] } },
{ "type": "Feature", "properties": { "内容": "グループホームここさいむら青葉【認知症対応型共同生活介護】宮城県石巻市門脇字青葉西106-1グループホームここさいむら青葉", "url2": "https://www.kaigokensaku.mhlw.go.jp/04/index.php?action_kouhyou_detail_004_kani=true&JigyosyoCd=0490200227-00&ServiceCd=320&Type=search" }, "geometry": { "type": "Point", "coordinates": [ 141.260564199999976, 38.43504 ] } },
{ "type": "Feature", "properties": { "内容": "グループホーム　ほんわか【認知症対応型共同生活介護】宮城県石巻市鹿又字梅木屋敷169-2", "url2": "https://www.kaigokensaku.mhlw.go.jp/04/index.php?action_kouhyou_detail_004_kani=true&JigyosyoCd=0490200375-00&ServiceCd=320&Type=search" }, "geometry": { "type": "Point", "coordinates": [ 141.260514, 38.4940432 ] } },
{ "type": "Feature", "properties": { "内容": "けあビジョンホーム石巻【認知症対応型共同生活介護】宮城県石巻市桃生町寺崎字町140-1", "url2": "https://www.kaigokensaku.mhlw.go.jp/04/index.php?action_kouhyou_detail_004_kani=true&JigyosyoCd=0490200383-00&ServiceCd=320&Type=search" }, "geometry": { "type": "Point", "coordinates": [ 141.2476699, 38.5705813 ] } },
{ "type": "Feature", "properties": { "内容": "ぱんぷきん介護センター　グループホームねむの木【認知症対応型共同生活介護】宮城県石巻市大橋三丁目１番２１号", "url2": "https://www.kaigokensaku.mhlw.go.jp/04/index.php?action_kouhyou_detail_004_kani=true&JigyosyoCd=0470201484-00&ServiceCd=320&Type=search" }, "geometry": { "type": "Point", "coordinates": [ 141.308632900000021, 38.4441488 ] } },
{ "type": "Feature", "properties": { "内容": "グループホームなんてんおがつ【認知症対応型共同生活介護】宮城県石巻市小船越字山畑109-7", "url2": "https://www.kaigokensaku.mhlw.go.jp/04/index.php?action_kouhyou_detail_004_kani=true&JigyosyoCd=0490200128-00&ServiceCd=320&Type=search" }, "geometry": { "type": "Point", "coordinates": [ 141.301647199999934, 38.5093825 ] } },
{ "type": "Feature", "properties": { "内容": "グループホーム　長寿の郷　広渕【認知症対応型共同生活介護】宮城県石巻市広渕字砂三７番１号", "url2": "https://www.kaigokensaku.mhlw.go.jp/04/index.php?action_kouhyou_detail_004_kani=true&JigyosyoCd=0490200110-00&ServiceCd=320&Type=search" }, "geometry": { "type": "Point", "coordinates": [ 141.227778915736394, 38.474703775828715 ] } },
{ "type": "Feature", "properties": { "内容": "愛の家グループホーム石巻蛇田【認知症対応型共同生活介護】宮城県石巻市蛇田字下谷地19-1", "url2": "https://www.kaigokensaku.mhlw.go.jp/04/index.php?action_kouhyou_detail_004_kani=true&JigyosyoCd=0490200326-00&ServiceCd=320&Type=search" }, "geometry": { "type": "Point", "coordinates": [ 141.277961113491756, 38.440475114743137 ] } },
{ "type": "Feature", "properties": { "内容": "グループホームなんてん河北【認知症対応型共同生活介護】宮城県石巻市小船越字山畑95－１", "url2": "https://www.kaigokensaku.mhlw.go.jp/04/index.php?action_kouhyou_detail_004_kani=true&JigyosyoCd=0490200086-00&ServiceCd=320&Type=search" }, "geometry": { "type": "Point", "coordinates": [ 141.30138714788518, 38.50934182539433 ] } },
{ "type": "Feature", "properties": { "内容": "ぱんぷきん介護センターグループホームふかや【認知症対応型共同生活介護】宮城県石巻市広渕字馬場屋敷１６－１", "url2": "https://www.kaigokensaku.mhlw.go.jp/04/index.php?action_kouhyou_detail_004_kani=true&JigyosyoCd=0490200169-00&ServiceCd=320&Type=search" }, "geometry": { "type": "Point", "coordinates": [ 141.214261299999947, 38.4729453 ] } },
{ "type": "Feature", "properties": { "内容": "ぱんぷきん介護センターグループホームみなと筒場【認知症対応型共同生活介護】宮城県石巻市緑町二丁目1番1", "url2": "https://www.kaigokensaku.mhlw.go.jp/04/index.php?action_kouhyou_detail_004_kani=true&JigyosyoCd=0490200425-00&ServiceCd=320&Type=search" }, "geometry": { "type": "Point", "coordinates": [ 141.339511, 38.4179432 ] } },
{ "type": "Feature", "properties": { "内容": "あいわグループホーム【認知症対応型共同生活介護】宮城県石巻市さくら町五丁目６番地５", "url2": "https://www.kaigokensaku.mhlw.go.jp/04/index.php?action_kouhyou_detail_004_kani=true&JigyosyoCd=0490200045-00&ServiceCd=320&Type=search" }, "geometry": { "type": "Point", "coordinates": [ 141.3590481, 38.4221474 ] } },
{ "type": "Feature", "properties": { "内容": "グループホームきたかみ【認知症対応型共同生活介護】宮城県石巻市北上町橋浦字大須２３４", "url2": "https://www.kaigokensaku.mhlw.go.jp/04/index.php?action_kouhyou_detail_004_kani=true&JigyosyoCd=0490200052-00&ServiceCd=320&Type=search" }, "geometry": { "type": "Point", "coordinates": [ 141.410685699999931, 38.5477235 ] } },
{ "type": "Feature", "properties": { "内容": "グループホーム　隠居の家【認知症対応型共同生活介護】宮城県石巻市井内字三番113-2", "url2": "https://www.kaigokensaku.mhlw.go.jp/04/index.php?action_kouhyou_detail_004_kani=true&JigyosyoCd=0470201427-00&ServiceCd=320&Type=search" }, "geometry": { "type": "Point", "coordinates": [ 141.337255499999969, 38.4456439 ] } },
{ "type": "Feature", "properties": { "内容": "ツクイ石巻大街道グループホーム【認知症対応型共同生活介護】宮城県石巻市大街道北2-2-27ツクイ石巻大街道グループホーム", "url2": "https://www.kaigokensaku.mhlw.go.jp/04/index.php?action_kouhyou_detail_004_kani=true&JigyosyoCd=0470201419-00&ServiceCd=320&Type=search" }, "geometry": { "type": "Point", "coordinates": [ 141.2836409, 38.4305303 ] } },
{ "type": "Feature", "properties": { "内容": "グループホーム青葉【認知症対応型共同生活介護】宮城県石巻市門脇字一番谷地５７番地の１９", "url2": "https://www.kaigokensaku.mhlw.go.jp/04/index.php?action_kouhyou_detail_004_kani=true&JigyosyoCd=0470200544-00&ServiceCd=320&Type=search" }, "geometry": { "type": "Point", "coordinates": [ 141.2630696, 38.4332736 ] } },
{ "type": "Feature", "properties": { "内容": "グループホーム　しらさぎ苑【認知症対応型共同生活介護】石巻市須江字しらさぎ台３丁目２１番地３", "url2": "https://www.kaigokensaku.mhlw.go.jp/04/index.php?action_kouhyou_detail_004_kani=true&JigyosyoCd=0470201344-00&ServiceCd=320&Type=search" }, "geometry": { "type": "Point", "coordinates": [ 141.245036700000014, 38.4653332 ] } },
{ "type": "Feature", "properties": { "内容": "けあビジョンホーム石巻広渕【認知症対応型共同生活介護】宮城県石巻市広渕字町183番地", "url2": "https://www.kaigokensaku.mhlw.go.jp/04/index.php?action_kouhyou_detail_004_kani=true&JigyosyoCd=0490200441-00&ServiceCd=320&Type=search" }, "geometry": { "type": "Point", "coordinates": [ 141.2065666, 38.4666186 ] } },
{ "type": "Feature", "properties": { "内容": "グループホーム希慈【認知症対応型共同生活介護】宮城県石巻市新成三丁目9－17", "url2": "https://www.kaigokensaku.mhlw.go.jp/04/index.php?action_kouhyou_detail_004_kani=true&JigyosyoCd=0470201435-00&ServiceCd=320&Type=search" }, "geometry": { "type": "Point", "coordinates": [ 141.365172511267559, 38.426732530465202 ] } },
{ "type": "Feature", "properties": { "内容": "グループホーム　ふれあい【認知症対応型共同生活介護】宮城県石巻市蛇田字小斎1番地1", "url2": "https://www.kaigokensaku.mhlw.go.jp/04/index.php?action_kouhyou_detail_004_kani=true&JigyosyoCd=0490200284-00&ServiceCd=320&Type=search" }, "geometry": { "type": "Point", "coordinates": [ 141.255838300000022, 38.454809800000042 ] } },
{ "type": "Feature", "properties": { "内容": "グループホーム　親孝行【認知症対応型共同生活介護】宮城県石巻市須江字沢尻５５番地", "url2": "https://www.kaigokensaku.mhlw.go.jp/04/index.php?action_kouhyou_detail_004_kani=true&JigyosyoCd=0470201054-00&ServiceCd=320&Type=search" }, "geometry": { "type": "Point", "coordinates": [ 141.246195100000023, 38.4567537 ] } },
{ "type": "Feature", "properties": { "内容": "認知症高齢者グループホーム「ぬくもりの家」【認知症対応型共同生活介護】宮城県石巻市大瓜字箕輪１７番地", "url2": "https://www.kaigokensaku.mhlw.go.jp/04/index.php?action_kouhyou_detail_004_kani=true&JigyosyoCd=0470200395-00&ServiceCd=320&Type=search" }, "geometry": { "type": "Point", "coordinates": [ 141.319218399999954, 38.4518843 ] } },
{ "type": "Feature", "properties": { "内容": "愛の家グループホーム石巻開北【認知症対応型共同生活介護】宮城県石巻市開北2丁目12番50号", "url2": "https://www.kaigokensaku.mhlw.go.jp/04/index.php?action_kouhyou_detail_004_kani=true&JigyosyoCd=0490200136-00&ServiceCd=320&Type=search" }, "geometry": { "type": "Point", "coordinates": [ 141.302955500000053, 38.4468038 ] } },
{ "type": "Feature", "properties": { "内容": "せんだんの杜ものうなかつやま認知症対応型共同生活介護事業所【認知症対応型共同生活介護】宮城県石巻市桃生町給人町字東町96番地2", "url2": "https://www.kaigokensaku.mhlw.go.jp/04/index.php?action_kouhyou_detail_004_kani=true&JigyosyoCd=0470200932-00&ServiceCd=320&Type=search" }, "geometry": { "type": "Point", "coordinates": [ 141.238372069872639, 38.540302089273432 ] } },
{ "type": "Feature", "properties": { "内容": "グループホーム　ぐらんす【認知症対応型共同生活介護】宮城県石巻市住吉町二丁目５番２３号", "url2": "https://www.kaigokensaku.mhlw.go.jp/04/index.php?action_kouhyou_detail_004_kani=true&JigyosyoCd=0490200144-00&ServiceCd=320&Type=search" }, "geometry": { "type": "Point", "coordinates": [ 141.312232499999936, 38.4378885 ] } },
{ "type": "Feature", "properties": { "内容": "クループホーム愛慈【認知症対応型共同生活介護】石巻市小船越字二子北下85", "url2": "https://www.kaigokensaku.mhlw.go.jp/04/index.php?action_kouhyou_detail_004_kani=true&JigyosyoCd=0490200060-00&ServiceCd=320&Type=search" }, "geometry": { "type": "Point", "coordinates": [ 141.29224, 38.4990306 ] } },
{ "type": "Feature", "properties": { "内容": "グループホームひかり【認知症対応型共同生活介護】宮城県石巻市吉野町２-４-１０", "url2": "https://www.kaigokensaku.mhlw.go.jp/04/index.php?action_kouhyou_detail_004_kani=true&JigyosyoCd=0490200011-00&ServiceCd=320&Type=search" }, "geometry": { "type": "Point", "coordinates": [ 141.320418199999949, 38.4242373 ] } },
{ "type": "Feature", "properties": { "内容": "グループホーム小松崎あさひ園【認知症対応型共同生活介護】宮城県塩釜市小松崎４番４５号", "url2": "https://www.kaigokensaku.mhlw.go.jp/04/index.php?action_kouhyou_detail_004_kani=true&JigyosyoCd=0470300161-00&ServiceCd=320&Type=search" }, "geometry": { "type": "Point", "coordinates": [ 141.017752100000052, 38.3236972 ] } },
{ "type": "Feature", "properties": { "内容": "グループホーム梅の宮マミー【認知症対応型共同生活介護】宮城県塩釜市梅の宮16番11号", "url2": "https://www.kaigokensaku.mhlw.go.jp/04/index.php?action_kouhyou_detail_004_kani=true&JigyosyoCd=0490300092-00&ServiceCd=320&Type=search" }, "geometry": { "type": "Point", "coordinates": [ 141.019038571827707, 38.328538697907845 ] } },
{ "type": "Feature", "properties": { "内容": "グループホーム　清水沢あさひ園【認知症対応型共同生活介護】宮城県塩竃市清水沢3丁目11-31", "url2": "https://www.kaigokensaku.mhlw.go.jp/04/index.php?action_kouhyou_detail_004_kani=true&JigyosyoCd=0490300027-00&ServiceCd=320&Type=search" }, "geometry": { "type": "Point", "coordinates": [ 141.010485799999969, 38.3297573 ] } },
{ "type": "Feature", "properties": { "内容": "杉の入あさひ園【認知症対応型共同生活介護】宮城県塩釜市杉の入4-4-16杉の入あさひ園", "url2": "https://www.kaigokensaku.mhlw.go.jp/04/index.php?action_kouhyou_detail_004_kani=true&JigyosyoCd=0490300076-00&ServiceCd=320&Type=search" }, "geometry": { "type": "Point", "coordinates": [ 141.038130939286816, 38.334334315211827 ] } },
{ "type": "Feature", "properties": { "内容": "グループホームオリーブ【認知症対応型共同生活介護】宮城県塩釜市松陽台3丁目２５－２０", "url2": "https://www.kaigokensaku.mhlw.go.jp/04/index.php?action_kouhyou_detail_004_kani=true&JigyosyoCd=0470300260-00&ServiceCd=320&Type=search" }, "geometry": { "type": "Point", "coordinates": [ 141.01861, 38.3297131 ] } },
{ "type": "Feature", "properties": { "内容": "グループホーム　やすらぎの里【認知症対応型共同生活介護】宮城県塩竈市字伊保石30番地１", "url2": "https://www.kaigokensaku.mhlw.go.jp/04/index.php?action_kouhyou_detail_004_kani=true&JigyosyoCd=0470300286-00&ServiceCd=320&Type=search" }, "geometry": { "type": "Point", "coordinates": [ 141.0186013, 38.3348347 ] } },
{ "type": "Feature", "properties": { "内容": "けあビジョンホーム気仙沼赤岩舘森【認知症対応型共同生活介護】宮城県気仙沼市赤岩舘森３３番８", "url2": "https://www.kaigokensaku.mhlw.go.jp/04/index.php?action_kouhyou_detail_004_kani=true&JigyosyoCd=0490500204-00&ServiceCd=320&Type=search" }, "geometry": { "type": "Point", "coordinates": [ 141.5771847, 38.8887106 ] } },
{ "type": "Feature", "properties": { "内容": "けあビジョンホーム気仙沼【認知症対応型共同生活介護】宮城県気仙沼市本吉町中島１４７番10", "url2": "https://www.kaigokensaku.mhlw.go.jp/04/index.php?action_kouhyou_detail_004_kani=true&JigyosyoCd=0490500162-00&ServiceCd=320&Type=search" }, "geometry": { "type": "Point", "coordinates": [ 141.512472099999968, 38.779857 ] } },
{ "type": "Feature", "properties": { "内容": "グループホーム　村伝おもせ【認知症対応型共同生活介護】宮城県気仙沼市松崎面瀬６６－１２", "url2": "https://www.kaigokensaku.mhlw.go.jp/04/index.php?action_kouhyou_detail_004_kani=true&JigyosyoCd=0490500048-00&ServiceCd=320&Type=search" }, "geometry": { "type": "Point", "coordinates": [ 141.558111899999972, 38.864381 ] } },
{ "type": "Feature", "properties": { "内容": "グループホームポラーノ【認知症対応型共同生活介護】宮城県気仙沼市田中前4丁目6番地5", "url2": "https://www.kaigokensaku.mhlw.go.jp/04/index.php?action_kouhyou_detail_004_kani=true&JigyosyoCd=0490500071-00&ServiceCd=320&Type=search" }, "geometry": { "type": "Point", "coordinates": [ 141.560982599999988, 38.8891863 ] } },
{ "type": "Feature", "properties": { "内容": "グループホーム階上ブランチ【認知症対応型共同生活介護】宮城県気仙沼市長磯船原66", "url2": "https://www.kaigokensaku.mhlw.go.jp/04/index.php?action_kouhyou_detail_004_kani=true&JigyosyoCd=0490500089-00&ServiceCd=320&Type=search" }, "geometry": { "type": "Point", "coordinates": [ 141.581097138622994, 38.842725774513475 ] } },
{ "type": "Feature", "properties": { "内容": "グループホーム　あんしん館【認知症対応型共同生活介護】宮城県気仙沼市松崎柳沢222", "url2": "https://www.kaigokensaku.mhlw.go.jp/04/index.php?action_kouhyou_detail_004_kani=true&JigyosyoCd=0490500055-00&ServiceCd=320&Type=search" }, "geometry": { "type": "Point", "coordinates": [ 141.549720882048064, 38.874723700727415 ] } },
{ "type": "Feature", "properties": { "内容": "みずなしの丘【認知症対応型共同生活介護】宮城県気仙沼市赤岩水梨子９７－５５", "url2": "https://www.kaigokensaku.mhlw.go.jp/04/index.php?action_kouhyou_detail_004_kani=true&JigyosyoCd=0470500323-00&ServiceCd=320&Type=search" }, "geometry": { "type": "Point", "coordinates": [ 141.51861550000001, 38.8642715 ] } },
{ "type": "Feature", "properties": { "内容": "グループホーム　リアスの杜【認知症対応型共同生活介護】宮城県気仙沼市本吉町寺要害４５番地グループホームリアスの杜", "url2": "https://www.kaigokensaku.mhlw.go.jp/04/index.php?action_kouhyou_detail_004_kani=true&JigyosyoCd=0473600377-00&ServiceCd=320&Type=search" }, "geometry": { "type": "Point", "coordinates": [ 141.460204500000032, 38.7813103 ] } },
{ "type": "Feature", "properties": { "内容": "グループホーム　星谷ブランチ【認知症対応型共同生活介護】気仙沼市松崎面瀬１７－１キングスビレッジ・レジデンス棟", "url2": "https://www.kaigokensaku.mhlw.go.jp/04/index.php?action_kouhyou_detail_004_kani=true&JigyosyoCd=0470500315-00&ServiceCd=320&Type=search" }, "geometry": { "type": "Point", "coordinates": [ 141.559487337464901, 38.865122879696209 ] } },
{ "type": "Feature", "properties": { "内容": "グループホーム桑の実【認知症対応型共同生活介護】宮城県気仙沼市唐桑町只越346-19グループホーム桑の実", "url2": "https://www.kaigokensaku.mhlw.go.jp/04/index.php?action_kouhyou_detail_004_kani=true&JigyosyoCd=0470500513-00&ServiceCd=320&Type=search" }, "geometry": { "type": "Point", "coordinates": [ 141.638323349073744, 38.922363349146991 ] } },
{ "type": "Feature", "properties": { "内容": "悠々の郷グループホーム【認知症対応型共同生活介護】西中才295番地", "url2": "https://www.kaigokensaku.mhlw.go.jp/04/index.php?action_kouhyou_detail_004_kani=true&JigyosyoCd=0490500212-00&ServiceCd=320&Type=search" }, "geometry": { "type": "Point", "coordinates": [ 141.577455313630679, 38.937108838713961 ] } },
{ "type": "Feature", "properties": { "内容": "グループホームポラーノの杜【認知症対応型共同生活介護】宮城県気仙沼市所沢２０１番地１", "url2": "https://www.kaigokensaku.mhlw.go.jp/04/index.php?action_kouhyou_detail_004_kani=true&JigyosyoCd=0493600027-00&ServiceCd=320&Type=search" }, "geometry": { "type": "Point", "coordinates": [ 141.547527935351553, 38.899436003462768 ] } },
{ "type": "Feature", "properties": { "内容": "グループホームぽらん気仙沼【認知症対応型共同生活介護】宮城県気仙沼市東新城1丁目3-6", "url2": "https://www.kaigokensaku.mhlw.go.jp/04/index.php?action_kouhyou_detail_004_kani=true&JigyosyoCd=0470500448-00&ServiceCd=320&Type=search" }, "geometry": { "type": "Point", "coordinates": [ 141.551715699999932, 38.908595 ] } },
{ "type": "Feature", "properties": { "内容": "グループホーム　こころ【認知症対応型共同生活介護】宮城県気仙沼市下八瀬426番地8", "url2": "https://www.kaigokensaku.mhlw.go.jp/04/index.php?action_kouhyou_detail_004_kani=true&JigyosyoCd=0490500022-00&ServiceCd=320&Type=search" }, "geometry": { "type": "Point", "coordinates": [ 141.519815120237723, 38.916470733966356 ] } },
{ "type": "Feature", "properties": { "内容": "グループホームぽらん【認知症対応型共同生活介護】宮城県気仙沼市東新城一丁目３－３", "url2": "https://www.kaigokensaku.mhlw.go.jp/04/index.php?action_kouhyou_detail_004_kani=true&JigyosyoCd=0490500113-00&ServiceCd=320&Type=search" }, "geometry": { "type": "Point", "coordinates": [ 141.551451899999961, 38.9086089 ] } },
{ "type": "Feature", "properties": { "内容": "グループホーム村伝【認知症対応型共同生活介護】宮城県気仙沼市八日町二丁目三番五号", "url2": "https://www.kaigokensaku.mhlw.go.jp/04/index.php?action_kouhyou_detail_004_kani=true&JigyosyoCd=0470500372-00&ServiceCd=320&Type=search" }, "geometry": { "type": "Point", "coordinates": [ 141.571631257403624, 38.907639928802041 ] } },
{ "type": "Feature", "properties": { "内容": "グループホーム　村伝さいち【認知症対応型共同生活介護】宮城県気仙沼市長磯後沢82-3", "url2": "https://www.kaigokensaku.mhlw.go.jp/04/index.php?action_kouhyou_detail_004_kani=true&JigyosyoCd=0490500030-00&ServiceCd=320&Type=search" }, "geometry": { "type": "Point", "coordinates": [ 141.580027100000052, 38.8483028 ] } },
{ "type": "Feature", "properties": { "内容": "グループホーム幸福の街【認知症対応型共同生活介護】宮城県白石市字銚子ケ森２６－１０", "url2": "https://www.kaigokensaku.mhlw.go.jp/04/index.php?action_kouhyou_detail_004_kani=true&JigyosyoCd=0490600053-00&ServiceCd=320&Type=search" }, "geometry": { "type": "Point", "coordinates": [ 140.626620518910158, 38.000988674072602 ] } },
{ "type": "Feature", "properties": { "内容": "グループホーム幸福の郷【認知症対応型共同生活介護】宮城県白石市福岡長袋字中河原８番地１２", "url2": "https://www.kaigokensaku.mhlw.go.jp/04/index.php?action_kouhyou_detail_004_kani=true&JigyosyoCd=0470600305-00&ServiceCd=320&Type=search" }, "geometry": { "type": "Point", "coordinates": [ 140.624531400000023, 38.0196204 ] } },
{ "type": "Feature", "properties": { "内容": "認知症対応型共同生活介護グループホームながさか【認知症対応型共同生活介護】宮城県白石市福岡長袋字永坂１", "url2": "https://www.kaigokensaku.mhlw.go.jp/04/index.php?action_kouhyou_detail_004_kani=true&JigyosyoCd=0470600248-00&ServiceCd=320&Type=search" }, "geometry": { "type": "Point", "coordinates": [ 140.61067120000007, 38.0226335 ] } },
{ "type": "Feature", "properties": { "内容": "グループホームたかのす【認知症対応型共同生活介護】宮城県白石市鷹巣西二丁目４番１２号", "url2": "https://www.kaigokensaku.mhlw.go.jp/04/index.php?action_kouhyou_detail_004_kani=true&JigyosyoCd=0490600061-00&ServiceCd=320&Type=search" }, "geometry": { "type": "Point", "coordinates": [ 140.634018100000048, 37.9990954 ] } },
{ "type": "Feature", "properties": { "内容": "グループホームしろいし【認知症対応型共同生活介護】宮城県白石市城北町１－３９", "url2": "https://www.kaigokensaku.mhlw.go.jp/04/index.php?action_kouhyou_detail_004_kani=true&JigyosyoCd=0490600038-00&ServiceCd=320&Type=search" }, "geometry": { "type": "Point", "coordinates": [ 140.619865800000071, 38.0064774 ] } },
{ "type": "Feature", "properties": { "内容": "グループホームうらやす【認知症対応型共同生活介護】宮城県名取市下余田字鹿島86番地の５", "url2": "https://www.kaigokensaku.mhlw.go.jp/04/index.php?action_kouhyou_detail_004_kani=true&JigyosyoCd=0490700010-00&ServiceCd=320&Type=search" }, "geometry": { "type": "Point", "coordinates": [ 140.89991642037657, 38.172390612917766 ] } },
{ "type": "Feature", "properties": { "内容": "グループホーム　もも太郎さん(笹生)【認知症対応型共同生活介護】宮城県名取市愛島笠島字東南沢74-1", "url2": "https://www.kaigokensaku.mhlw.go.jp/04/index.php?action_kouhyou_detail_004_kani=true&JigyosyoCd=0470700436-00&ServiceCd=320&Type=search" }, "geometry": { "type": "Point", "coordinates": [ 140.846137099999964, 38.1613615 ] } },
{ "type": "Feature", "properties": { "内容": "グループホーム　もも太郎さん　本郷【認知症対応型共同生活介護】宮城県名取市本郷字町田７９番地", "url2": "https://www.kaigokensaku.mhlw.go.jp/04/index.php?action_kouhyou_detail_004_kani=true&JigyosyoCd=0490700036-00&ServiceCd=320&Type=search" }, "geometry": { "type": "Point", "coordinates": [ 140.875250104944257, 38.127467503832563 ] } },
{ "type": "Feature", "properties": { "内容": "グループホームおうじゅ【認知症対応型共同生活介護】宮城県名取市高舘熊野堂字岩口下26-2", "url2": "https://www.kaigokensaku.mhlw.go.jp/04/index.php?action_kouhyou_detail_004_kani=true&JigyosyoCd=0490700028-00&ServiceCd=320&Type=search" }, "geometry": { "type": "Point", "coordinates": [ 140.8467296, 38.1973442 ] } },
{ "type": "Feature", "properties": { "内容": "名取市グループホームこもれびの家【認知症対応型共同生活介護】宮城県名取市手倉田字山２１２番地", "url2": "https://www.kaigokensaku.mhlw.go.jp/04/index.php?action_kouhyou_detail_004_kani=true&JigyosyoCd=0470700204-00&ServiceCd=320&Type=search" }, "geometry": { "type": "Point", "coordinates": [ 140.8691407, 38.1633728 ] } },
{ "type": "Feature", "properties": { "内容": "ウィンズの森　角田グループホーム【認知症対応型共同生活介護】宮城県角田市角田字緑町１０－１", "url2": "https://www.kaigokensaku.mhlw.go.jp/04/index.php?action_kouhyou_detail_004_kani=true&JigyosyoCd=0490800026-00&ServiceCd=320&Type=search" }, "geometry": { "type": "Point", "coordinates": [ 140.787029513491831, 37.980573608542016 ] } },
{ "type": "Feature", "properties": { "内容": "医療法人金上仁友会　認知症高齢者グループホーム　むくげ【認知症対応型共同生活介護】宮城県角田市角田字梶賀字高畑南６４－１グループホーム　むくげ", "url2": "https://www.kaigokensaku.mhlw.go.jp/04/index.php?action_kouhyou_detail_004_kani=true&JigyosyoCd=0470800202-00&ServiceCd=320&Type=search" }, "geometry": { "type": "Point", "coordinates": [ 140.792646600000012, 37.9809159 ] } },
{ "type": "Feature", "properties": { "内容": "もも太郎さん梶賀【認知症対応型共同生活介護】宮城県角田市梶賀字西１２６－１", "url2": "https://www.kaigokensaku.mhlw.go.jp/04/index.php?action_kouhyou_detail_004_kani=true&JigyosyoCd=0490800034-00&ServiceCd=320&Type=search" }, "geometry": { "type": "Point", "coordinates": [ 140.787205231384746, 37.984320711188175 ] } },
{ "type": "Feature", "properties": { "内容": "グループホーム　花水木【認知症対応型共同生活介護】宮城県角田市角田字中島上170-21", "url2": "https://www.kaigokensaku.mhlw.go.jp/04/index.php?action_kouhyou_detail_004_kani=true&JigyosyoCd=0470800194-00&ServiceCd=320&Type=search" }, "geometry": { "type": "Point", "coordinates": [ 140.787148300000013, 37.9715968 ] } },
{ "type": "Feature", "properties": { "内容": "グループホーム　ゆうゆう・多賀城【認知症対応型共同生活介護】宮城県多賀城市高崎３丁目29-1グループホーム　ゆうゆう・多賀城", "url2": "https://www.kaigokensaku.mhlw.go.jp/04/index.php?action_kouhyou_detail_004_kani=true&JigyosyoCd=0470901125-00&ServiceCd=320&Type=search" }, "geometry": { "type": "Point", "coordinates": [ 140.9977788, 38.2938796 ] } },
{ "type": "Feature", "properties": { "内容": "愛の家グループホーム多賀城笠神【認知症対応型共同生活介護】宮城県多賀城市笠神１丁目１１番７号", "url2": "https://www.kaigokensaku.mhlw.go.jp/04/index.php?action_kouhyou_detail_004_kani=true&JigyosyoCd=0490900123-00&ServiceCd=320&Type=search" }, "geometry": { "type": "Point", "coordinates": [ 141.025981987696809, 38.306652545702725 ] } },
{ "type": "Feature", "properties": { "内容": "グループホーム市川桜の家【認知症対応型共同生活介護】宮城県多賀城市市川字奏社３１番地８", "url2": "https://www.kaigokensaku.mhlw.go.jp/04/index.php?action_kouhyou_detail_004_kani=true&JigyosyoCd=0490900065-00&ServiceCd=320&Type=search" }, "geometry": { "type": "Point", "coordinates": [ 140.994377799999938, 38.3101175 ] } },
{ "type": "Feature", "properties": { "内容": "グループホームあやめの里【認知症対応型共同生活介護】宮城県多賀城市留ヶ谷３－２３－１５", "url2": "https://www.kaigokensaku.mhlw.go.jp/04/index.php?action_kouhyou_detail_004_kani=true&JigyosyoCd=0490900024-00&ServiceCd=320&Type=search" }, "geometry": { "type": "Point", "coordinates": [ 141.009435199999984, 38.2983444 ] } },
{ "type": "Feature", "properties": { "内容": "グループホーム　貞山みよりの家【認知症対応型共同生活介護】宮城県多賀城市大代３丁目7-72", "url2": "https://www.kaigokensaku.mhlw.go.jp/04/index.php?action_kouhyou_detail_004_kani=true&JigyosyoCd=0470901166-00&ServiceCd=320&Type=search" }, "geometry": { "type": "Point", "coordinates": [ 141.0334541, 38.295479 ] } },
{ "type": "Feature", "properties": { "内容": "グループホームなんてん岩沼【認知症対応型共同生活介護】宮城県岩沼市たけくま１丁目２０－１", "url2": "https://www.kaigokensaku.mhlw.go.jp/04/index.php?action_kouhyou_detail_004_kani=true&JigyosyoCd=0491100046-00&ServiceCd=320&Type=search" }, "geometry": { "type": "Point", "coordinates": [ 140.860566299999959, 38.108655300000017 ] } },
{ "type": "Feature", "properties": { "内容": "グループホームあぶくま【認知症対応型共同生活介護】岩沼市阿武隈１丁目８－３８", "url2": "https://www.kaigokensaku.mhlw.go.jp/04/index.php?action_kouhyou_detail_004_kani=true&JigyosyoCd=0471100230-00&ServiceCd=320&Type=search" }, "geometry": { "type": "Point", "coordinates": [ 140.872274400000038, 38.0987369 ] } },
{ "type": "Feature", "properties": { "内容": "朝日サポートセンター（グループホーム朝日）【認知症対応型共同生活介護】宮城県岩沼市あさひ野二丁目5番地の２", "url2": "https://www.kaigokensaku.mhlw.go.jp/04/index.php?action_kouhyou_detail_004_kani=true&JigyosyoCd=0491100020-00&ServiceCd=320&Type=search" }, "geometry": { "type": "Point", "coordinates": [ 140.8565635, 38.118368500000017 ] } },
{ "type": "Feature", "properties": { "内容": "カーサ岩沼　グループホーム【認知症対応型共同生活介護】宮城県岩沼市中央3丁目7番16号", "url2": "https://www.kaigokensaku.mhlw.go.jp/04/index.php?action_kouhyou_detail_004_kani=true&JigyosyoCd=0491100103-00&ServiceCd=320&Type=search" }, "geometry": { "type": "Point", "coordinates": [ 140.869157200000018, 38.113502500000017 ] } },
{ "type": "Feature", "properties": { "内容": "けあビジョンホーム岩沼【認知症対応型共同生活介護】宮城県岩沼市下野郷字北谷地200けあビジョンホーム岩沼", "url2": "https://www.kaigokensaku.mhlw.go.jp/04/index.php?action_kouhyou_detail_004_kani=true&JigyosyoCd=0491100160-00&ServiceCd=320&Type=search" }, "geometry": { "type": "Point", "coordinates": [ 140.906876899999986, 38.1284556 ] } },
{ "type": "Feature", "properties": { "内容": "グループホームあんど【認知症対応型共同生活介護】宮城県登米市迫町佐沼字大網２２９－３", "url2": "https://www.kaigokensaku.mhlw.go.jp/04/index.php?action_kouhyou_detail_004_kani=true&JigyosyoCd=0471200311-00&ServiceCd=320&Type=search" }, "geometry": { "type": "Point", "coordinates": [ 141.195748099999946, 38.6787852 ] } },
{ "type": "Feature", "properties": { "内容": "グループホーム　さくら【認知症対応型共同生活介護】宮城県登米市南方町鴻の木146-3・147-1", "url2": "https://www.kaigokensaku.mhlw.go.jp/04/index.php?action_kouhyou_detail_004_kani=true&JigyosyoCd=0471200394-00&ServiceCd=320&Type=search" }, "geometry": { "type": "Point", "coordinates": [ 141.188215799999966, 38.6724327 ] } },
{ "type": "Feature", "properties": { "内容": "グループホーム米山【認知症対応型共同生活介護】宮城県登米市米山町善王寺相の田３０－２", "url2": "https://www.kaigokensaku.mhlw.go.jp/04/index.php?action_kouhyou_detail_004_kani=true&JigyosyoCd=0471200667-00&ServiceCd=320&Type=search" }, "geometry": { "type": "Point", "coordinates": [ 141.228220100000044, 38.6324275 ] } },
{ "type": "Feature", "properties": { "内容": "グループホーム憩いの里かがの【認知症対応型共同生活介護】宮城県登米市中田町石森字加賀野二丁目26番地2", "url2": "https://www.kaigokensaku.mhlw.go.jp/04/index.php?action_kouhyou_detail_004_kani=true&JigyosyoCd=0491200200-00&ServiceCd=320&Type=search" }, "geometry": { "type": "Point", "coordinates": [ 141.213456198811372, 38.698655552185649 ] } },
{ "type": "Feature", "properties": { "内容": "グループホーム　さくらおか【認知症対応型共同生活介護】宮城県登米市米山町字桜岡大又２３２番地２", "url2": "https://www.kaigokensaku.mhlw.go.jp/04/index.php?action_kouhyou_detail_004_kani=true&JigyosyoCd=0471200634-00&ServiceCd=320&Type=search" }, "geometry": { "type": "Point", "coordinates": [ 141.215579599999955, 38.6296523 ] } },
{ "type": "Feature", "properties": { "内容": "グループホーム　あさみず【認知症対応型共同生活介護】宮城県登米市中田町浅水字上川面65-1", "url2": "https://www.kaigokensaku.mhlw.go.jp/04/index.php?action_kouhyou_detail_004_kani=true&JigyosyoCd=0491200044-00&ServiceCd=320&Type=search" }, "geometry": { "type": "Point", "coordinates": [ 141.2619939, 38.7155727 ] } },
{ "type": "Feature", "properties": { "内容": "有限会社　グループホーム　はさま【認知症対応型共同生活介護】宮城県登米市迫町北方字金ヶ森6-2", "url2": "https://www.kaigokensaku.mhlw.go.jp/04/index.php?action_kouhyou_detail_004_kani=true&JigyosyoCd=0471200360-00&ServiceCd=320&Type=search" }, "geometry": { "type": "Point", "coordinates": [ 141.165252600000031, 38.6949795 ] } },
{ "type": "Feature", "properties": { "内容": "グループホーム田園【認知症対応型共同生活介護】宮城県登米市豊里町内町浦３６", "url2": "https://www.kaigokensaku.mhlw.go.jp/04/index.php?action_kouhyou_detail_004_kani=true&JigyosyoCd=0491200317-00&ServiceCd=320&Type=search" }, "geometry": { "type": "Point", "coordinates": [ 141.236013700000058, 38.5760095 ] } },
{ "type": "Feature", "properties": { "内容": "グループホームみんなの家結い【認知症対応型共同生活介護】宮城県登米市錦織字内ノ目14", "url2": "https://www.kaigokensaku.mhlw.go.jp/04/index.php?action_kouhyou_detail_004_kani=true&JigyosyoCd=0491200473-00&ServiceCd=320&Type=search" }, "geometry": { "type": "Point", "coordinates": [ 141.1876508, 38.6918716 ] } },
{ "type": "Feature", "properties": { "内容": "グループホームみんなの家錦織【認知症対応型共同生活介護】宮城県登米市東和町錦織字内ノ目２５－１", "url2": "https://www.kaigokensaku.mhlw.go.jp/04/index.php?action_kouhyou_detail_004_kani=true&JigyosyoCd=0491200184-00&ServiceCd=320&Type=search" }, "geometry": { "type": "Point", "coordinates": [ 141.274526255403117, 38.733835195009327 ] } },
{ "type": "Feature", "properties": { "内容": "認知症高齢者グループホーム　ほほえみ【認知症対応型共同生活介護】宮城県登米市石越町南郷字新石沢前４７－3", "url2": "https://www.kaigokensaku.mhlw.go.jp/04/index.php?action_kouhyou_detail_004_kani=true&JigyosyoCd=0471200584-00&ServiceCd=320&Type=search" }, "geometry": { "type": "Point", "coordinates": [ 141.177463499999931, 38.7542155 ] } },
{ "type": "Feature", "properties": { "内容": "グループホームきずな【認知症対応型共同生活介護】宮城県登米市豊里町新町10-4", "url2": "https://www.kaigokensaku.mhlw.go.jp/04/index.php?action_kouhyou_detail_004_kani=true&JigyosyoCd=0491200135-00&ServiceCd=320&Type=search" }, "geometry": { "type": "Point", "coordinates": [ 141.2546479, 38.5836731 ] } },
{ "type": "Feature", "properties": { "内容": "グループホーム　みんなの家【認知症対応型共同生活介護】宮城県登米市中田町宝江新井田字並柳前57", "url2": "https://www.kaigokensaku.mhlw.go.jp/04/index.php?action_kouhyou_detail_004_kani=true&JigyosyoCd=0471200683-00&ServiceCd=320&Type=search" }, "geometry": { "type": "Point", "coordinates": [ 141.258285399999977, 38.6740098 ] } },
{ "type": "Feature", "properties": { "内容": "南方グループホーム翔裕園【認知症対応型共同生活介護】宮城県登米市南方町山成前７９１－１", "url2": "https://www.kaigokensaku.mhlw.go.jp/04/index.php?action_kouhyou_detail_004_kani=true&JigyosyoCd=0471200618-00&ServiceCd=320&Type=search" }, "geometry": { "type": "Point", "coordinates": [ 141.150214600000027, 38.6573663 ] } },
{ "type": "Feature", "properties": { "内容": "グループホームきずなの家【認知症対応型共同生活介護】宮城県登米市豊里町小口前172-1", "url2": "https://www.kaigokensaku.mhlw.go.jp/04/index.php?action_kouhyou_detail_004_kani=true&JigyosyoCd=0491200283-00&ServiceCd=320&Type=search" }, "geometry": { "type": "Point", "coordinates": [ 141.2513368, 38.5910582 ] } },
{ "type": "Feature", "properties": { "内容": "グループホーム　快　豊里【認知症対応型共同生活介護】宮城県登米市豊里町新田町２９番地", "url2": "https://www.kaigokensaku.mhlw.go.jp/04/index.php?action_kouhyou_detail_004_kani=true&JigyosyoCd=0471200303-00&ServiceCd=320&Type=search" }, "geometry": { "type": "Point", "coordinates": [ 141.252026, 38.581065 ] } },
{ "type": "Feature", "properties": { "内容": "グループホーム梅ヶ丘の里【認知症対応型共同生活介護】宮城県栗原市栗駒文字下荒屋敷前４０番地", "url2": "https://www.kaigokensaku.mhlw.go.jp/04/index.php?action_kouhyou_detail_004_kani=true&JigyosyoCd=0471300566-00&ServiceCd=320&Type=search" }, "geometry": { "type": "Point", "coordinates": [ 140.903947, 38.8330902 ] } },
{ "type": "Feature", "properties": { "内容": "グループホーム藤の木【認知症対応型共同生活介護】宮城県栗原市金成金生１１", "url2": "https://www.kaigokensaku.mhlw.go.jp/04/index.php?action_kouhyou_detail_004_kani=true&JigyosyoCd=0491300091-00&ServiceCd=320&Type=search" }, "geometry": { "type": "Point", "coordinates": [ 141.079523600000016, 38.8102676 ] } },
{ "type": "Feature", "properties": { "内容": "グループホーム　しわひめ【認知症対応型共同生活介護】宮城県栗原市志波姫南堀口380-3", "url2": "https://www.kaigokensaku.mhlw.go.jp/04/index.php?action_kouhyou_detail_004_kani=true&JigyosyoCd=0471300384-00&ServiceCd=320&Type=search" }, "geometry": { "type": "Point", "coordinates": [ 141.044549700000061, 38.7434746 ] } },
{ "type": "Feature", "properties": { "内容": "グループホーム　まいはあと【認知症対応型共同生活介護】宮城県栗原市若柳字福岡谷地畑浦８８", "url2": "https://www.kaigokensaku.mhlw.go.jp/04/index.php?action_kouhyou_detail_004_kani=true&JigyosyoCd=0471300350-00&ServiceCd=320&Type=search" }, "geometry": { "type": "Point", "coordinates": [ 141.117806800000039, 38.7837297 ] } },
{ "type": "Feature", "properties": { "内容": "認知症高齢者グループホーム宮野【認知症対応型共同生活介護】宮城県栗原市築館宮野中央２丁目６－１", "url2": "https://www.kaigokensaku.mhlw.go.jp/04/index.php?action_kouhyou_detail_004_kani=true&JigyosyoCd=0491300067-00&ServiceCd=320&Type=search" }, "geometry": { "type": "Point", "coordinates": [ 141.01769360000003, 38.7489926 ] } },
{ "type": "Feature", "properties": { "内容": "グループホーム清水沢【認知症対応型共同生活介護】宮城県栗原市栗駒八幡清水沢６６番地１", "url2": "https://www.kaigokensaku.mhlw.go.jp/04/index.php?action_kouhyou_detail_004_kani=true&JigyosyoCd=0491300174-00&ServiceCd=320&Type=search" }, "geometry": { "type": "Point", "coordinates": [ 140.996031219573979, 38.808111438773743 ] } },
{ "type": "Feature", "properties": { "内容": "認知症高齢者グループホームコンフィアンサ【認知症対応型共同生活介護】宮城県栗原市築館宮野中央1丁目16-13", "url2": "https://www.kaigokensaku.mhlw.go.jp/04/index.php?action_kouhyou_detail_004_kani=true&JigyosyoCd=0491300299-00&ServiceCd=320&Type=search" }, "geometry": { "type": "Point", "coordinates": [ 141.015324299999946, 38.7500451 ] } },
{ "type": "Feature", "properties": { "内容": "グループホーム　桂葉【認知症対応型共同生活介護】宮城県栗原市高清水新桂葉278番地２", "url2": "https://www.kaigokensaku.mhlw.go.jp/04/index.php?action_kouhyou_detail_004_kani=true&JigyosyoCd=0491300042-00&ServiceCd=320&Type=search" }, "geometry": { "type": "Point", "coordinates": [ 141.00911441600806, 38.656445836134317 ] } },
{ "type": "Feature", "properties": { "内容": "グループホーム　なごみ【認知症対応型共同生活介護】宮城県栗原市志波姫北郷大門87", "url2": "https://www.kaigokensaku.mhlw.go.jp/04/index.php?action_kouhyou_detail_004_kani=true&JigyosyoCd=0471300459-00&ServiceCd=320&Type=search" }, "geometry": { "type": "Point", "coordinates": [ 141.075076299999978, 38.7605145 ] } },
{ "type": "Feature", "properties": { "内容": "グループホーム　さくら瀬峰【認知症対応型共同生活介護】宮城県栗原市瀬峰下藤沢９７－２", "url2": "https://www.kaigokensaku.mhlw.go.jp/04/index.php?action_kouhyou_detail_004_kani=true&JigyosyoCd=0491300133-00&ServiceCd=320&Type=search" }, "geometry": { "type": "Point", "coordinates": [ 141.066301090568572, 38.657545212881928 ] } },
{ "type": "Feature", "properties": { "内容": "グループホームSAKURA【認知症対応型共同生活介護】宮城県栗原市若柳字南砂押45", "url2": "https://www.kaigokensaku.mhlw.go.jp/04/index.php?action_kouhyou_detail_004_kani=true&JigyosyoCd=0471300327-00&ServiceCd=320&Type=search" }, "geometry": { "type": "Point", "coordinates": [ 141.146868300000051, 38.7769312 ] } },
{ "type": "Feature", "properties": { "内容": "グループホーム　山王こもれびの家【認知症対応型共同生活介護】宮城県栗原市一迫真坂字新道満３－１", "url2": "https://www.kaigokensaku.mhlw.go.jp/04/index.php?action_kouhyou_detail_004_kani=true&JigyosyoCd=0471300301-00&ServiceCd=320&Type=search" }, "geometry": { "type": "Point", "coordinates": [ 140.94978842922211, 38.744828434593913 ] } },
{ "type": "Feature", "properties": { "内容": "いちょうの里グループホームぎんなん荘【認知症対応型共同生活介護】宮城県栗原市築館字下宮野館108", "url2": "https://www.kaigokensaku.mhlw.go.jp/04/index.php?action_kouhyou_detail_004_kani=true&JigyosyoCd=0471300244-00&ServiceCd=320&Type=search" }, "geometry": { "type": "Point", "coordinates": [ 141.013227, 38.7563499 ] } },
{ "type": "Feature", "properties": { "内容": "グループホームうぐいすの里こもれびの家【認知症対応型共同生活介護】宮城県栗原市鶯沢南郷広面４６", "url2": "https://www.kaigokensaku.mhlw.go.jp/04/index.php?action_kouhyou_detail_004_kani=true&JigyosyoCd=0471300582-00&ServiceCd=320&Type=search" }, "geometry": { "type": "Point", "coordinates": [ 140.948957800000017, 38.8106374 ] } },
{ "type": "Feature", "properties": { "内容": "認知症高齢者　グループホーム堤通り【認知症対応型共同生活介護】若柳字川南堤通20-25", "url2": "https://www.kaigokensaku.mhlw.go.jp/04/index.php?action_kouhyou_detail_004_kani=true&JigyosyoCd=0491300034-00&ServiceCd=320&Type=search" }, "geometry": { "type": "Point", "coordinates": [ 141.11933160000001, 38.7723545 ] } },
{ "type": "Feature", "properties": { "内容": "グループホーム　快　栗駒【認知症対応型共同生活介護】宮城県栗原市栗駒稲屋敷後原前13番地", "url2": "https://www.kaigokensaku.mhlw.go.jp/04/index.php?action_kouhyou_detail_004_kani=true&JigyosyoCd=0471300376-00&ServiceCd=320&Type=search" }, "geometry": { "type": "Point", "coordinates": [ 140.987318599999981, 38.8129916 ] } },
{ "type": "Feature", "properties": { "内容": "グループホーム　すみちゃんの家【認知症対応型共同生活介護】宮城県東松島市小野字中の関６番２", "url2": "https://www.kaigokensaku.mhlw.go.jp/04/index.php?action_kouhyou_detail_004_kani=true&JigyosyoCd=0491400073-00&ServiceCd=320&Type=search" }, "geometry": { "type": "Point", "coordinates": [ 141.155826199999979, 38.4056858 ] } },
{ "type": "Feature", "properties": { "内容": "認知症高齢者グループホームあさぎり【認知症対応型共同生活介護】宮城県東松島市赤井字川前四311番地1", "url2": "https://www.kaigokensaku.mhlw.go.jp/04/index.php?action_kouhyou_detail_004_kani=true&JigyosyoCd=0491400016-00&ServiceCd=320&Type=search" }, "geometry": { "type": "Point", "coordinates": [ 141.227616600000033, 38.444924 ] } },
{ "type": "Feature", "properties": { "内容": "認知症高齢者グループホームさざなみ【認知症対応型共同生活介護】宮城県東松島市矢本字寺前２４７番地", "url2": "https://www.kaigokensaku.mhlw.go.jp/04/index.php?action_kouhyou_detail_004_kani=true&JigyosyoCd=0471400069-00&ServiceCd=320&Type=search" }, "geometry": { "type": "Point", "coordinates": [ 141.194044299999973, 38.4128691 ] } },
{ "type": "Feature", "properties": { "内容": "グループホーム日和【認知症対応型共同生活介護】宮城県東松島市赤井字台94－1", "url2": "https://www.kaigokensaku.mhlw.go.jp/04/index.php?action_kouhyou_detail_004_kani=true&JigyosyoCd=0491400172-00&ServiceCd=320&Type=search" }, "geometry": { "type": "Point", "coordinates": [ 141.2568694, 38.4332081 ] } },
{ "type": "Feature", "properties": { "内容": "グループホーム　やすらぎ【認知症対応型共同生活介護】宮城県東松島市野蒜ケ丘三丁目27番地2", "url2": "https://www.kaigokensaku.mhlw.go.jp/04/index.php?action_kouhyou_detail_004_kani=true&JigyosyoCd=0471400168-00&ServiceCd=320&Type=search" }, "geometry": { "type": "Point", "coordinates": [ 141.14207409213293, 38.377452965347807 ] } },
{ "type": "Feature", "properties": { "内容": "ケアビレッジ大崎ケアサービスステーション認知症対応型共同生活介護事業所Ⅰ【認知症対応型共同生活介護】宮城県大崎市古川稲葉1丁目7-30", "url2": "https://www.kaigokensaku.mhlw.go.jp/04/index.php?action_kouhyou_detail_004_kani=true&JigyosyoCd=0491500476-00&ServiceCd=320&Type=search" }, "geometry": { "type": "Point", "coordinates": [ 140.950489, 38.5595666 ] } },
{ "type": "Feature", "properties": { "内容": "グループホーム　ふかふか・はうす【認知症対応型共同生活介護】宮城県大崎市鳴子温泉字南原120番地１", "url2": "https://www.kaigokensaku.mhlw.go.jp/04/index.php?action_kouhyou_detail_004_kani=true&JigyosyoCd=0471500785-00&ServiceCd=320&Type=search" }, "geometry": { "type": "Point", "coordinates": [ 140.654424100000028, 38.7182437 ] } },
{ "type": "Feature", "properties": { "内容": "認知症高齢者グループホーム　ひだまり【認知症対応型共同生活介護】宮城県大崎市田尻大貫字３６番地１", "url2": "https://www.kaigokensaku.mhlw.go.jp/04/index.php?action_kouhyou_detail_004_kani=true&JigyosyoCd=0471500835-00&ServiceCd=320&Type=search" }, "geometry": { "type": "Point", "coordinates": [ 141.108309700000063, 38.6064428 ] } },
{ "type": "Feature", "properties": { "内容": "サテライト型グループホームあったかいごひばり【認知症対応型共同生活介護】古川竹ノ内244-2", "url2": "https://www.kaigokensaku.mhlw.go.jp/04/index.php?action_kouhyou_detail_004_kani=true&JigyosyoCd=0491500401-00&ServiceCd=320&Type=search" }, "geometry": { "type": "Point", "coordinates": [ 140.9444487, 38.5749143 ] } },
{ "type": "Feature", "properties": { "内容": "グループホームにこトピアいわで【認知症対応型共同生活介護】宮城県大崎市岩出山字浦小路40番地14", "url2": "https://www.kaigokensaku.mhlw.go.jp/04/index.php?action_kouhyou_detail_004_kani=true&JigyosyoCd=0491500351-00&ServiceCd=320&Type=search" }, "geometry": { "type": "Point", "coordinates": [ 140.868044681376517, 38.653970853784649 ] } },
{ "type": "Feature", "properties": { "内容": "グループホーム　笹森の屋【認知症対応型共同生活介護】宮城県大崎市古川清滝字笹森１１８番地１", "url2": "https://www.kaigokensaku.mhlw.go.jp/04/index.php?action_kouhyou_detail_004_kani=true&JigyosyoCd=0471500306-00&ServiceCd=320&Type=search" }, "geometry": { "type": "Point", "coordinates": [ 140.975825799999939, 38.6649041 ] } },
{ "type": "Feature", "properties": { "内容": "認知症高齢者グループホームなんてん岩出山【認知症対応型共同生活介護】宮城県大崎市岩出山字下金沢８５番地6", "url2": "https://www.kaigokensaku.mhlw.go.jp/04/index.php?action_kouhyou_detail_004_kani=true&JigyosyoCd=0491500047-00&ServiceCd=320&Type=search" }, "geometry": { "type": "Point", "coordinates": [ 140.862012700000037, 38.6459197 ] } },
{ "type": "Feature", "properties": { "内容": "グループホーム楽笑【認知症対応型共同生活介護】宮城県大崎市田尻字町52", "url2": "https://www.kaigokensaku.mhlw.go.jp/04/index.php?action_kouhyou_detail_004_kani=true&JigyosyoCd=0491500260-00&ServiceCd=320&Type=search" }, "geometry": { "type": "Point", "coordinates": [ 141.02527, 38.5986875 ] } },
{ "type": "Feature", "properties": { "内容": "プロンプター甲斐有限会社【認知症対応型共同生活介護】宮城県大崎市古川飯川字要害649", "url2": "https://www.kaigokensaku.mhlw.go.jp/04/index.php?action_kouhyou_detail_004_kani=true&JigyosyoCd=0471500108-00&ServiceCd=320&Type=search" }, "geometry": { "type": "Point", "coordinates": [ 140.918817200000035, 38.562863 ] } },
{ "type": "Feature", "properties": { "内容": "グループホームやすらぎ苑古川【認知症対応型共同生活介護】宮城県大崎市古川小野字一ノ坪４３－１０１", "url2": "https://www.kaigokensaku.mhlw.go.jp/04/index.php?action_kouhyou_detail_004_kani=true&JigyosyoCd=0471500298-00&ServiceCd=320&Type=search" }, "geometry": { "type": "Point", "coordinates": [ 140.988248200000044, 38.6371764 ] } },
{ "type": "Feature", "properties": { "内容": "グループホーム　たじりの杜【認知症対応型共同生活介護】宮城県大崎市田尻大嶺字薬師53-2", "url2": "https://www.kaigokensaku.mhlw.go.jp/04/index.php?action_kouhyou_detail_004_kani=true&JigyosyoCd=0471500843-00&ServiceCd=320&Type=search" }, "geometry": { "type": "Point", "coordinates": [ 141.017867799999976, 38.6081946 ] } },
{ "type": "Feature", "properties": { "内容": "グループホームコスモス【認知症対応型共同生活介護】宮城県大崎市松山千石字岡田２５６－１", "url2": "https://www.kaigokensaku.mhlw.go.jp/04/index.php?action_kouhyou_detail_004_kani=true&JigyosyoCd=0471500611-00&ServiceCd=320&Type=search" }, "geometry": { "type": "Point", "coordinates": [ 141.047410300000024, 38.521074 ] } },
{ "type": "Feature", "properties": { "内容": "認知症高齢者グループホーム団塊の世代【認知症対応型共同生活介護】宮城県大崎市松山千石字広田35番地", "url2": "https://www.kaigokensaku.mhlw.go.jp/04/index.php?action_kouhyou_detail_004_kani=true&JigyosyoCd=0491500518-00&ServiceCd=320&Type=search" }, "geometry": { "type": "Point", "coordinates": [ 141.060889800000012, 38.514796 ] } },
{ "type": "Feature", "properties": { "内容": "グループホーム太陽【認知症対応型共同生活介護】宮城県大崎市古川中里二丁目７番１号", "url2": "https://www.kaigokensaku.mhlw.go.jp/04/index.php?action_kouhyou_detail_004_kani=true&JigyosyoCd=0471500314-00&ServiceCd=320&Type=search" }, "geometry": { "type": "Point", "coordinates": [ 140.962028587939812, 38.56890868204087 ] } },
{ "type": "Feature", "properties": { "内容": "グループホームいろは【認知症対応型共同生活介護】宮城県大崎市古川稲葉二丁目4番24号", "url2": "https://www.kaigokensaku.mhlw.go.jp/04/index.php?action_kouhyou_detail_004_kani=true&JigyosyoCd=0491500161-00&ServiceCd=320&Type=search" }, "geometry": { "type": "Point", "coordinates": [ 140.951411900000039, 38.5563571 ] } },
{ "type": "Feature", "properties": { "内容": "グループホームあったかいごふるかわ【認知症対応型共同生活介護】宮城県大崎市古川駅前大通6丁目3-8グループホームあったかいごふるかわ", "url2": "https://www.kaigokensaku.mhlw.go.jp/04/index.php?action_kouhyou_detail_004_kani=true&JigyosyoCd=0491500187-00&ServiceCd=320&Type=search" }, "geometry": { "type": "Point", "coordinates": [ 140.966897677315501, 38.579597644848171 ] } },
{ "type": "Feature", "properties": { "内容": "グループホームかなでの杜【認知症対応型共同生活介護】宮城県大崎市古川福沼三丁目１８番１７号", "url2": "https://www.kaigokensaku.mhlw.go.jp/04/index.php?action_kouhyou_detail_004_kani=true&JigyosyoCd=0491500393-00&ServiceCd=320&Type=search" }, "geometry": { "type": "Point", "coordinates": [ 140.977746700000012, 38.576152 ] } },
{ "type": "Feature", "properties": { "内容": "大崎市社会福祉協議会　認知症グループホーム和楽路【認知症対応型共同生活介護】宮城県大崎市鹿島台広長字尻掛杉ヶ崎７ー1", "url2": "https://www.kaigokensaku.mhlw.go.jp/04/index.php?action_kouhyou_detail_004_kani=true&JigyosyoCd=0491500021-00&ServiceCd=320&Type=search" }, "geometry": { "type": "Point", "coordinates": [ 141.090461600000026, 38.4700419 ] } },
{ "type": "Feature", "properties": { "内容": "グループホーム　なのはな【認知症対応型共同生活介護】宮城県大崎市三本木蟻ヶ袋字混内山1-6", "url2": "https://www.kaigokensaku.mhlw.go.jp/04/index.php?action_kouhyou_detail_004_kani=true&JigyosyoCd=0471500892-00&ServiceCd=320&Type=search" }, "geometry": { "type": "Point", "coordinates": [ 140.933803799999964, 38.5213136 ] } },
{ "type": "Feature", "properties": { "内容": "グループホームおおさきの杜【認知症対応型共同生活介護】宮城県大崎市古川狐塚字押堀１６－１グループホームおおさきの杜", "url2": "https://www.kaigokensaku.mhlw.go.jp/04/index.php?action_kouhyou_detail_004_kani=true&JigyosyoCd=0491500500-00&ServiceCd=320&Type=search" }, "geometry": { "type": "Point", "coordinates": [ 140.982593334918221, 38.601245876900173 ] } },
{ "type": "Feature", "properties": { "内容": "ケアビレッジ大崎ケアサービスステーション認知症対応型共同生活介護Ⅱ【認知症対応型共同生活介護】宮城県大崎市古川稲葉1丁目7-30", "url2": "https://www.kaigokensaku.mhlw.go.jp/04/index.php?action_kouhyou_detail_004_kani=true&JigyosyoCd=0491500484-00&ServiceCd=320&Type=search" }, "geometry": { "type": "Point", "coordinates": [ 140.950489, 38.5595666 ] } },
{ "type": "Feature", "properties": { "内容": "グループホームドリームライトひかりの里【認知症対応型共同生活介護】宮城県富谷市成田8丁目４－１０グループホームドリームライトひかりの里", "url2": "https://www.kaigokensaku.mhlw.go.jp/04/index.php?action_kouhyou_detail_004_kani=true&JigyosyoCd=0472700590-00&ServiceCd=320&Type=search" }, "geometry": { "type": "Point", "coordinates": [ 140.89312330000007, 38.3576857 ] } },
{ "type": "Feature", "properties": { "内容": "ケアホームいちいの杜【認知症対応型共同生活介護】宮城県富谷市富ケ丘二丁目10番15号", "url2": "https://www.kaigokensaku.mhlw.go.jp/04/index.php?action_kouhyou_detail_004_kani=true&JigyosyoCd=0492700034-00&ServiceCd=320&Type=search" }, "geometry": { "type": "Point", "coordinates": [ 140.868159842327913, 38.363999351068905 ] } },
{ "type": "Feature", "properties": { "内容": "グループホーム　そよかぜ【認知症対応型共同生活介護】宮城県富谷市富谷桜田１－１１", "url2": "https://www.kaigokensaku.mhlw.go.jp/04/index.php?action_kouhyou_detail_004_kani=true&JigyosyoCd=0472700277-00&ServiceCd=320&Type=search" }, "geometry": { "type": "Point", "coordinates": [ 140.900390600000037, 38.396557 ] } },
{ "type": "Feature", "properties": { "内容": "グループホーム　リラの風【認知症対応型共同生活介護】宮城県刈田郡蔵王町遠刈田温泉字八山4番地１８", "url2": "https://www.kaigokensaku.mhlw.go.jp/04/index.php?action_kouhyou_detail_004_kani=true&JigyosyoCd=0472100056-00&ServiceCd=320&Type=search" }, "geometry": { "type": "Point", "coordinates": [ 140.602266900000018, 38.1086668 ] } },
{ "type": "Feature", "properties": { "内容": "グループホームふるさと【認知症対応型共同生活介護】宮城県刈田郡蔵王町宮字下別当72", "url2": "https://www.kaigokensaku.mhlw.go.jp/04/index.php?action_kouhyou_detail_004_kani=true&JigyosyoCd=0492100011-00&ServiceCd=320&Type=search" }, "geometry": { "type": "Point", "coordinates": [ 140.637045199999989, 38.0698864 ] } },
{ "type": "Feature", "properties": { "内容": "グループホーム七ヶ宿こもれびの家【認知症対応型共同生活介護】宮城県刈田郡七ヶ宿町字猯２３－１", "url2": "https://www.kaigokensaku.mhlw.go.jp/04/index.php?action_kouhyou_detail_004_kani=true&JigyosyoCd=0472100130-00&ServiceCd=320&Type=search" }, "geometry": { "type": "Point", "coordinates": [ 140.441611800000032, 37.9930633 ] } },
{ "type": "Feature", "properties": { "内容": "さくらグループホーム【認知症対応型共同生活介護】宮城県柴田郡大河原町金ヶ瀬字白坂２７番地", "url2": "https://www.kaigokensaku.mhlw.go.jp/04/index.php?action_kouhyou_detail_004_kani=true&JigyosyoCd=0472200369-00&ServiceCd=320&Type=search" }, "geometry": { "type": "Point", "coordinates": [ 140.702409900000021, 38.0435868 ] } },
{ "type": "Feature", "properties": { "内容": "ケアホームさくらの杜【認知症対応型共同生活介護】宮城県柴田郡大河原町字広表３３番地６", "url2": "https://www.kaigokensaku.mhlw.go.jp/04/index.php?action_kouhyou_detail_004_kani=true&JigyosyoCd=0492200027-00&ServiceCd=320&Type=search" }, "geometry": { "type": "Point", "coordinates": [ 140.716319500000054, 38.048234 ] } },
{ "type": "Feature", "properties": { "内容": "グループホームすまいる【認知症対応型共同生活介護】宮城県柴田郡大河原町字東32", "url2": "https://www.kaigokensaku.mhlw.go.jp/04/index.php?action_kouhyou_detail_004_kani=true&JigyosyoCd=0492200118-00&ServiceCd=320&Type=search" }, "geometry": { "type": "Point", "coordinates": [ 140.73782570000003, 38.0570422 ] } },
{ "type": "Feature", "properties": { "内容": "グループホーム　あいやまこもれびの家【認知症対応型共同生活介護】宮城県柴田郡村田町大字村田字相山100-5", "url2": "https://www.kaigokensaku.mhlw.go.jp/04/index.php?action_kouhyou_detail_004_kani=true&JigyosyoCd=0492200068-00&ServiceCd=320&Type=search" }, "geometry": { "type": "Point", "coordinates": [ 140.723141899999973, 38.1288611 ] } },
{ "type": "Feature", "properties": { "内容": "グループホームゆう柴田【認知症対応型共同生活介護】宮城県柴田郡柴田町剣崎２丁目４番３号", "url2": "https://www.kaigokensaku.mhlw.go.jp/04/index.php?action_kouhyou_detail_004_kani=true&JigyosyoCd=0472200286-00&ServiceCd=320&Type=search" }, "geometry": { "type": "Point", "coordinates": [ 140.8005564, 38.0617863 ] } },
{ "type": "Feature", "properties": { "内容": "グループホームふなおか【認知症対応型共同生活介護】宮城県柴田郡柴田町北船岡2-17-22", "url2": "https://www.kaigokensaku.mhlw.go.jp/04/index.php?action_kouhyou_detail_004_kani=true&JigyosyoCd=0492200019-00&ServiceCd=320&Type=search" }, "geometry": { "type": "Point", "coordinates": [ 140.762856899999946, 38.0626538 ] } },
{ "type": "Feature", "properties": { "内容": "グループホームゆめみの杜【認知症対応型共同生活介護】宮城県柴田郡柴田町船岡新栄四丁目８番地３", "url2": "https://www.kaigokensaku.mhlw.go.jp/04/index.php?action_kouhyou_detail_004_kani=true&JigyosyoCd=0492200134-00&ServiceCd=320&Type=search" }, "geometry": { "type": "Point", "coordinates": [ 140.780765993917868, 38.052005177852131 ] } },
{ "type": "Feature", "properties": { "内容": "グループホームつくし【認知症対応型共同生活介護】宮城県柴田郡柴田町船岡東２丁目２－２３", "url2": "https://www.kaigokensaku.mhlw.go.jp/04/index.php?action_kouhyou_detail_004_kani=true&JigyosyoCd=0492200076-00&ServiceCd=320&Type=search" }, "geometry": { "type": "Point", "coordinates": [ 140.772964499999944, 38.0576687 ] } },
{ "type": "Feature", "properties": { "内容": "グループホーム　もみの木【認知症対応型共同生活介護】宮城県柴田郡柴田町船岡東２丁目８－５", "url2": "https://www.kaigokensaku.mhlw.go.jp/04/index.php?action_kouhyou_detail_004_kani=true&JigyosyoCd=0472200476-00&ServiceCd=320&Type=search" }, "geometry": { "type": "Point", "coordinates": [ 140.773550600000021, 38.057666 ] } },
{ "type": "Feature", "properties": { "内容": "認知症高齢者グループホームさわやか【認知症対応型共同生活介護】宮城県柴田郡川崎町大字川内字笊畑字８ー３", "url2": "https://www.kaigokensaku.mhlw.go.jp/04/index.php?action_kouhyou_detail_004_kani=true&JigyosyoCd=0472200443-00&ServiceCd=320&Type=search" }, "geometry": { "type": "Point", "coordinates": [ 140.6194193, 38.214304 ] } },
{ "type": "Feature", "properties": { "内容": "認知症高齢者グループホームふれあい【認知症対応型共同生活介護】宮城県柴田郡川崎町大字川内字河原前５－３", "url2": "https://www.kaigokensaku.mhlw.go.jp/04/index.php?action_kouhyou_detail_004_kani=true&JigyosyoCd=0472200575-00&ServiceCd=320&Type=search" }, "geometry": { "type": "Point", "coordinates": [ 140.638663499999979, 38.184102500000016 ] } },
{ "type": "Feature", "properties": { "内容": "認知症高齢者グループホームひまわりの郷【認知症対応型共同生活介護】宮城県伊具郡丸森町舘矢間舘山字直洲１３１－１", "url2": "https://www.kaigokensaku.mhlw.go.jp/04/index.php?action_kouhyou_detail_004_kani=true&JigyosyoCd=0492300017-00&ServiceCd=320&Type=search" }, "geometry": { "type": "Point", "coordinates": [ 140.774932300000046, 37.9284775 ] } },
{ "type": "Feature", "properties": { "内容": "仙南ジェロントピア高齢者グループホームリリーハイム【認知症対応型共同生活介護】宮城県伊具郡丸森町舘矢間山田字市子沢1番地", "url2": "https://www.kaigokensaku.mhlw.go.jp/04/index.php?action_kouhyou_detail_004_kani=true&JigyosyoCd=0472300052-00&ServiceCd=320&Type=search" }, "geometry": { "type": "Point", "coordinates": [ 140.758625100000017, 37.9379953 ] } },
{ "type": "Feature", "properties": { "内容": "ニチイケアセンター亘理うらきど【認知症対応型共同生活介護】宮城県亘理郡亘理町字裏城戸141-1ニチイケアセンター亘理うらきど", "url2": "https://www.kaigokensaku.mhlw.go.jp/04/index.php?action_kouhyou_detail_004_kani=true&JigyosyoCd=0492400023-00&ServiceCd=320&Type=search" }, "geometry": { "type": "Point", "coordinates": [ 140.8566535, 38.0300993 ] } },
{ "type": "Feature", "properties": { "内容": "グループホームしんまち【認知症対応型共同生活介護】宮城県亘理郡亘理町字新町41-9", "url2": "https://www.kaigokensaku.mhlw.go.jp/04/index.php?action_kouhyou_detail_004_kani=true&JigyosyoCd=0492400015-00&ServiceCd=320&Type=search" }, "geometry": { "type": "Point", "coordinates": [ 140.8575641, 38.0370402 ] } },
{ "type": "Feature", "properties": { "内容": "グループホームたいじん荘【認知症対応型共同生活介護】宮城県亘理郡亘理町逢隈十文字字宮前７９－１", "url2": "https://www.kaigokensaku.mhlw.go.jp/04/index.php?action_kouhyou_detail_004_kani=true&JigyosyoCd=0472400399-00&ServiceCd=320&Type=search" }, "geometry": { "type": "Point", "coordinates": [ 140.8760982, 38.0692202 ] } },
{ "type": "Feature", "properties": { "内容": "グループホーム　悠里の郷【認知症対応型共同生活介護】宮城県亘理郡亘理町吉田字宮前12番地1", "url2": "https://www.kaigokensaku.mhlw.go.jp/04/index.php?action_kouhyou_detail_004_kani=true&JigyosyoCd=0472400324-00&ServiceCd=320&Type=search" }, "geometry": { "type": "Point", "coordinates": [ 140.85668510000005, 38.0111377 ] } },
{ "type": "Feature", "properties": { "内容": "社会福祉法人　紀心会　グループホーム　メサイア【認知症対応型共同生活介護】宮城県亘理郡山元町山寺字堤山8-3", "url2": "https://www.kaigokensaku.mhlw.go.jp/04/index.php?action_kouhyou_detail_004_kani=true&JigyosyoCd=0472400266-00&ServiceCd=320&Type=search" }, "geometry": { "type": "Point", "coordinates": [ 140.871099500000014, 37.9626929 ] } },
{ "type": "Feature", "properties": { "内容": "グループホームコスモス松島【認知症対応型共同生活介護】宮城県宮城郡松島町磯崎字長田80番222", "url2": "https://www.kaigokensaku.mhlw.go.jp/04/index.php?action_kouhyou_detail_004_kani=true&JigyosyoCd=0492600036-00&ServiceCd=320&Type=search" }, "geometry": { "type": "Point", "coordinates": [ 141.08073109999998, 38.3804867 ] } },
{ "type": "Feature", "properties": { "内容": "グループホーム桜の家【認知症対応型共同生活介護】宮城県宮城郡松島町桜渡戸字中島14番地の1", "url2": "https://www.kaigokensaku.mhlw.go.jp/04/index.php?action_kouhyou_detail_004_kani=true&JigyosyoCd=0472600345-00&ServiceCd=320&Type=search" }, "geometry": { "type": "Point", "coordinates": [ 141.0354413, 38.3841238 ] } },
{ "type": "Feature", "properties": { "内容": "グループホーム「七ヶ浜桜の家」【認知症対応型共同生活介護】宮城県宮城郡七ヶ浜町東宮浜字要害38-15", "url2": "https://www.kaigokensaku.mhlw.go.jp/04/index.php?action_kouhyou_detail_004_kani=true&JigyosyoCd=0492600069-00&ServiceCd=320&Type=search" }, "geometry": { "type": "Point", "coordinates": [ 141.049535252114879, 38.306955214209133 ] } },
{ "type": "Feature", "properties": { "内容": "グループホーム　十符の里【認知症対応型共同生活介護】宮城県宮城郡利府町菅谷台4-2-13", "url2": "https://www.kaigokensaku.mhlw.go.jp/04/index.php?action_kouhyou_detail_004_kani=true&JigyosyoCd=0492600028-00&ServiceCd=320&Type=search" }, "geometry": { "type": "Point", "coordinates": [ 140.957690500000012, 38.3284279 ] } },
{ "type": "Feature", "properties": { "内容": "グループホームやすらぎ苑利府【認知症対応型共同生活介護】宮城県宮城郡利府町沢乙字寺下１０－１", "url2": "https://www.kaigokensaku.mhlw.go.jp/04/index.php?action_kouhyou_detail_004_kani=true&JigyosyoCd=0472600436-00&ServiceCd=320&Type=search" }, "geometry": { "type": "Point", "coordinates": [ 140.972639100000038, 38.3314143 ] } },
{ "type": "Feature", "properties": { "内容": "グループホームなんてん吉岡【認知症対応型共同生活介護】宮城県黒川郡大和町吉岡天皇寺東6番地の１", "url2": "https://www.kaigokensaku.mhlw.go.jp/04/index.php?action_kouhyou_detail_004_kani=true&JigyosyoCd=0492700026-00&ServiceCd=320&Type=search" }, "geometry": { "type": "Point", "coordinates": [ 140.887978400000065, 38.439114600000025 ] } },
{ "type": "Feature", "properties": { "内容": "グループホーム「けやき」【認知症対応型共同生活介護】宮城県黒川郡大和町吉田字新要害１０番地", "url2": "https://www.kaigokensaku.mhlw.go.jp/04/index.php?action_kouhyou_detail_004_kani=true&JigyosyoCd=0472700426-00&ServiceCd=320&Type=search" }, "geometry": { "type": "Point", "coordinates": [ 140.880479499999979, 38.4339985 ] } },
{ "type": "Feature", "properties": { "内容": "グループホーム　もも太郎さん(大郷)【認知症対応型共同生活介護】宮城県黒川郡大郷町中村字原町10-5", "url2": "https://www.kaigokensaku.mhlw.go.jp/04/index.php?action_kouhyou_detail_004_kani=true&JigyosyoCd=0492700018-00&ServiceCd=320&Type=search" }, "geometry": { "type": "Point", "coordinates": [ 140.992947400000048, 38.4202015 ] } },
{ "type": "Feature", "properties": { "内容": "グループホーム　にこトピア加美【認知症対応型共同生活介護】宮城県加美郡加美町字町裏八番70-1", "url2": "https://www.kaigokensaku.mhlw.go.jp/04/index.php?action_kouhyou_detail_004_kani=true&JigyosyoCd=0492800024-00&ServiceCd=320&Type=search" }, "geometry": { "type": "Point", "coordinates": [ 140.858706699999971, 38.5690482 ] } },
{ "type": "Feature", "properties": { "内容": "グループホームたがわ翔裕館【認知症対応型共同生活介護】宮城県加美郡加美町字上川原一番42番地1", "url2": "https://www.kaigokensaku.mhlw.go.jp/04/index.php?action_kouhyou_detail_004_kani=true&JigyosyoCd=0492800081-00&ServiceCd=320&Type=search" }, "geometry": { "type": "Point", "coordinates": [ 140.8448546, 38.5760608 ] } },
{ "type": "Feature", "properties": { "内容": "グループホーム加美【認知症対応型共同生活介護】宮城県加美郡加美町上狼塚字東北原12-238", "url2": "https://www.kaigokensaku.mhlw.go.jp/04/index.php?action_kouhyou_detail_004_kani=true&JigyosyoCd=0472800374-00&ServiceCd=320&Type=search" }, "geometry": { "type": "Point", "coordinates": [ 140.864813, 38.593186400000015 ] } },
{ "type": "Feature", "properties": { "内容": "グルーホームなかにいだ翔裕館【認知症対応型共同生活介護】宮城県加美町羽場字屋敷前3番61-1", "url2": "https://www.kaigokensaku.mhlw.go.jp/04/index.php?action_kouhyou_detail_004_kani=true&JigyosyoCd=0492800073-00&ServiceCd=320&Type=search" }, "geometry": { "type": "Point", "coordinates": [ 140.8490789, 38.5813461 ] } },
{ "type": "Feature", "properties": { "内容": "グループホームスローライフ【認知症対応型共同生活介護】宮城県遠田郡涌谷町猪岡短台字短台40", "url2": "https://www.kaigokensaku.mhlw.go.jp/04/index.php?action_kouhyou_detail_004_kani=true&JigyosyoCd=0493100036-00&ServiceCd=320&Type=search" }, "geometry": { "type": "Point", "coordinates": [ 141.199918, 38.54195880000001 ] } },
{ "type": "Feature", "properties": { "内容": "グループホーム　ゆうらいふ【認知症対応型共同生活介護】宮城県遠田郡涌谷町涌谷字新下町浦192番地", "url2": "https://www.kaigokensaku.mhlw.go.jp/04/index.php?action_kouhyou_detail_004_kani=true&JigyosyoCd=0473100410-00&ServiceCd=320&Type=search" }, "geometry": { "type": "Point", "coordinates": [ 141.141148700000031, 38.5394129 ] } },
{ "type": "Feature", "properties": { "内容": "グループホーム後楽庵【認知症対応型共同生活介護】宮城県遠田郡涌谷町字刈萱町14番地", "url2": "https://www.kaigokensaku.mhlw.go.jp/04/index.php?action_kouhyou_detail_004_kani=true&JigyosyoCd=0473100204-00&ServiceCd=320&Type=search" }, "geometry": { "type": "Point", "coordinates": [ 141.127888900000016, 38.5434731 ] } },
{ "type": "Feature", "properties": { "内容": "グループホーム歩風楽【認知症対応型共同生活介護】宮城県遠田郡美里町牛飼字牛飼38-1番地", "url2": "https://www.kaigokensaku.mhlw.go.jp/04/index.php?action_kouhyou_detail_004_kani=true&JigyosyoCd=0473100493-00&ServiceCd=320&Type=search" }, "geometry": { "type": "Point", "coordinates": [ 141.048975299999938, 38.5552565 ] } },
{ "type": "Feature", "properties": { "内容": "グループーホームよつば荘【認知症対応型共同生活介護】遠田郡美里町北浦字船入2番地61", "url2": "https://www.kaigokensaku.mhlw.go.jp/04/index.php?action_kouhyou_detail_004_kani=true&JigyosyoCd=0473100469-00&ServiceCd=320&Type=search" }, "geometry": { "type": "Point", "coordinates": [ 141.058126779623421, 38.541250968494296 ] } },
{ "type": "Feature", "properties": { "内容": "グループホーム花水月【認知症対応型共同生活介護】宮城県遠田郡美里町叔廼前22-3", "url2": "https://www.kaigokensaku.mhlw.go.jp/04/index.php?action_kouhyou_detail_004_kani=true&JigyosyoCd=0473100212-00&ServiceCd=320&Type=search" }, "geometry": { "type": "Point", "coordinates": [ 141.083575699999983, 38.5265822 ] } },
{ "type": "Feature", "properties": { "内容": "認知症高齢者　グループホームみのりの家【認知症対応型共同生活介護】宮城県遠田郡美里町木間塚字原田5番地", "url2": "https://www.kaigokensaku.mhlw.go.jp/04/index.php?action_kouhyou_detail_004_kani=true&JigyosyoCd=0473100345-00&ServiceCd=320&Type=search" }, "geometry": { "type": "Point", "coordinates": [ 141.133562899999987, 38.4893048 ] } },
{ "type": "Feature", "properties": { "内容": "グループホーム　みさと【認知症対応型共同生活介護】宮城県遠田郡美里町中埣字寺前66番地1", "url2": "https://www.kaigokensaku.mhlw.go.jp/04/index.php?action_kouhyou_detail_004_kani=true&JigyosyoCd=0493100051-00&ServiceCd=320&Type=search" }, "geometry": { "type": "Point", "coordinates": [ 141.035836099999983, 38.5832477 ] } },
{ "type": "Feature", "properties": { "内容": "グループホームのどか【認知症対応型共同生活介護】宮城県牡鹿郡女川町浦宿浜字浦宿81-4", "url2": "https://www.kaigokensaku.mhlw.go.jp/04/index.php?action_kouhyou_detail_004_kani=true&JigyosyoCd=0493500029-00&ServiceCd=320&Type=search" }, "geometry": { "type": "Point", "coordinates": [ 141.42495459999995, 38.4362838 ] } },
{ "type": "Feature", "properties": { "内容": "グループホーム　リアスの丘【認知症対応型共同生活介護】宮城県本吉郡南三陸町歌津字桝沢１２２番地２", "url2": "https://www.kaigokensaku.mhlw.go.jp/04/index.php?action_kouhyou_detail_004_kani=true&JigyosyoCd=0493600035-00&ServiceCd=320&Type=search" }, "geometry": { "type": "Point", "coordinates": [ 141.5382538, 38.7253135 ] } },
{ "type": "Feature", "properties": { "内容": "認知症対応型共同生活介護　　　グループホーム　はまゆり【認知症対応型共同生活介護】宮城県本吉郡南三陸町志津川字袖浜２５５番地", "url2": "https://www.kaigokensaku.mhlw.go.jp/04/index.php?action_kouhyou_detail_004_kani=true&JigyosyoCd=0493600019-00&ServiceCd=320&Type=search" }, "geometry": { "type": "Point", "coordinates": [ 141.471247, 38.6787521 ] } }
]
}
