{
"type": "FeatureCollection",
"name": "geo_04_福祉用具貸与",
"crs": { "type": "name", "properties": { "name": "urn:ogc:def:crs:OGC:1.3:CRS84" } },
"features": [
{ "type": "Feature", "properties": { "内容": "DATECARE（ダテケア）【福祉用具貸与】宮城県仙台市青葉区桜ヶ丘六丁目34番18-102号", "url2": "https://www.kaigokensaku.mhlw.go.jp/04/index.php?action_kouhyou_detail_004_kani=true&JigyosyoCd=0475106092-00&ServiceCd=170&Type=search" }, "geometry": { "type": "Point", "coordinates": [ 140.845262600000012, 38.3031262 ] } },
{ "type": "Feature", "properties": { "内容": "有限会社カインドネスサービス【福祉用具貸与】宮城県仙台市青葉区高松2-20-32コーポABEI　1F", "url2": "https://www.kaigokensaku.mhlw.go.jp/04/index.php?action_kouhyou_detail_004_kani=true&JigyosyoCd=0475103438-00&ServiceCd=170&Type=search" }, "geometry": { "type": "Point", "coordinates": [ 140.895038399999976, 38.2807865 ] } },
{ "type": "Feature", "properties": { "内容": "Carrent仙台【福祉用具貸与】宮城県仙台市青葉区立町20-10ﾋﾟｰｽﾋﾞﾙ西公園3階C室", "url2": "https://www.kaigokensaku.mhlw.go.jp/04/index.php?action_kouhyou_detail_004_kani=true&JigyosyoCd=0475104543-00&ServiceCd=170&Type=search" }, "geometry": { "type": "Point", "coordinates": [ 140.86334260000001, 38.2636681 ] } },
{ "type": "Feature", "properties": { "内容": "せんだんの丘　福祉用具貸与事業【福祉用具貸与】宮城県仙台市青葉区国見ヶ丘6丁目126-51住宅型有料　ふたば内", "url2": "https://www.kaigokensaku.mhlw.go.jp/04/index.php?action_kouhyou_detail_004_kani=true&JigyosyoCd=0455180042-00&ServiceCd=170&Type=search" }, "geometry": { "type": "Point", "coordinates": [ 140.8344442, 38.2840815 ] } },
{ "type": "Feature", "properties": { "内容": "アスケア福祉用具センター仙台【福祉用具貸与】宮城県仙台市青葉区落合4-2-22", "url2": "https://www.kaigokensaku.mhlw.go.jp/04/index.php?action_kouhyou_detail_004_kani=true&JigyosyoCd=0475104246-00&ServiceCd=170&Type=search" }, "geometry": { "type": "Point", "coordinates": [ 140.780198586839276, 38.274921822651443 ] } },
{ "type": "Feature", "properties": { "内容": "シルバーサポート仙台中央店【福祉用具貸与】宮城県仙台市青葉上杉5丁目6-3", "url2": "https://www.kaigokensaku.mhlw.go.jp/04/index.php?action_kouhyou_detail_004_kani=true&JigyosyoCd=0475104840-00&ServiceCd=170&Type=search" }, "geometry": { "type": "Point", "coordinates": [ 140.879079719608626, 38.275167865307928 ] } },
{ "type": "Feature", "properties": { "内容": "株式会社フロンティア　仙台営業所【福祉用具貸与】宮城県仙台市青葉区上愛子字平治15-2", "url2": "https://www.kaigokensaku.mhlw.go.jp/04/index.php?action_kouhyou_detail_004_kani=true&JigyosyoCd=0475104022-00&ServiceCd=170&Type=search" }, "geometry": { "type": "Point", "coordinates": [ 140.741367513491838, 38.269025276669936 ] } },
{ "type": "Feature", "properties": { "内容": "パナソニックエイジフリーショップ仙台中央【福祉用具貸与】宮城県仙台市宮城野区萩野町二丁目17-11", "url2": "https://www.kaigokensaku.mhlw.go.jp/04/index.php?action_kouhyou_detail_004_kani=true&JigyosyoCd=0475204061-00&ServiceCd=170&Type=search" }, "geometry": { "type": "Point", "coordinates": [ 140.912122900000014, 38.2557378 ] } },
{ "type": "Feature", "properties": { "内容": "株式会社同仁社ヘルスケア営業仙台支店【福祉用具貸与】仙台市宮城野区中野４丁目３－２MSビル２F", "url2": "https://www.kaigokensaku.mhlw.go.jp/04/index.php?action_kouhyou_detail_004_kani=true&JigyosyoCd=0475200275-00&ServiceCd=170&Type=search" }, "geometry": { "type": "Point", "coordinates": [ 140.98195039999996, 38.2669138 ] } },
{ "type": "Feature", "properties": { "内容": "フランスベッド株式会社　メディカル仙台営業所【福祉用具貸与】宮城県仙台市宮城野区岩切分台２丁目12-12", "url2": "https://www.kaigokensaku.mhlw.go.jp/04/index.php?action_kouhyou_detail_004_kani=true&JigyosyoCd=0475202149-00&ServiceCd=170&Type=search" }, "geometry": { "type": "Point", "coordinates": [ 140.95851140000002, 38.3058439 ] } },
{ "type": "Feature", "properties": { "内容": "コスモスウェルテック【福祉用具貸与】宮城県仙台市宮城野区鶴ヶ谷東4丁目7-5", "url2": "https://www.kaigokensaku.mhlw.go.jp/04/index.php?action_kouhyou_detail_004_kani=true&JigyosyoCd=0475203063-00&ServiceCd=170&Type=search" }, "geometry": { "type": "Point", "coordinates": [ 140.922926880679825, 38.293814721164736 ] } },
{ "type": "Feature", "properties": { "内容": "フォーレスト福祉用具貸与事業所【福祉用具貸与】宮城県仙台市宮城野区岩切字谷地15-1", "url2": "https://www.kaigokensaku.mhlw.go.jp/04/index.php?action_kouhyou_detail_004_kani=true&JigyosyoCd=0475201430-00&ServiceCd=170&Type=search" }, "geometry": { "type": "Point", "coordinates": [ 140.930438500000037, 38.3100787 ] } },
{ "type": "Feature", "properties": { "内容": "株式会社小田島アクティ　介護用品部　仙台営業所【福祉用具貸与】宮城県仙台市宮城野区高砂1丁目17番2号", "url2": "https://www.kaigokensaku.mhlw.go.jp/04/index.php?action_kouhyou_detail_004_kani=true&JigyosyoCd=0475201851-00&ServiceCd=170&Type=search" }, "geometry": { "type": "Point", "coordinates": [ 140.968851015267774, 38.270558527644639 ] } },
{ "type": "Feature", "properties": { "内容": "株式会社アルプスビジネスクリエーション　仙台営業所【福祉用具貸与】仙台市宮城野区宮千代1-16-1", "url2": "https://www.kaigokensaku.mhlw.go.jp/04/index.php?action_kouhyou_detail_004_kani=true&JigyosyoCd=0475202677-00&ServiceCd=170&Type=search" }, "geometry": { "type": "Point", "coordinates": [ 140.910027200000059, 38.2542206 ] } },
{ "type": "Feature", "properties": { "内容": "シルバーサポート仙台店【福祉用具貸与】宮城県仙台市宮城野区仙台港北2丁目15-14", "url2": "https://www.kaigokensaku.mhlw.go.jp/04/index.php?action_kouhyou_detail_004_kani=true&JigyosyoCd=0475203113-00&ServiceCd=170&Type=search" }, "geometry": { "type": "Point", "coordinates": [ 141.00702810000007, 38.2778579 ] } },
{ "type": "Feature", "properties": { "内容": "有限会社　車座【福祉用具貸与】宮城県仙台市若林区上飯田3丁目13番33号-", "url2": "https://www.kaigokensaku.mhlw.go.jp/04/index.php?action_kouhyou_detail_004_kani=true&JigyosyoCd=0475300794-00&ServiceCd=170&Type=search" }, "geometry": { "type": "Point", "coordinates": [ 140.924550299999964, 38.2153169 ] } },
{ "type": "Feature", "properties": { "内容": "ダスキンヘルスレント仙台ステーション【福祉用具貸与】宮城県仙台市若林区卸町東3丁目1-35", "url2": "https://www.kaigokensaku.mhlw.go.jp/04/index.php?action_kouhyou_detail_004_kani=true&JigyosyoCd=0475300174-00&ServiceCd=170&Type=search" }, "geometry": { "type": "Point", "coordinates": [ 140.94007694914373, 38.255779650705584 ] } },
{ "type": "Feature", "properties": { "内容": "株式会社フロンティア　仙台東営業所【福祉用具貸与】仙台市若林区六丁の目北町14-4", "url2": "https://www.kaigokensaku.mhlw.go.jp/04/index.php?action_kouhyou_detail_004_kani=true&JigyosyoCd=0475303012-00&ServiceCd=170&Type=search" }, "geometry": { "type": "Point", "coordinates": [ 140.949946558860773, 38.251134186294323 ] } },
{ "type": "Feature", "properties": { "内容": "有限会社　ティー・シー・エム【福祉用具貸与】宮城県仙台市若林区大和町4丁目13番27号", "url2": "https://www.kaigokensaku.mhlw.go.jp/04/index.php?action_kouhyou_detail_004_kani=true&JigyosyoCd=0475300059-00&ServiceCd=170&Type=search" }, "geometry": { "type": "Point", "coordinates": [ 140.917643399999946, 38.2489243 ] } },
{ "type": "Feature", "properties": { "内容": "株式会社　ライフアップ【福祉用具貸与】宮城県仙台市若林区遠見塚３丁目8-25", "url2": "https://www.kaigokensaku.mhlw.go.jp/04/index.php?action_kouhyou_detail_004_kani=true&JigyosyoCd=0475300323-00&ServiceCd=170&Type=search" }, "geometry": { "type": "Point", "coordinates": [ 140.9174716, 38.240903 ] } },
{ "type": "Feature", "properties": { "内容": "株式会社かんきょう　仙台支店【福祉用具貸与】宮城県仙台市若林区卸町一丁目６番１５号　卸町セントラルビル６階", "url2": "https://www.kaigokensaku.mhlw.go.jp/04/index.php?action_kouhyou_detail_004_kani=true&JigyosyoCd=0475302857-00&ServiceCd=170&Type=search" }, "geometry": { "type": "Point", "coordinates": [ 140.920332699999989, 38.2559985 ] } },
{ "type": "Feature", "properties": { "内容": "株式会社多田木工製作所　ウェルランド仙台店【福祉用具貸与】宮城県仙台市若林区伊在3-4-1ディオ・ホリマンションⅡ号棟102号室", "url2": "https://www.kaigokensaku.mhlw.go.jp/04/index.php?action_kouhyou_detail_004_kani=true&JigyosyoCd=0475302188-00&ServiceCd=170&Type=search" }, "geometry": { "type": "Point", "coordinates": [ 140.940142661197854, 38.246259091960141 ] } },
{ "type": "Feature", "properties": { "内容": "株式会社ライフケア　仙台支店【福祉用具貸与】宮城県仙台市若林区大和町1-20-1", "url2": "https://www.kaigokensaku.mhlw.go.jp/04/index.php?action_kouhyou_detail_004_kani=true&JigyosyoCd=0475302451-00&ServiceCd=170&Type=search" }, "geometry": { "type": "Point", "coordinates": [ 140.908994300000018, 38.2479962 ] } },
{ "type": "Feature", "properties": { "内容": "株式会社ヤマシタ仙台営業所【福祉用具貸与】宮城県仙台市若林区大和町1丁目5-15", "url2": "https://www.kaigokensaku.mhlw.go.jp/04/index.php?action_kouhyou_detail_004_kani=true&JigyosyoCd=0475303020-00&ServiceCd=170&Type=search" }, "geometry": { "type": "Point", "coordinates": [ 140.90981387429278, 38.248194291453963 ] } },
{ "type": "Feature", "properties": { "内容": "ケヤキ福祉用具センター【福祉用具貸与】宮城県仙台市太白区富沢１丁目３－２１ウインズ富沢１０１", "url2": "https://www.kaigokensaku.mhlw.go.jp/04/index.php?action_kouhyou_detail_004_kani=true&JigyosyoCd=0475404588-00&ServiceCd=170&Type=search" }, "geometry": { "type": "Point", "coordinates": [ 140.869338, 38.216805 ] } },
{ "type": "Feature", "properties": { "内容": "セントケア　りまいん　太白【福祉用具貸与】宮城県仙台市太白区富沢2丁目10番20号パル7　１０１", "url2": "https://www.kaigokensaku.mhlw.go.jp/04/index.php?action_kouhyou_detail_004_kani=true&JigyosyoCd=0475404695-00&ServiceCd=170&Type=search" }, "geometry": { "type": "Point", "coordinates": [ 140.8628033, 38.2217055 ] } },
{ "type": "Feature", "properties": { "内容": "介護用具レンタル青山【福祉用具貸与】宮城県仙台市太白区緑ヶ丘4-19-23", "url2": "https://www.kaigokensaku.mhlw.go.jp/04/index.php?action_kouhyou_detail_004_kani=true&JigyosyoCd=0475402582-00&ServiceCd=170&Type=search" }, "geometry": { "type": "Point", "coordinates": [ 140.866673699999978, 38.2360379 ] } },
{ "type": "Feature", "properties": { "内容": "ももの花【福祉用具貸与】仙台市太白区青山1丁目9-13", "url2": "https://www.kaigokensaku.mhlw.go.jp/04/index.php?action_kouhyou_detail_004_kani=true&JigyosyoCd=0475401006-00&ServiceCd=170&Type=search" }, "geometry": { "type": "Point", "coordinates": [ 140.857644800000031, 38.2403243 ] } },
{ "type": "Feature", "properties": { "内容": "株式会社　サンメディックス　シルバーレンタルサービス仙台【福祉用具貸与】宮城県仙台市太白区中田4-4-36", "url2": "https://www.kaigokensaku.mhlw.go.jp/04/index.php?action_kouhyou_detail_004_kani=true&JigyosyoCd=0475401923-00&ServiceCd=170&Type=search" }, "geometry": { "type": "Point", "coordinates": [ 140.891464400000018, 38.1998145 ] } },
{ "type": "Feature", "properties": { "内容": "萩の郷福祉工場【福祉用具貸与】宮城県仙台市太白区鈎取御堂平３８", "url2": "https://www.kaigokensaku.mhlw.go.jp/04/index.php?action_kouhyou_detail_004_kani=true&JigyosyoCd=0475400370-00&ServiceCd=170&Type=search" }, "geometry": { "type": "Point", "coordinates": [ 140.833114967072987, 38.232814990891086 ] } },
{ "type": "Feature", "properties": { "内容": "シルバーサポート仙台南店【福祉用具貸与】仙台市太白区西中田4丁目14番36号", "url2": "https://www.kaigokensaku.mhlw.go.jp/04/index.php?action_kouhyou_detail_004_kani=true&JigyosyoCd=0475402335-00&ServiceCd=170&Type=search" }, "geometry": { "type": "Point", "coordinates": [ 140.8808239, 38.1948674 ] } },
{ "type": "Feature", "properties": { "内容": "福祉用具貸与事業所ノテ富沢【福祉用具貸与】宮城県仙台市富沢西3丁目10番地の1", "url2": "https://www.kaigokensaku.mhlw.go.jp/04/index.php?action_kouhyou_detail_004_kani=true&JigyosyoCd=0475405072-00&ServiceCd=170&Type=search" }, "geometry": { "type": "Point", "coordinates": [ 140.8558185, 38.2110646 ] } },
{ "type": "Feature", "properties": { "内容": "アースサポート仙台【福祉用具貸与】宮城県仙台市太白区向山4丁目19番10号共立愛宕橋ビル", "url2": "https://www.kaigokensaku.mhlw.go.jp/04/index.php?action_kouhyou_detail_004_kani=true&JigyosyoCd=0475404547-00&ServiceCd=170&Type=search" }, "geometry": { "type": "Point", "coordinates": [ 140.8793681, 38.2440862 ] } },
{ "type": "Feature", "properties": { "内容": "ダスキンヘルスレント泉ステーション【福祉用具貸与】宮城県仙台市泉区七北田大沢明通35-1", "url2": "https://www.kaigokensaku.mhlw.go.jp/04/index.php?action_kouhyou_detail_004_kani=true&JigyosyoCd=0475500518-00&ServiceCd=170&Type=search" }, "geometry": { "type": "Point", "coordinates": [ 140.862613198463805, 38.357621538812602 ] } },
{ "type": "Feature", "properties": { "内容": "有限会社　東日本福祉機器商会【福祉用具貸与】仙台市泉区市名坂字御釜田144番地の5", "url2": "https://www.kaigokensaku.mhlw.go.jp/04/index.php?action_kouhyou_detail_004_kani=true&JigyosyoCd=0475500310-00&ServiceCd=170&Type=search" }, "geometry": { "type": "Point", "coordinates": [ 140.900629900000013, 38.3187879 ] } },
{ "type": "Feature", "properties": { "内容": "介護ショップ　マーク　・トゥエイン【福祉用具貸与】宮城県仙台市泉区寺岡１－２－５", "url2": "https://www.kaigokensaku.mhlw.go.jp/04/index.php?action_kouhyou_detail_004_kani=true&JigyosyoCd=0475502092-00&ServiceCd=170&Type=search" }, "geometry": { "type": "Point", "coordinates": [ 140.835875198954426, 38.335564678162704 ] } },
{ "type": "Feature", "properties": { "内容": "株式会社蔵王サプライズ仙台支店【福祉用具貸与】仙台市泉区八乙女2丁目9-1", "url2": "https://www.kaigokensaku.mhlw.go.jp/04/index.php?action_kouhyou_detail_004_kani=true&JigyosyoCd=0475500153-00&ServiceCd=170&Type=search" }, "geometry": { "type": "Point", "coordinates": [ 140.891642865881295, 38.309438630339429 ] } },
{ "type": "Feature", "properties": { "内容": "SOMPOケア　仙台　福祉用具【福祉用具貸与】宮城県仙台市泉区松森字鹿島53-9", "url2": "https://www.kaigokensaku.mhlw.go.jp/04/index.php?action_kouhyou_detail_004_kani=true&JigyosyoCd=0475503926-00&ServiceCd=170&Type=search" }, "geometry": { "type": "Point", "coordinates": [ 140.909337300000061, 38.3181911 ] } },
{ "type": "Feature", "properties": { "内容": "ラミコジャパン株式会社　シルバーサポート仙台北店【福祉用具貸与】宮城県仙台市泉区八乙女中央5-17-12", "url2": "https://www.kaigokensaku.mhlw.go.jp/04/index.php?action_kouhyou_detail_004_kani=true&JigyosyoCd=0475504254-00&ServiceCd=170&Type=search" }, "geometry": { "type": "Point", "coordinates": [ 140.8865915, 38.3121292 ] } },
{ "type": "Feature", "properties": { "内容": "コンシェルジュ【福祉用具貸与】宮城県仙台市泉区住吉台東3-1-1", "url2": "https://www.kaigokensaku.mhlw.go.jp/04/index.php?action_kouhyou_detail_004_kani=true&JigyosyoCd=0475504288-00&ServiceCd=170&Type=search" }, "geometry": { "type": "Point", "coordinates": [ 140.7843842, 38.3301692 ] } },
{ "type": "Feature", "properties": { "内容": "セツルメント介護サービス【福祉用具貸与】宮城県仙台市泉区長命ヶ丘5-15-17", "url2": "https://www.kaigokensaku.mhlw.go.jp/04/index.php?action_kouhyou_detail_004_kani=true&JigyosyoCd=0475500906-00&ServiceCd=170&Type=search" }, "geometry": { "type": "Point", "coordinates": [ 140.833519162032132, 38.315592449776148 ] } },
{ "type": "Feature", "properties": { "内容": "カシワギコミュニケア【福祉用具貸与】宮城県仙台市泉区大沢2-4-2", "url2": "https://www.kaigokensaku.mhlw.go.jp/04/index.php?action_kouhyou_detail_004_kani=true&JigyosyoCd=0475502662-00&ServiceCd=170&Type=search" }, "geometry": { "type": "Point", "coordinates": [ 140.8737645, 38.3525941 ] } },
{ "type": "Feature", "properties": { "内容": "スペースケア仙台営業所【福祉用具貸与】宮城県仙台市泉区八乙女中央2-1-36", "url2": "https://www.kaigokensaku.mhlw.go.jp/04/index.php?action_kouhyou_detail_004_kani=true&JigyosyoCd=0475502639-00&ServiceCd=170&Type=search" }, "geometry": { "type": "Point", "coordinates": [ 140.878740900000054, 38.3076828 ] } },
{ "type": "Feature", "properties": { "内容": "株式会社　マルイチ福祉用品機器センター【福祉用具貸与】宮城県石巻市西山町３番６号", "url2": "https://www.kaigokensaku.mhlw.go.jp/04/index.php?action_kouhyou_detail_004_kani=true&JigyosyoCd=0470200130-00&ServiceCd=170&Type=search" }, "geometry": { "type": "Point", "coordinates": [ 141.292903799999976, 38.4328884 ] } },
{ "type": "Feature", "properties": { "内容": "ヘルスケアショップぱんぷきん倶楽部【福祉用具貸与】宮城県石巻市恵み野二丁目10番地16", "url2": "https://www.kaigokensaku.mhlw.go.jp/04/index.php?action_kouhyou_detail_004_kani=true&JigyosyoCd=0470200338-00&ServiceCd=170&Type=search" }, "geometry": { "type": "Point", "coordinates": [ 141.2714049, 38.44347 ] } },
{ "type": "Feature", "properties": { "内容": "博愛介護用品レンタルサービス【福祉用具貸与】宮城県石巻市三ッ股二丁目５－３１サンボール門脇３０１号", "url2": "https://www.kaigokensaku.mhlw.go.jp/04/index.php?action_kouhyou_detail_004_kani=true&JigyosyoCd=0470201971-00&ServiceCd=170&Type=search" }, "geometry": { "type": "Point", "coordinates": [ 141.269903730410761, 38.427490962484598 ] } },
{ "type": "Feature", "properties": { "内容": "ピース福祉機器サービス【福祉用具貸与】宮城県石巻市吉野町3丁目6-8", "url2": "https://www.kaigokensaku.mhlw.go.jp/04/index.php?action_kouhyou_detail_004_kani=true&JigyosyoCd=0470202714-00&ServiceCd=170&Type=search" }, "geometry": { "type": "Point", "coordinates": [ 141.322745260433038, 38.423616308608224 ] } },
{ "type": "Feature", "properties": { "内容": "株式会社　ホームケアゆかり【福祉用具貸与】宮城県石巻市鹿又字八幡前５３番地２", "url2": "https://www.kaigokensaku.mhlw.go.jp/04/index.php?action_kouhyou_detail_004_kani=true&JigyosyoCd=0470202045-00&ServiceCd=170&Type=search" }, "geometry": { "type": "Point", "coordinates": [ 141.284274065132621, 38.487582220162629 ] } },
{ "type": "Feature", "properties": { "内容": "ダスキンヘルスレント石巻ステーション【福祉用具貸与】宮城県石巻市あけぼの３丁目１－１１", "url2": "https://www.kaigokensaku.mhlw.go.jp/04/index.php?action_kouhyou_detail_004_kani=true&JigyosyoCd=0470200494-00&ServiceCd=170&Type=search" }, "geometry": { "type": "Point", "coordinates": [ 141.275171, 38.4534689 ] } },
{ "type": "Feature", "properties": { "内容": "株式会社めだか　めだか住環境センター【福祉用具貸与】宮城県石巻市蛇田字小斎80", "url2": "https://www.kaigokensaku.mhlw.go.jp/04/index.php?action_kouhyou_detail_004_kani=true&JigyosyoCd=0470200759-00&ServiceCd=170&Type=search" }, "geometry": { "type": "Point", "coordinates": [ 141.259417111225957, 38.453937002371802 ] } },
{ "type": "Feature", "properties": { "内容": "アスケア福祉用具センター石巻【福祉用具貸与】宮城県石巻市中里3-5-5", "url2": "https://www.kaigokensaku.mhlw.go.jp/04/index.php?action_kouhyou_detail_004_kani=true&JigyosyoCd=0470203100-00&ServiceCd=170&Type=search" }, "geometry": { "type": "Point", "coordinates": [ 141.2979207, 38.4418572 ] } },
{ "type": "Feature", "properties": { "内容": "有限会社　二宮調剤薬局メディカル部【福祉用具貸与】宮城県石巻市住吉町1丁目1-6二宮ビル　１階", "url2": "https://www.kaigokensaku.mhlw.go.jp/04/index.php?action_kouhyou_detail_004_kani=true&JigyosyoCd=0470202987-00&ServiceCd=170&Type=search" }, "geometry": { "type": "Point", "coordinates": [ 141.310806666247089, 38.433448732375375 ] } },
{ "type": "Feature", "properties": { "内容": "福祉用具販売貸与事業所seeds塩釜営業所【福祉用具貸与】塩釜市玉川1丁目5-12", "url2": "https://www.kaigokensaku.mhlw.go.jp/04/index.php?action_kouhyou_detail_004_kani=true&JigyosyoCd=0470301136-00&ServiceCd=170&Type=search" }, "geometry": { "type": "Point", "coordinates": [ 141.006911, 38.3078857 ] } },
{ "type": "Feature", "properties": { "内容": "有限会社インテリア工房ながい【福祉用具貸与】宮城県塩竈市本町１０番８号", "url2": "https://www.kaigokensaku.mhlw.go.jp/04/index.php?action_kouhyou_detail_004_kani=true&JigyosyoCd=0470300013-00&ServiceCd=170&Type=search" }, "geometry": { "type": "Point", "coordinates": [ 141.016824899999961, 38.3167507 ] } },
{ "type": "Feature", "properties": { "内容": "スペースケアSUN福祉工房【福祉用具貸与】宮城県塩釜市港町1丁目4-1マリンゲート塩釜　東207A", "url2": "https://www.kaigokensaku.mhlw.go.jp/04/index.php?action_kouhyou_detail_004_kani=true&JigyosyoCd=0470301102-00&ServiceCd=170&Type=search" }, "geometry": { "type": "Point", "coordinates": [ 141.030019682556144, 38.319609888376775 ] } },
{ "type": "Feature", "properties": { "内容": "広域介護サービス気仙沼【福祉用具貸与】宮城県気仙沼市松川前121", "url2": "https://www.kaigokensaku.mhlw.go.jp/04/index.php?action_kouhyou_detail_004_kani=true&JigyosyoCd=0470500646-00&ServiceCd=170&Type=search" }, "geometry": { "type": "Point", "coordinates": [ 141.5445626, 38.9155254 ] } },
{ "type": "Feature", "properties": { "内容": "介護サポートゆうま【福祉用具貸与】宮城県気仙沼市新町5番6号", "url2": "https://www.kaigokensaku.mhlw.go.jp/04/index.php?action_kouhyou_detail_004_kani=true&JigyosyoCd=0470501255-00&ServiceCd=170&Type=search" }, "geometry": { "type": "Point", "coordinates": [ 141.563020006151589, 38.906074574451601 ] } },
{ "type": "Feature", "properties": { "内容": "有限会社　ホロス【福祉用具貸与】宮城県気仙沼市長磯原ノ沢130-7", "url2": "https://www.kaigokensaku.mhlw.go.jp/04/index.php?action_kouhyou_detail_004_kani=true&JigyosyoCd=0473600286-00&ServiceCd=170&Type=search" }, "geometry": { "type": "Point", "coordinates": [ 141.579759528870795, 38.840627954279086 ] } },
{ "type": "Feature", "properties": { "内容": "福祉用具のえにし【福祉用具貸与】宮城県気仙沼市切通２１２番地２", "url2": "https://www.kaigokensaku.mhlw.go.jp/04/index.php?action_kouhyou_detail_004_kani=true&JigyosyoCd=0470500919-00&ServiceCd=170&Type=search" }, "geometry": { "type": "Point", "coordinates": [ 141.532511294103557, 38.913037380922873 ] } },
{ "type": "Feature", "properties": { "内容": "ライフサポート村伝【福祉用具貸与】宮城県気仙沼市赤岩牧沢44-123", "url2": "https://www.kaigokensaku.mhlw.go.jp/04/index.php?action_kouhyou_detail_004_kani=true&JigyosyoCd=0470500380-00&ServiceCd=170&Type=search" }, "geometry": { "type": "Point", "coordinates": [ 141.553467061236915, 38.878889326996784 ] } },
{ "type": "Feature", "properties": { "内容": "もとよし福祉用具貸与事業所【福祉用具貸与】宮城県気仙沼市本吉町津谷舘岡５１－６", "url2": "https://www.kaigokensaku.mhlw.go.jp/04/index.php?action_kouhyou_detail_004_kani=true&JigyosyoCd=0470500729-00&ServiceCd=170&Type=search" }, "geometry": { "type": "Point", "coordinates": [ 141.505622983467106, 38.795660061899135 ] } },
{ "type": "Feature", "properties": { "内容": "株式会社コンホートケア【福祉用具貸与】宮城県気仙沼市所沢270", "url2": "https://www.kaigokensaku.mhlw.go.jp/04/index.php?action_kouhyou_detail_004_kani=true&JigyosyoCd=0470500653-00&ServiceCd=170&Type=search" }, "geometry": { "type": "Point", "coordinates": [ 141.541350247290779, 38.895857688960163 ] } },
{ "type": "Feature", "properties": { "内容": "みやぎ仙南農業協同組合　白石介護支援センター【福祉用具貸与】宮城県白石市大平中目字八ツ森脇31番地", "url2": "https://www.kaigokensaku.mhlw.go.jp/04/index.php?action_kouhyou_detail_004_kani=true&JigyosyoCd=0470600685-00&ServiceCd=170&Type=search" }, "geometry": { "type": "Point", "coordinates": [ 140.6163407, 37.9860469 ] } },
{ "type": "Feature", "properties": { "内容": "指定居宅サービス事業所ほっとなとり【福祉用具貸与】宮城県名取市増田五丁目13番35号", "url2": "https://www.kaigokensaku.mhlw.go.jp/04/index.php?action_kouhyou_detail_004_kani=true&JigyosyoCd=0470700220-00&ServiceCd=170&Type=search" }, "geometry": { "type": "Point", "coordinates": [ 140.888596017640111, 38.174908145059277 ] } },
{ "type": "Feature", "properties": { "内容": "東京インテリアMS仙台【福祉用具貸与】宮城県名取市手倉田字諏訪524", "url2": "https://www.kaigokensaku.mhlw.go.jp/04/index.php?action_kouhyou_detail_004_kani=true&JigyosyoCd=0470701038-00&ServiceCd=170&Type=search" }, "geometry": { "type": "Point", "coordinates": [ 140.87583410000002, 38.1705444 ] } },
{ "type": "Feature", "properties": { "内容": "バイタルケア名取【福祉用具貸与】宮城県名取市下余田字鹿島10", "url2": "https://www.kaigokensaku.mhlw.go.jp/04/index.php?action_kouhyou_detail_004_kani=true&JigyosyoCd=0470700451-00&ServiceCd=170&Type=search" }, "geometry": { "type": "Point", "coordinates": [ 140.89681829999995, 38.1725757 ] } },
{ "type": "Feature", "properties": { "内容": "ダスキンヘルスレント名取ステーション【福祉用具貸与】宮城県名取市飯野坂三丁目７－１０", "url2": "https://www.kaigokensaku.mhlw.go.jp/04/index.php?action_kouhyou_detail_004_kani=true&JigyosyoCd=0470700691-00&ServiceCd=170&Type=search" }, "geometry": { "type": "Point", "coordinates": [ 140.88652849999994, 38.1558854 ] } },
{ "type": "Feature", "properties": { "内容": "パナソニックエイジフリーショップ仙台南【福祉用具貸与】宮城県名取市植松字田野部16-1", "url2": "https://www.kaigokensaku.mhlw.go.jp/04/index.php?action_kouhyou_detail_004_kani=true&JigyosyoCd=0470700824-00&ServiceCd=170&Type=search" }, "geometry": { "type": "Point", "coordinates": [ 140.884712400000012, 38.1495305 ] } },
{ "type": "Feature", "properties": { "内容": "ケアハウス　ふれあいの森【福祉用具貸与】宮城県角田市角田字田町95", "url2": "https://www.kaigokensaku.mhlw.go.jp/04/index.php?action_kouhyou_detail_004_kani=true&JigyosyoCd=0470800178-00&ServiceCd=170&Type=search" }, "geometry": { "type": "Point", "coordinates": [ 140.784865, 37.9743742 ] } },
{ "type": "Feature", "properties": { "内容": "福祉用具相談センタ-「フィット」【福祉用具貸与】多賀城市下馬一丁目10-6", "url2": "https://www.kaigokensaku.mhlw.go.jp/04/index.php?action_kouhyou_detail_004_kani=true&JigyosyoCd=0470900317-00&ServiceCd=170&Type=search" }, "geometry": { "type": "Point", "coordinates": [ 141.0146148, 38.3053687 ] } },
{ "type": "Feature", "properties": { "内容": "ダスキンヘルスレント多賀城ステーション【福祉用具貸与】宮城県多賀城市町前３丁目６番２４号", "url2": "https://www.kaigokensaku.mhlw.go.jp/04/index.php?action_kouhyou_detail_004_kani=true&JigyosyoCd=0470900127-00&ServiceCd=170&Type=search" }, "geometry": { "type": "Point", "coordinates": [ 141.010657900000069, 38.2871291 ] } },
{ "type": "Feature", "properties": { "内容": "介護サポートふたき【福祉用具貸与】岩沼市中央1-2-16", "url2": "https://www.kaigokensaku.mhlw.go.jp/04/index.php?action_kouhyou_detail_004_kani=true&JigyosyoCd=0471100354-00&ServiceCd=170&Type=search" }, "geometry": { "type": "Point", "coordinates": [ 140.866006301327502, 38.104917022632186 ] } },
{ "type": "Feature", "properties": { "内容": "株式会社エヌジェイアイ　ケアヘルス南仙台店【福祉用具貸与】宮城県岩沼市末広2丁目4番22号", "url2": "https://www.kaigokensaku.mhlw.go.jp/04/index.php?action_kouhyou_detail_004_kani=true&JigyosyoCd=0471100461-00&ServiceCd=170&Type=search" }, "geometry": { "type": "Point", "coordinates": [ 140.875764387968474, 38.111608188467841 ] } },
{ "type": "Feature", "properties": { "内容": "ダスキンヘルスレント登米ステーション【福祉用具貸与】宮城県登米市迫町佐沼字梅ノ木５丁目５－９", "url2": "https://www.kaigokensaku.mhlw.go.jp/04/index.php?action_kouhyou_detail_004_kani=true&JigyosyoCd=0471201418-00&ServiceCd=170&Type=search" }, "geometry": { "type": "Point", "coordinates": [ 141.210371929865858, 38.694136856153598 ] } },
{ "type": "Feature", "properties": { "内容": "株式会社　ホロス【福祉用具貸与】宮城県登米市南方町西山成80－1", "url2": "https://www.kaigokensaku.mhlw.go.jp/04/index.php?action_kouhyou_detail_004_kani=true&JigyosyoCd=0471200949-00&ServiceCd=170&Type=search" }, "geometry": { "type": "Point", "coordinates": [ 141.153300299999955, 38.6587913 ] } },
{ "type": "Feature", "properties": { "内容": "株式会社宮城登米広域介護サービス【福祉用具貸与】宮城県登米市迫町佐沼字光ヶ丘140番地2", "url2": "https://www.kaigokensaku.mhlw.go.jp/04/index.php?action_kouhyou_detail_004_kani=true&JigyosyoCd=0471200014-00&ServiceCd=170&Type=search" }, "geometry": { "type": "Point", "coordinates": [ 141.204474600000026, 38.6869653 ] } },
{ "type": "Feature", "properties": { "内容": "有限会社　リースキン宮城【福祉用具貸与】宮城県登米市迫町佐沼字下田中53-8", "url2": "https://www.kaigokensaku.mhlw.go.jp/04/index.php?action_kouhyou_detail_004_kani=true&JigyosyoCd=0471200030-00&ServiceCd=170&Type=search" }, "geometry": { "type": "Point", "coordinates": [ 141.193943961080095, 38.689539074696391 ] } },
{ "type": "Feature", "properties": { "内容": "スペースケア登米営業所【福祉用具貸与】宮城県登米市中田町宝江黒沼字蓬原28-6", "url2": "https://www.kaigokensaku.mhlw.go.jp/04/index.php?action_kouhyou_detail_004_kani=true&JigyosyoCd=0471201384-00&ServiceCd=170&Type=search" }, "geometry": { "type": "Point", "coordinates": [ 141.237129399999958, 38.7056451 ] } },
{ "type": "Feature", "properties": { "内容": "テクノケアサービス【福祉用具貸与】宮城県登米市豊里町東待井下52-1", "url2": "https://www.kaigokensaku.mhlw.go.jp/04/index.php?action_kouhyou_detail_004_kani=true&JigyosyoCd=0471201335-00&ServiceCd=170&Type=search" }, "geometry": { "type": "Point", "coordinates": [ 141.246417260677276, 38.590075889425279 ] } },
{ "type": "Feature", "properties": { "内容": "シルバーレンタルサービス登米【福祉用具貸与】宮城県登米市迫町佐沼字錦192-2", "url2": "https://www.kaigokensaku.mhlw.go.jp/04/index.php?action_kouhyou_detail_004_kani=true&JigyosyoCd=0471200352-00&ServiceCd=170&Type=search" }, "geometry": { "type": "Point", "coordinates": [ 141.199549899999965, 38.6885233 ] } },
{ "type": "Feature", "properties": { "内容": "有限会社　クマショウ【福祉用具貸与】宮城県栗原市若柳字川北新中谷地230-1", "url2": "https://www.kaigokensaku.mhlw.go.jp/04/index.php?action_kouhyou_detail_004_kani=true&JigyosyoCd=0471302455-00&ServiceCd=170&Type=search" }, "geometry": { "type": "Point", "coordinates": [ 141.1480776, 38.7690309 ] } },
{ "type": "Feature", "properties": { "内容": "ゆうゆう工房【福祉用具貸与】宮城県栗原市一迫真坂字清水町田15-1", "url2": "https://www.kaigokensaku.mhlw.go.jp/04/index.php?action_kouhyou_detail_004_kani=true&JigyosyoCd=0471300343-00&ServiceCd=170&Type=search" }, "geometry": { "type": "Point", "coordinates": [ 140.9514706, 38.7374346 ] } },
{ "type": "Feature", "properties": { "内容": "みやぎ介護支援センターレンタル事業部【福祉用具貸与】宮城県栗原市若柳字川北古川１４番地８", "url2": "https://www.kaigokensaku.mhlw.go.jp/04/index.php?action_kouhyou_detail_004_kani=true&JigyosyoCd=0471301069-00&ServiceCd=170&Type=search" }, "geometry": { "type": "Point", "coordinates": [ 141.135141699999963, 38.771773 ] } },
{ "type": "Feature", "properties": { "内容": "有限会社　松野屋家具店【福祉用具貸与】宮城県栗原市若柳字川北52-1", "url2": "https://www.kaigokensaku.mhlw.go.jp/04/index.php?action_kouhyou_detail_004_kani=true&JigyosyoCd=0471300137-00&ServiceCd=170&Type=search" }, "geometry": { "type": "Point", "coordinates": [ 141.133600099999967, 38.7725645 ] } },
{ "type": "Feature", "properties": { "内容": "福祉用具販売・貸与事業所ｓｅｅｄｓ　栗原営業所【福祉用具貸与】宮城県栗原市栗駒岩ヶ崎八日町５番地", "url2": "https://www.kaigokensaku.mhlw.go.jp/04/index.php?action_kouhyou_detail_004_kani=true&JigyosyoCd=0471301861-00&ServiceCd=170&Type=search" }, "geometry": { "type": "Point", "coordinates": [ 140.994958900000029, 38.830818 ] } },
{ "type": "Feature", "properties": { "内容": "二宮メディカル矢本支店【福祉用具貸与】矢本字大溜347番エヌ・ワイやもと薬局内", "url2": "https://www.kaigokensaku.mhlw.go.jp/04/index.php?action_kouhyou_detail_004_kani=true&JigyosyoCd=0471400937-00&ServiceCd=170&Type=search" }, "geometry": { "type": "Point", "coordinates": [ 141.216910500000012, 38.4285072 ] } },
{ "type": "Feature", "properties": { "内容": "有限会社　矢本メディカルサプライ　介護レンタルショップ　パンジー【福祉用具貸与】宮城県東松島市小松字上浮足182番地11", "url2": "https://www.kaigokensaku.mhlw.go.jp/04/index.php?action_kouhyou_detail_004_kani=true&JigyosyoCd=0471400242-00&ServiceCd=170&Type=search" }, "geometry": { "type": "Point", "coordinates": [ 141.210827869793917, 38.427171833934494 ] } },
{ "type": "Feature", "properties": { "内容": "ダスキンヘルスレント古川ステーション【福祉用具貸与】宮城県大崎市古川字上古川西６１－１", "url2": "https://www.kaigokensaku.mhlw.go.jp/04/index.php?action_kouhyou_detail_004_kani=true&JigyosyoCd=0471501296-00&ServiceCd=170&Type=search" }, "geometry": { "type": "Point", "coordinates": [ 140.939338949491173, 38.589620317435561 ] } },
{ "type": "Feature", "properties": { "内容": "介護プラン　ひまわり【福祉用具貸与】宮城県大崎市古川幸町一丁目6番8号", "url2": "https://www.kaigokensaku.mhlw.go.jp/04/index.php?action_kouhyou_detail_004_kani=true&JigyosyoCd=0471500900-00&ServiceCd=170&Type=search" }, "geometry": { "type": "Point", "coordinates": [ 140.9678705, 38.576969 ] } },
{ "type": "Feature", "properties": { "内容": "株式会社サンメディカル宮城古川【福祉用具貸与】宮城県大崎市古川駅東二丁目8-3", "url2": "https://www.kaigokensaku.mhlw.go.jp/04/index.php?action_kouhyou_detail_004_kani=true&JigyosyoCd=0471502070-00&ServiceCd=170&Type=search" }, "geometry": { "type": "Point", "coordinates": [ 140.971253700000034, 38.5726836 ] } },
{ "type": "Feature", "properties": { "内容": "株式会社小田島アクティ介護用品部古川営業所【福祉用具貸与】宮城県大崎市古川福浦道ノ上103-1", "url2": "https://www.kaigokensaku.mhlw.go.jp/04/index.php?action_kouhyou_detail_004_kani=true&JigyosyoCd=0471500363-00&ServiceCd=170&Type=search" }, "geometry": { "type": "Point", "coordinates": [ 140.9585376, 38.5907282 ] } },
{ "type": "Feature", "properties": { "内容": "鳴子福祉用具専門店【福祉用具貸与】宮城県大崎市鳴子温泉字石ノ梅71-1", "url2": "https://www.kaigokensaku.mhlw.go.jp/04/index.php?action_kouhyou_detail_004_kani=true&JigyosyoCd=0471501544-00&ServiceCd=170&Type=search" }, "geometry": { "type": "Point", "coordinates": [ 140.756418538694646, 38.733042085947801 ] } },
{ "type": "Feature", "properties": { "内容": "株式会社アルプスビジネスクリエーション古川営業所【福祉用具貸与】宮城県大崎市古川休塚字南川原68-10", "url2": "https://www.kaigokensaku.mhlw.go.jp/04/index.php?action_kouhyou_detail_004_kani=true&JigyosyoCd=0471502021-00&ServiceCd=170&Type=search" }, "geometry": { "type": "Point", "coordinates": [ 140.974724700000024, 38.5906843 ] } },
{ "type": "Feature", "properties": { "内容": "株式会社ジェー・シー・アイ本社【福祉用具貸与】宮城県富谷市成田1丁目5-3", "url2": "https://www.kaigokensaku.mhlw.go.jp/04/index.php?action_kouhyou_detail_004_kani=true&JigyosyoCd=0471600122-00&ServiceCd=170&Type=search" }, "geometry": { "type": "Point", "coordinates": [ 140.8926246, 38.364898 ] } },
{ "type": "Feature", "properties": { "内容": "レンタルサービス南桜【福祉用具貸与】宮城県柴田郡大河原町字南桜町４－２", "url2": "https://www.kaigokensaku.mhlw.go.jp/04/index.php?action_kouhyou_detail_004_kani=true&JigyosyoCd=0472200963-00&ServiceCd=170&Type=search" }, "geometry": { "type": "Point", "coordinates": [ 140.741581, 38.0576672 ] } },
{ "type": "Feature", "properties": { "内容": "株式会社アルプスビジネスクリエーション　大河原営業所【福祉用具貸与】宮城県柴田郡大河原町新東31-6", "url2": "https://www.kaigokensaku.mhlw.go.jp/04/index.php?action_kouhyou_detail_004_kani=true&JigyosyoCd=0472201169-00&ServiceCd=170&Type=search" }, "geometry": { "type": "Point", "coordinates": [ 140.735300700000039, 38.0595863 ] } },
{ "type": "Feature", "properties": { "内容": "ダスキンヘルスレント仙南ステーション【福祉用具貸与】宮城県柴田郡大河原町金ヶ瀬丑越11-1郡山ビル", "url2": "https://www.kaigokensaku.mhlw.go.jp/04/index.php?action_kouhyou_detail_004_kani=true&JigyosyoCd=0472201276-00&ServiceCd=170&Type=search" }, "geometry": { "type": "Point", "coordinates": [ 140.7216664, 38.0458344 ] } },
{ "type": "Feature", "properties": { "内容": "ハウビングライフパートナー【福祉用具貸与】宮城県柴田郡柴田町船岡若葉町4-15", "url2": "https://www.kaigokensaku.mhlw.go.jp/04/index.php?action_kouhyou_detail_004_kani=true&JigyosyoCd=0472200518-00&ServiceCd=170&Type=search" }, "geometry": { "type": "Point", "coordinates": [ 140.775514, 38.0658737 ] } },
{ "type": "Feature", "properties": { "内容": "JA新みやぎふれ愛福祉センター小牛田【福祉用具貸与】宮城県遠田郡美里町中埣字夘時3-1", "url2": "https://www.kaigokensaku.mhlw.go.jp/04/index.php?action_kouhyou_detail_004_kani=true&JigyosyoCd=0473100253-00&ServiceCd=170&Type=search" }, "geometry": { "type": "Point", "coordinates": [ 141.03452249999998, 38.5792204 ] } }
]
}
