{
"type": "FeatureCollection",
"name": "geo_04_幼稚園",
"crs": { "type": "name", "properties": { "name": "urn:ogc:def:crs:EPSG::6668" } },
"features": [
{ "type": "Feature", "properties": { "P29_001": "04101", "P29_002": "A104110000019", "P29_003": "16011", "P29_004": "宮城教育大学附属幼稚園", "P29_005": "宮城県仙台市青葉区上杉6-4-1", "P29_006": "1", "P29_007": "0", "P29_008": "00", "P29_009": null }, "geometry": { "type": "Point", "coordinates": [ 140.877386535119598, 38.277564973590216 ] } },
{ "type": "Feature", "properties": { "P29_001": "04104", "P29_002": "A104221040016", "P29_003": "16011", "P29_004": "仙台市立あきう幼稚園", "P29_005": "宮城県仙台市太白区秋保町長袋字大原45-4", "P29_006": "3", "P29_007": "0", "P29_008": "00", "P29_009": null }, "geometry": { "type": "Point", "coordinates": [ 140.672073649020916, 38.258658207139852 ] } },
{ "type": "Feature", "properties": { "P29_001": "04202", "P29_002": "A104222020018", "P29_003": "16011", "P29_004": "石巻市立稲井幼稚園", "P29_005": "宮城県石巻市真野字八の坪116-2", "P29_006": "3", "P29_007": "0", "P29_008": "00", "P29_009": null }, "geometry": { "type": "Point", "coordinates": [ 141.35432858838044, 38.44796838628497 ] } },
{ "type": "Feature", "properties": { "P29_001": "04202", "P29_002": "A104222020027", "P29_003": "16011", "P29_004": "石巻市立住吉幼稚園", "P29_005": "宮城県石巻市南中里1-8-25", "P29_006": "3", "P29_007": "0", "P29_008": "00", "P29_009": null }, "geometry": { "type": "Point", "coordinates": [ 141.303239006303443, 38.440365002101558 ] } },
{ "type": "Feature", "properties": { "P29_001": "04202", "P29_002": "A104222020036", "P29_003": "16011", "P29_004": "石巻市立河北幼稚園", "P29_005": "宮城県石巻市相野谷字旧屋敷118", "P29_006": "3", "P29_007": "0", "P29_008": "00", "P29_009": null }, "geometry": { "type": "Point", "coordinates": [ 141.316566997499308, 38.516535997863826 ] } },
{ "type": "Feature", "properties": { "P29_001": "04202", "P29_002": "A104222020045", "P29_003": "16011", "P29_004": "石巻市立桃生幼稚園", "P29_005": "宮城県石巻市桃生町樫崎字高附5", "P29_006": "3", "P29_007": "0", "P29_008": "00", "P29_009": null }, "geometry": { "type": "Point", "coordinates": [ 141.274460578415216, 38.566516820791939 ] } },
{ "type": "Feature", "properties": { "P29_001": "04205", "P29_002": "A104222050011", "P29_003": "16011", "P29_004": "気仙沼市立唐桑幼稚園", "P29_005": "宮城県気仙沼市唐桑町馬場143-1", "P29_006": "3", "P29_007": "0", "P29_008": "00", "P29_009": null }, "geometry": { "type": "Point", "coordinates": [ 141.649775000614397, 38.90255700333082 ] } },
{ "type": "Feature", "properties": { "P29_001": "04205", "P29_002": "A104222050020", "P29_003": "16011", "P29_004": "気仙沼市立松圃幼稚園", "P29_005": "宮城県気仙沼市唐桑町神の倉1-1", "P29_006": "3", "P29_007": "0", "P29_008": "00", "P29_009": null }, "geometry": { "type": "Point", "coordinates": [ 141.661484686556236, 38.87862592174293 ] } },
{ "type": "Feature", "properties": { "P29_001": "04205", "P29_002": "A104222050039", "P29_003": "16011", "P29_004": "気仙沼市立小泉幼稚園", "P29_005": "宮城県気仙沼市本吉町平貝32", "P29_006": "3", "P29_007": "0", "P29_008": "00", "P29_009": null }, "geometry": { "type": "Point", "coordinates": [ 141.507642004508085, 38.766424996130944 ] } },
{ "type": "Feature", "properties": { "P29_001": "04205", "P29_002": "A104222050048", "P29_003": "16011", "P29_004": "気仙沼市立大谷幼稚園", "P29_005": "宮城県気仙沼市本吉町寺谷9-2", "P29_006": "3", "P29_007": "0", "P29_008": "00", "P29_009": null }, "geometry": { "type": "Point", "coordinates": [ 141.561103736285162, 38.821521200281985 ] } },
{ "type": "Feature", "properties": { "P29_001": "04205", "P29_002": "A104222050066", "P29_003": "16011", "P29_004": "気仙沼市立津谷幼稚園", "P29_005": "宮城県気仙沼市本吉町津谷松岡174-1", "P29_006": "3", "P29_007": "0", "P29_008": "00", "P29_009": null }, "geometry": { "type": "Point", "coordinates": [ 141.509230001576896, 38.788966002181454 ] } },
{ "type": "Feature", "properties": { "P29_001": "04206", "P29_002": "A104222060019", "P29_003": "16011", "P29_004": "白石市第一幼稚園", "P29_005": "宮城県白石市亘理町38-1", "P29_006": "3", "P29_007": "0", "P29_008": "00", "P29_009": null }, "geometry": { "type": "Point", "coordinates": [ 140.621767995569684, 38.008415000387885 ] } },
{ "type": "Feature", "properties": { "P29_001": "04206", "P29_002": "A104222060028", "P29_003": "16011", "P29_004": "白石市第二幼稚園", "P29_005": "宮城県白石市南町2-2-1", "P29_006": "3", "P29_007": "0", "P29_008": "00", "P29_009": null }, "geometry": { "type": "Point", "coordinates": [ 140.619785141751777, 37.996676836353338 ] } },
{ "type": "Feature", "properties": { "P29_001": "04212", "P29_002": "A104222120017", "P29_003": "16011", "P29_004": "登米市立南方幼稚園", "P29_005": "宮城県登米市南方町山成95-6", "P29_006": "3", "P29_007": "0", "P29_008": "00", "P29_009": null }, "geometry": { "type": "Point", "coordinates": [ 141.165713806305234, 38.659048163937896 ] } },
{ "type": "Feature", "properties": { "P29_001": "04212", "P29_002": "A104222120053", "P29_003": "16011", "P29_004": "登米市立北方幼稚園", "P29_005": "宮城県登米市迫町北方字富永109-2", "P29_006": "3", "P29_007": "0", "P29_008": "00", "P29_009": null }, "geometry": { "type": "Point", "coordinates": [ 141.160923581199739, 38.702505356188411 ] } },
{ "type": "Feature", "properties": { "P29_001": "04212", "P29_002": "A104222120062", "P29_003": "16011", "P29_004": "登米市立米山幼稚園", "P29_005": "宮城県登米市米山町中津山字清水24-1", "P29_006": "3", "P29_007": "0", "P29_008": "00", "P29_009": null }, "geometry": { "type": "Point", "coordinates": [ 141.165324755969351, 38.621667326101559 ] } },
{ "type": "Feature", "properties": { "P29_001": "04212", "P29_002": "A104222120080", "P29_003": "16011", "P29_004": "登米市立中田幼稚園", "P29_005": "宮城県登米市中田町宝江新井田字要害3-1", "P29_006": "3", "P29_007": "0", "P29_008": "00", "P29_009": null }, "geometry": { "type": "Point", "coordinates": [ 141.246906312661253, 38.679439245690823 ] } },
{ "type": "Feature", "properties": { "P29_001": "04212", "P29_002": "A104222120099", "P29_003": "16011", "P29_004": "登米市立新田幼稚園", "P29_005": "宮城県登米市迫町新田字山崎259-4", "P29_006": "3", "P29_007": "0", "P29_008": "00", "P29_009": null }, "geometry": { "type": "Point", "coordinates": [ 141.119578000221054, 38.706509002838246 ] } },
{ "type": "Feature", "properties": { "P29_001": "04213", "P29_002": "A104222130015", "P29_003": "16011", "P29_004": "栗原市立瀬峰幼稚園", "P29_005": "宮城県栗原市瀬峰清水山26-1", "P29_006": "3", "P29_007": "0", "P29_008": "00", "P29_009": null }, "geometry": { "type": "Point", "coordinates": [ 141.062136361973444, 38.654615824730037 ] } },
{ "type": "Feature", "properties": { "P29_001": "04213", "P29_002": "A104222130024", "P29_003": "16011", "P29_004": "栗原市立鶯沢幼稚園", "P29_005": "宮城県栗原市鶯沢南郷広面27", "P29_006": "3", "P29_007": "0", "P29_008": "00", "P29_009": null }, "geometry": { "type": "Point", "coordinates": [ 140.948187130340074, 38.811449323303187 ] } },
{ "type": "Feature", "properties": { "P29_001": "04213", "P29_002": "A104222130033", "P29_003": "16011", "P29_004": "栗原市立花山幼稚園", "P29_005": "宮城県栗原市花山字本沢北ノ前55", "P29_006": "3", "P29_007": "0", "P29_008": "00", "P29_009": null }, "geometry": { "type": "Point", "coordinates": [ 140.845616996923013, 38.793898999875395 ] } },
{ "type": "Feature", "properties": { "P29_001": "04213", "P29_002": "A104222130042", "P29_003": "16011", "P29_004": "栗原市立高清水幼稚園", "P29_005": "宮城県栗原市高清水佐野丁32", "P29_006": "3", "P29_007": "0", "P29_008": "00", "P29_009": null }, "geometry": { "type": "Point", "coordinates": [ 141.01345900130093, 38.659612998254374 ] } },
{ "type": "Feature", "properties": { "P29_001": "04213", "P29_002": "A104222130051", "P29_003": "16011", "P29_004": "栗原市立金成幼稚園", "P29_005": "宮城県栗原市金成沢辺町沖164", "P29_006": "3", "P29_007": "0", "P29_008": "00", "P29_009": null }, "geometry": { "type": "Point", "coordinates": [ 141.065241434702642, 38.801382639767375 ] } },
{ "type": "Feature", "properties": { "P29_001": "04213", "P29_002": "A104222130060", "P29_003": "16011", "P29_004": "栗原市立一迫幼稚園", "P29_005": "宮城県栗原市一迫真坂字新道満30", "P29_006": "3", "P29_007": "0", "P29_008": "00", "P29_009": null }, "geometry": { "type": "Point", "coordinates": [ 140.951054849202706, 38.742730488651659 ] } },
{ "type": "Feature", "properties": { "P29_001": "04213", "P29_002": "A104222130079", "P29_003": "16011", "P29_004": "栗原市立築館幼稚園", "P29_005": "宮城県栗原市築館伊豆1-5-1", "P29_006": "3", "P29_007": "0", "P29_008": "00", "P29_009": null }, "geometry": { "type": "Point", "coordinates": [ 141.024142000582344, 38.73311000112372 ] } },
{ "type": "Feature", "properties": { "P29_001": "04213", "P29_002": "A104222130088", "P29_003": "16011", "P29_004": "栗原市立栗駒幼稚園", "P29_005": "宮城県栗原市栗駒岩ケ崎上町裏207-1", "P29_006": "3", "P29_007": "0", "P29_008": "00", "P29_009": null }, "geometry": { "type": "Point", "coordinates": [ 140.994157001317888, 38.828173996473744 ] } },
{ "type": "Feature", "properties": { "P29_001": "04213", "P29_002": "A104222130097", "P29_003": "16011", "P29_004": "栗原市立志波姫幼稚園", "P29_005": "宮城県栗原市志波姫新沼崎156", "P29_006": "3", "P29_007": "0", "P29_008": "00", "P29_009": null }, "geometry": { "type": "Point", "coordinates": [ 141.062884522773032, 38.753242292628642 ] } },
{ "type": "Feature", "properties": { "P29_001": "04215", "P29_002": "A104222150010", "P29_003": "16011", "P29_004": "大崎市立大貫幼稚園", "P29_005": "宮城県大崎市田尻大貫字境36-1", "P29_006": "3", "P29_007": "0", "P29_008": "00", "P29_009": null }, "geometry": { "type": "Point", "coordinates": [ 141.106256971841589, 38.611070634876853 ] } },
{ "type": "Feature", "properties": { "P29_001": "04215", "P29_002": "A104222150029", "P29_003": "16011", "P29_004": "大崎市立鹿島台第一幼稚園", "P29_005": "宮城県大崎市鹿島台平渡字小沢9-19", "P29_006": "3", "P29_007": "0", "P29_008": "00", "P29_009": null }, "geometry": { "type": "Point", "coordinates": [ 141.09507300452043, 38.485225998919574 ] } },
{ "type": "Feature", "properties": { "P29_001": "04215", "P29_002": "A104222150038", "P29_003": "16011", "P29_004": "大崎市立鹿島台第二幼稚園", "P29_005": "宮城県大崎市鹿島台大迫字寺沢40-14", "P29_006": "3", "P29_007": "0", "P29_008": "00", "P29_009": null }, "geometry": { "type": "Point", "coordinates": [ 141.043251031888758, 38.461114558974714 ] } },
{ "type": "Feature", "properties": { "P29_001": "04215", "P29_002": "A104222150047", "P29_003": "16011", "P29_004": "大崎市立田尻幼稚園", "P29_005": "宮城県大崎市田尻通木字新一所谷1-1", "P29_006": "3", "P29_007": "0", "P29_008": "00", "P29_009": null }, "geometry": { "type": "Point", "coordinates": [ 141.019867914403335, 38.603875218245392 ] } },
{ "type": "Feature", "properties": { "P29_001": "04215", "P29_002": "A104222150056", "P29_003": "16011", "P29_004": "大崎市立にじの子幼稚園", "P29_005": "宮城県大崎市古川飯川字熊野59", "P29_006": "3", "P29_007": "0", "P29_008": "00", "P29_009": null }, "geometry": { "type": "Point", "coordinates": [ 140.915246763122553, 38.571407721890488 ] } },
{ "type": "Feature", "properties": { "P29_001": "04215", "P29_002": "A104222150065", "P29_003": "16011", "P29_004": "大崎市立清滝幼稚園", "P29_005": "宮城県大崎市古川清水沢字長泥30-2", "P29_006": "3", "P29_007": "0", "P29_008": "00", "P29_009": null }, "geometry": { "type": "Point", "coordinates": [ 140.967209845809975, 38.659978276345726 ] } },
{ "type": "Feature", "properties": { "P29_001": "04215", "P29_002": "A104222150074", "P29_003": "16011", "P29_004": "大崎市立東大崎幼稚園", "P29_005": "宮城県大崎市古川大崎字伏見梅田19", "P29_006": "3", "P29_007": "0", "P29_008": "00", "P29_009": null }, "geometry": { "type": "Point", "coordinates": [ 140.911193459927034, 38.603344777636522 ] } },
{ "type": "Feature", "properties": { "P29_001": "04215", "P29_002": "A104222150083", "P29_003": "16011", "P29_004": "大崎市立ゆめのさと幼稚園", "P29_005": "宮城県大崎市古川荒屋字樋ノ口62-2", "P29_006": "3", "P29_007": "0", "P29_008": "00", "P29_009": null }, "geometry": { "type": "Point", "coordinates": [ 140.974818211271582, 38.615841966193287 ] } },
{ "type": "Feature", "properties": { "P29_001": "04215", "P29_002": "A104222150092", "P29_003": "16011", "P29_004": "大崎市立富永幼稚園", "P29_005": "宮城県大崎市古川富長字五右エ門6-2", "P29_006": "3", "P29_007": "0", "P29_008": "00", "P29_009": null }, "geometry": { "type": "Point", "coordinates": [ 140.986889001948271, 38.59441900256104 ] } },
{ "type": "Feature", "properties": { "P29_001": "04215", "P29_002": "A104222150109", "P29_003": "16011", "P29_004": "大崎市立敷玉幼稚園", "P29_005": "宮城県大崎市古川石森字石神72", "P29_006": "3", "P29_007": "0", "P29_008": "00", "P29_009": null }, "geometry": { "type": "Point", "coordinates": [ 140.99255691624623, 38.544668826140295 ] } },
{ "type": "Feature", "properties": { "P29_001": "04215", "P29_002": "A104222150118", "P29_003": "16011", "P29_004": "大崎市立高倉幼稚園", "P29_005": "宮城県大崎市古川中沢字中沢屋敷242", "P29_006": "3", "P29_007": "0", "P29_008": "00", "P29_009": null }, "geometry": { "type": "Point", "coordinates": [ 140.915437799836383, 38.538744191211563 ] } },
{ "type": "Feature", "properties": { "P29_001": "04215", "P29_002": "A104222150127", "P29_003": "16011", "P29_004": "大崎市立川渡幼稚園", "P29_005": "宮城県大崎市鳴子温泉字築沢29", "P29_006": "3", "P29_007": "0", "P29_008": "00", "P29_009": null }, "geometry": { "type": "Point", "coordinates": [ 140.762814468092216, 38.731844552947706 ] } },
{ "type": "Feature", "properties": { "P29_001": "04215", "P29_002": "A104222150136", "P29_003": "16011", "P29_004": "大崎市立西古川幼稚園", "P29_005": "宮城県大崎市古川保柳字氏子114-1", "P29_006": "3", "P29_007": "0", "P29_008": "00", "P29_009": null }, "geometry": { "type": "Point", "coordinates": [ 140.896323005201992, 38.582769000739518 ] } },
{ "type": "Feature", "properties": { "P29_001": "04215", "P29_002": "A104222150145", "P29_003": "16011", "P29_004": "大崎市立鳴子幼稚園", "P29_005": "宮城県大崎市鳴子温泉字末沢59-1", "P29_006": "3", "P29_007": "0", "P29_008": "00", "P29_009": null }, "geometry": { "type": "Point", "coordinates": [ 140.722404017575769, 38.751071582459723 ] } },
{ "type": "Feature", "properties": { "P29_001": "04215", "P29_002": "A104222150154", "P29_003": "16011", "P29_004": "大崎市立田尻子育て支援総合施設すまいる園", "P29_005": "宮城県大崎市田尻沼部字新堀60", "P29_006": "3", "P29_007": "0", "P29_008": "00", "P29_009": null }, "geometry": { "type": "Point", "coordinates": [ 141.053859994548873, 38.599349996049007 ] } },
{ "type": "Feature", "properties": { "P29_001": "04215", "P29_002": "A104222150163", "P29_003": "16011", "P29_004": "大崎市立三本木子育て支援総合施設ひまわり園", "P29_005": "宮城県大崎市三本木字鹿野沢7-1", "P29_006": "3", "P29_007": "0", "P29_008": "00", "P29_009": null }, "geometry": { "type": "Point", "coordinates": [ 140.940121997672009, 38.520046997424387 ] } },
{ "type": "Feature", "properties": { "P29_001": "04215", "P29_002": "A104222150172", "P29_003": "16011", "P29_004": "大崎市立鹿島台子育て支援総合施設なかよし園", "P29_005": "宮城県大崎市鹿島台木間塚字小谷地478-1", "P29_006": "3", "P29_007": "0", "P29_008": "00", "P29_009": null }, "geometry": { "type": "Point", "coordinates": [ 141.100970216048466, 38.475445361826459 ] } },
{ "type": "Feature", "properties": { "P29_001": "04215", "P29_002": "A104222150181", "P29_003": "16011", "P29_004": "大崎市立松山子育て支援総合施設あおぞら園", "P29_005": "宮城県大崎市松山千石字舛形150-1", "P29_006": "3", "P29_007": "0", "P29_008": "00", "P29_009": null }, "geometry": { "type": "Point", "coordinates": [ 141.059314900773074, 38.515929019410862 ] } },
{ "type": "Feature", "properties": { "P29_001": "04216", "P29_002": "A104222160018", "P29_003": "16011", "P29_004": "富谷市立富谷幼稚園", "P29_005": "宮城県富谷市富谷字狸屋敷13", "P29_006": "3", "P29_007": "0", "P29_008": "00", "P29_009": null }, "geometry": { "type": "Point", "coordinates": [ 140.89308499499424, 38.399256001894521 ] } },
{ "type": "Feature", "properties": { "P29_001": "04301", "P29_002": "A104223010027", "P29_003": "16011", "P29_004": "蔵王町立永野幼稚園", "P29_005": "宮城県刈田郡蔵王町大字塩沢字上野29-23", "P29_006": "3", "P29_007": "0", "P29_008": "00", "P29_009": null }, "geometry": { "type": "Point", "coordinates": [ 140.666665792271999, 38.097188333210724 ] } },
{ "type": "Feature", "properties": { "P29_001": "04301", "P29_002": "A104223010036", "P29_003": "16011", "P29_004": "蔵王町立遠刈田幼稚園", "P29_005": "宮城県刈田郡蔵王町遠刈田温泉字遠刈田北山21-1", "P29_006": "3", "P29_007": "0", "P29_008": "00", "P29_009": null }, "geometry": { "type": "Point", "coordinates": [ 140.569565219227911, 38.125120011300339 ] } },
{ "type": "Feature", "properties": { "P29_001": "04322", "P29_002": "A104223220023", "P29_003": "16011", "P29_004": "村田町立村田幼稚園", "P29_005": "宮城県柴田郡村田町大字村田字北塩内41", "P29_006": "3", "P29_007": "0", "P29_008": "00", "P29_009": null }, "geometry": { "type": "Point", "coordinates": [ 140.717967998916038, 38.118380001697744 ] } },
{ "type": "Feature", "properties": { "P29_001": "04323", "P29_002": "A104223230012", "P29_003": "16011", "P29_004": "柴田町立第一幼稚園", "P29_005": "宮城県柴田郡柴田町船岡東1-2-60", "P29_006": "3", "P29_007": "0", "P29_008": "00", "P29_009": null }, "geometry": { "type": "Point", "coordinates": [ 140.775392410864896, 38.059438331995402 ] } },
{ "type": "Feature", "properties": { "P29_001": "04324", "P29_002": "A104223240010", "P29_003": "16011", "P29_004": "川崎町立富岡幼稚園", "P29_005": "宮城県柴田郡川崎町大字支倉字落田郷山8-3", "P29_006": "3", "P29_007": "0", "P29_008": "00", "P29_009": null }, "geometry": { "type": "Point", "coordinates": [ 140.725247630518993, 38.189222763923524 ] } },
{ "type": "Feature", "properties": { "P29_001": "04401", "P29_002": "A104224010016", "P29_003": "16011", "P29_004": "松島町立松島第一幼稚園", "P29_005": "宮城県宮城郡松島町松島字道珍浜15", "P29_006": "3", "P29_007": "0", "P29_008": "00", "P29_009": null }, "geometry": { "type": "Point", "coordinates": [ 141.065791124779992, 38.375383433980794 ] } },
{ "type": "Feature", "properties": { "P29_001": "04401", "P29_002": "A104224010034", "P29_003": "16011", "P29_004": "松島町立松島第五幼稚園", "P29_005": "宮城県宮城郡松島町幡谷字新田5-1", "P29_006": "3", "P29_007": "0", "P29_008": "00", "P29_009": null }, "geometry": { "type": "Point", "coordinates": [ 141.077875146175188, 38.430280690382141 ] } },
{ "type": "Feature", "properties": { "P29_001": "04444", "P29_002": "A104224440016", "P29_003": "16011", "P29_004": "色麻町立色麻幼稚園", "P29_005": "宮城県加美郡色麻町清水字香ノ木前29", "P29_006": "3", "P29_007": "0", "P29_008": "00", "P29_009": null }, "geometry": { "type": "Point", "coordinates": [ 140.819794778163129, 38.561674087155104 ] } },
{ "type": "Feature", "properties": { "P29_001": "04501", "P29_002": "A104225010013", "P29_003": "16011", "P29_004": "涌谷町立さくらんぼこども園", "P29_005": "宮城県遠田郡涌谷町上郡字永根1-2", "P29_006": "3", "P29_007": "0", "P29_008": "00", "P29_009": null }, "geometry": { "type": "Point", "coordinates": [ 141.114837971367422, 38.562352438380344 ] } },
{ "type": "Feature", "properties": { "P29_001": "04501", "P29_002": "A104225010022", "P29_003": "16011", "P29_004": "涌谷町立涌谷幼稚園", "P29_005": "宮城県遠田郡涌谷町蔵人沖名242", "P29_006": "3", "P29_007": "0", "P29_008": "00", "P29_009": null }, "geometry": { "type": "Point", "coordinates": [ 141.118790955088372, 38.547130178409411 ] } },
{ "type": "Feature", "properties": { "P29_001": "04501", "P29_002": "A104225010031", "P29_003": "16011", "P29_004": "涌谷町立ののだけ幼稚園", "P29_005": "宮城県遠田郡涌谷町猪岡短台字愛宕11-3", "P29_006": "3", "P29_007": "0", "P29_008": "00", "P29_009": null }, "geometry": { "type": "Point", "coordinates": [ 141.192429004894308, 38.561316999515995 ] } },
{ "type": "Feature", "properties": { "P29_001": "04501", "P29_002": "A104225010040", "P29_003": "16011", "P29_004": "涌谷町立涌谷南幼稚園", "P29_005": "宮城県遠田郡涌谷町字下道108-1", "P29_006": "3", "P29_007": "0", "P29_008": "00", "P29_009": null }, "geometry": { "type": "Point", "coordinates": [ 141.132398113685895, 38.535336495445812 ] } },
{ "type": "Feature", "properties": { "P29_001": "04505", "P29_002": "A104225050014", "P29_003": "16011", "P29_004": "美里町立なんごう幼稚園", "P29_005": "宮城県遠田郡美里町木間塚字中央1", "P29_006": "3", "P29_007": "0", "P29_008": "00", "P29_009": null }, "geometry": { "type": "Point", "coordinates": [ 141.136490165520371, 38.487646536021764 ] } },
{ "type": "Feature", "properties": { "P29_001": "04505", "P29_002": "A104225050023", "P29_003": "16011", "P29_004": "美里町立ふどうどう幼稚園", "P29_005": "宮城県遠田郡美里町字志賀町3-2-1", "P29_006": "3", "P29_007": "0", "P29_008": "00", "P29_009": null }, "geometry": { "type": "Point", "coordinates": [ 141.06867209422083, 38.52996080307301 ] } },
{ "type": "Feature", "properties": { "P29_001": "04505", "P29_002": "A104225050032", "P29_003": "16011", "P29_004": "美里町立こごた幼稚園", "P29_005": "宮城県遠田郡美里町北浦字中新田142", "P29_006": "3", "P29_007": "0", "P29_008": "00", "P29_009": null }, "geometry": { "type": "Point", "coordinates": [ 141.044791870965895, 38.555413737811577 ] } },
{ "type": "Feature", "properties": { "P29_001": "04101", "P29_002": "A104391010013", "P29_003": "16011", "P29_004": "聖ドミニコ学院幼稚園", "P29_005": "宮城県仙台市青葉区角五郎2-2-14", "P29_006": "4", "P29_007": "0", "P29_008": "00", "P29_009": null }, "geometry": { "type": "Point", "coordinates": [ 140.848114105073478, 38.265736486091768 ] } },
{ "type": "Feature", "properties": { "P29_001": "04101", "P29_002": "A104391010022", "P29_003": "16011", "P29_004": "聖ドミニコ学院北仙台幼稚園", "P29_005": "宮城県仙台市青葉区堤通雨宮町11-11", "P29_006": "4", "P29_007": "0", "P29_008": "00", "P29_009": null }, "geometry": { "type": "Point", "coordinates": [ 140.867715645426728, 38.278380469568312 ] } },
{ "type": "Feature", "properties": { "P29_001": "04101", "P29_002": "A104391010031", "P29_003": "16011", "P29_004": "お人形社幼稚園", "P29_005": "宮城県仙台市青葉区木町通2-1-48", "P29_006": "4", "P29_007": "0", "P29_008": "00", "P29_009": null }, "geometry": { "type": "Point", "coordinates": [ 140.868081674122266, 38.273101594312315 ] } },
{ "type": "Feature", "properties": { "P29_001": "04101", "P29_002": "A104391010040", "P29_003": "16011", "P29_004": "わかくさ幼稚園", "P29_005": "宮城県仙台市青葉区北根黒松16-1", "P29_006": "4", "P29_007": "0", "P29_008": "00", "P29_009": null }, "geometry": { "type": "Point", "coordinates": [ 140.881726422568164, 38.302621135292483 ] } },
{ "type": "Feature", "properties": { "P29_001": "04101", "P29_002": "A104391010059", "P29_003": "16011", "P29_004": "仙台ＹＭＣＡ幼稚園", "P29_005": "宮城県仙台市青葉区立町9-7", "P29_006": "4", "P29_007": "0", "P29_008": "00", "P29_009": null }, "geometry": { "type": "Point", "coordinates": [ 140.863665207432518, 38.26255397623472 ] } },
{ "type": "Feature", "properties": { "P29_001": "04101", "P29_002": "A104391010068", "P29_003": "16011", "P29_004": "仙台バプテスト教会幼稚園", "P29_005": "宮城県仙台市青葉区木町通2-1-5", "P29_006": "4", "P29_007": "0", "P29_008": "00", "P29_009": null }, "geometry": { "type": "Point", "coordinates": [ 140.86843499700646, 38.272526002607322 ] } },
{ "type": "Feature", "properties": { "P29_001": "04101", "P29_002": "A104391010077", "P29_003": "16011", "P29_004": "聖クリストファ幼稚園", "P29_005": "宮城県仙台市青葉区小松島3-1-77", "P29_006": "4", "P29_007": "0", "P29_008": "00", "P29_009": null }, "geometry": { "type": "Point", "coordinates": [ 140.885915142833966, 38.282248520318802 ] } },
{ "type": "Feature", "properties": { "P29_001": "04101", "P29_002": "A104391010086", "P29_003": "16011", "P29_004": "おたまや幼稚園", "P29_005": "宮城県仙台市青葉区霊屋下23-5", "P29_006": "4", "P29_007": "0", "P29_008": "00", "P29_009": null }, "geometry": { "type": "Point", "coordinates": [ 140.866000929910598, 38.251654069916782 ] } },
{ "type": "Feature", "properties": { "P29_001": "04101", "P29_002": "A104391010095", "P29_003": "16011", "P29_004": "旭ケ丘幼稚園", "P29_005": "宮城県仙台市青葉区旭ヶ丘2-22-21", "P29_006": "4", "P29_007": "0", "P29_008": "00", "P29_009": null }, "geometry": { "type": "Point", "coordinates": [ 140.889791996262318, 38.293924002431723 ] } },
{ "type": "Feature", "properties": { "P29_001": "04101", "P29_002": "A104391010102", "P29_003": "16011", "P29_004": "緑ケ丘第二幼稚園", "P29_005": "宮城県仙台市青葉区旭ヶ丘4-8-17", "P29_006": "4", "P29_007": "0", "P29_008": "00", "P29_009": null }, "geometry": { "type": "Point", "coordinates": [ 140.888486001036512, 38.300130999833605 ] } },
{ "type": "Feature", "properties": { "P29_001": "04101", "P29_002": "A104391010111", "P29_003": "16011", "P29_004": "愛子幼稚園", "P29_005": "宮城県仙台市青葉区愛子東6-4-15", "P29_006": "4", "P29_007": "0", "P29_008": "00", "P29_009": null }, "geometry": { "type": "Point", "coordinates": [ 140.766769597257223, 38.272294349210654 ] } },
{ "type": "Feature", "properties": { "P29_001": "04101", "P29_002": "A104391010120", "P29_003": "16011", "P29_004": "双葉幼稚園", "P29_005": "宮城県仙台市青葉区中山8-12-15", "P29_006": "4", "P29_007": "0", "P29_008": "00", "P29_009": null }, "geometry": { "type": "Point", "coordinates": [ 140.832775997821216, 38.295789998456272 ] } },
{ "type": "Feature", "properties": { "P29_001": "04101", "P29_002": "A104391010148", "P29_003": "16011", "P29_004": "ふたばバンビ幼稚園", "P29_005": "宮城県仙台市青葉区中山吉成2-2-27", "P29_006": "4", "P29_007": "0", "P29_008": "00", "P29_009": null }, "geometry": { "type": "Point", "coordinates": [ 140.821929229978053, 38.29688969265942 ] } },
{ "type": "Feature", "properties": { "P29_001": "04101", "P29_002": "A104391010157", "P29_003": "16011", "P29_004": "あらまき幼稚園", "P29_005": "宮城県仙台市青葉区荒巻中央11-5", "P29_006": "4", "P29_007": "0", "P29_008": "00", "P29_009": null }, "geometry": { "type": "Point", "coordinates": [ 140.859786699837144, 38.29093943945923 ] } },
{ "type": "Feature", "properties": { "P29_001": "04101", "P29_002": "A104391010166", "P29_003": "16011", "P29_004": "友愛幼稚園", "P29_005": "宮城県仙台市青葉区上愛子字下遠野原15-59", "P29_006": "4", "P29_007": "0", "P29_008": "00", "P29_009": null }, "geometry": { "type": "Point", "coordinates": [ 140.7266683950036, 38.270469044802198 ] } },
{ "type": "Feature", "properties": { "P29_001": "04101", "P29_002": "A104391010175", "P29_003": "16011", "P29_004": "大沢幼稚園", "P29_005": "宮城県仙台市青葉区芋沢字平36-2", "P29_006": "4", "P29_007": "0", "P29_008": "00", "P29_009": null }, "geometry": { "type": "Point", "coordinates": [ 140.771494000051462, 38.301803998295725 ] } },
{ "type": "Feature", "properties": { "P29_001": "04101", "P29_002": "A104391010184", "P29_003": "16011", "P29_004": "音の光幼稚園", "P29_005": "宮城県仙台市青葉区南吉成4-13-1", "P29_006": "4", "P29_007": "0", "P29_008": "00", "P29_009": null }, "geometry": { "type": "Point", "coordinates": [ 140.815862590672765, 38.288579585157116 ] } },
{ "type": "Feature", "properties": { "P29_001": "04101", "P29_002": "A104391010193", "P29_003": "16011", "P29_004": "東二番丁幼稚園", "P29_005": "宮城県仙台市青葉区一番町2-1-4", "P29_006": "4", "P29_007": "0", "P29_008": "00", "P29_009": null }, "geometry": { "type": "Point", "coordinates": [ 140.874223627369105, 38.259281646203924 ] } },
{ "type": "Feature", "properties": { "P29_001": "04102", "P29_002": "A104391020011", "P29_003": "16011", "P29_004": "ナザレト幼稚園", "P29_005": "宮城県仙台市宮城野区東仙台6-8-15", "P29_006": "4", "P29_007": "0", "P29_008": "00", "P29_009": null }, "geometry": { "type": "Point", "coordinates": [ 140.912659036054805, 38.280354789998761 ] } },
{ "type": "Feature", "properties": { "P29_001": "04102", "P29_002": "A104391020020", "P29_003": "16011", "P29_004": "東岡幼稚園", "P29_005": "宮城県仙台市宮城野区原町2-1-66", "P29_006": "4", "P29_007": "0", "P29_008": "00", "P29_009": null }, "geometry": { "type": "Point", "coordinates": [ 140.901101535119125, 38.265835776056804 ] } },
{ "type": "Feature", "properties": { "P29_001": "04102", "P29_002": "A104391020048", "P29_003": "16011", "P29_004": "なかの幼稚園", "P29_005": "宮城県仙台市宮城野区中野字阿弥陀堂39", "P29_006": "4", "P29_007": "0", "P29_008": "00", "P29_009": null }, "geometry": { "type": "Point", "coordinates": [ 140.97579554607816, 38.279542326492937 ] } },
{ "type": "Feature", "properties": { "P29_001": "04102", "P29_002": "A104391020057", "P29_003": "16011", "P29_004": "はなぶさ幼稚園", "P29_005": "宮城県仙台市宮城野区小鶴1-9-20", "P29_006": "4", "P29_007": "0", "P29_008": "00", "P29_009": null }, "geometry": { "type": "Point", "coordinates": [ 140.927792048925056, 38.284431137562898 ] } },
{ "type": "Feature", "properties": { "P29_001": "04102", "P29_002": "A104391020066", "P29_003": "16011", "P29_004": "ふくむろ幼稚園", "P29_005": "宮城県仙台市宮城野区福室5-11-30", "P29_006": "4", "P29_007": "0", "P29_008": "00", "P29_009": null }, "geometry": { "type": "Point", "coordinates": [ 140.971396999339703, 38.28196877115743 ] } },
{ "type": "Feature", "properties": { "P29_001": "04102", "P29_002": "A104391020075", "P29_003": "16011", "P29_004": "認定こども園東仙台幼稚園", "P29_005": "宮城県仙台市宮城野区燕沢1-15-25", "P29_006": "4", "P29_007": "0", "P29_008": "00", "P29_009": null }, "geometry": { "type": "Point", "coordinates": [ 140.920546004376973, 38.280653997738995 ] } },
{ "type": "Feature", "properties": { "P29_001": "04102", "P29_002": "A104391020084", "P29_003": "16011", "P29_004": "志波幼稚園", "P29_005": "宮城県仙台市宮城野区宮千代2-20-6", "P29_006": "4", "P29_007": "0", "P29_008": "00", "P29_009": null }, "geometry": { "type": "Point", "coordinates": [ 140.914975098612274, 38.253861904897235 ] } },
{ "type": "Feature", "properties": { "P29_001": "04102", "P29_002": "A104391020093", "P29_003": "16011", "P29_004": "さいわい幼稚園", "P29_005": "宮城県仙台市宮城野区幸町3-3-3", "P29_006": "4", "P29_007": "0", "P29_008": "00", "P29_009": null }, "geometry": { "type": "Point", "coordinates": [ 140.89961499906309, 38.27642299891604 ] } },
{ "type": "Feature", "properties": { "P29_001": "04102", "P29_002": "A104391020100", "P29_003": "16011", "P29_004": "清水幼稚園", "P29_005": "宮城県仙台市宮城野区清水沼3-4-10", "P29_006": "4", "P29_007": "0", "P29_008": "00", "P29_009": null }, "geometry": { "type": "Point", "coordinates": [ 140.901923544822296, 38.266872970762584 ] } },
{ "type": "Feature", "properties": { "P29_001": "04102", "P29_002": "A104391020119", "P29_003": "16011", "P29_004": "お人形社第二幼稚園", "P29_005": "宮城県仙台市宮城野区鶴ヶ谷2-2", "P29_006": "4", "P29_007": "0", "P29_008": "00", "P29_009": null }, "geometry": { "type": "Point", "coordinates": [ 140.91353199607596, 38.287717001930766 ] } },
{ "type": "Feature", "properties": { "P29_001": "04102", "P29_002": "A104391020128", "P29_003": "16011", "P29_004": "鶴ケ谷幼稚園", "P29_005": "宮城県仙台市宮城野区鶴ヶ谷4-13", "P29_006": "4", "P29_007": "0", "P29_008": "00", "P29_009": null }, "geometry": { "type": "Point", "coordinates": [ 140.906916093266517, 38.292231697825507 ] } },
{ "type": "Feature", "properties": { "P29_001": "04102", "P29_002": "A104391020137", "P29_003": "16011", "P29_004": "東陽幼稚園", "P29_005": "宮城県仙台市宮城野区鶴ヶ谷6-9", "P29_006": "4", "P29_007": "0", "P29_008": "00", "P29_009": null }, "geometry": { "type": "Point", "coordinates": [ 140.923519867106108, 38.290956532382012 ] } },
{ "type": "Feature", "properties": { "P29_001": "04102", "P29_002": "A104391020146", "P29_003": "16011", "P29_004": "あけぼの幼稚園", "P29_005": "宮城県仙台市宮城野区高砂1-7-1", "P29_006": "4", "P29_007": "0", "P29_008": "00", "P29_009": null }, "geometry": { "type": "Point", "coordinates": [ 140.971766920481741, 38.271161343500864 ] } },
{ "type": "Feature", "properties": { "P29_001": "04102", "P29_002": "A104391020155", "P29_003": "16011", "P29_004": "みやぎ幼稚園", "P29_005": "宮城県仙台市宮城野区幸町2-9-25", "P29_006": "4", "P29_007": "0", "P29_008": "00", "P29_009": null }, "geometry": { "type": "Point", "coordinates": [ 140.894793739740578, 38.274418186562116 ] } },
{ "type": "Feature", "properties": { "P29_001": "04102", "P29_002": "A104391020164", "P29_003": "16011", "P29_004": "上田子幼稚園", "P29_005": "宮城県仙台市宮城野区田子3-13-36", "P29_006": "4", "P29_007": "0", "P29_008": "00", "P29_009": null }, "geometry": { "type": "Point", "coordinates": [ 140.962044571024933, 38.284806423124962 ] } },
{ "type": "Feature", "properties": { "P29_001": "04102", "P29_002": "A104391020173", "P29_003": "16011", "P29_004": "ふくだまち幼稚園", "P29_005": "宮城県仙台市宮城野区福田町2-26-1", "P29_006": "4", "P29_007": "0", "P29_008": "00", "P29_009": null }, "geometry": { "type": "Point", "coordinates": [ 140.963101999498235, 38.265992998026007 ] } },
{ "type": "Feature", "properties": { "P29_001": "04102", "P29_002": "A104391020182", "P29_003": "16011", "P29_004": "しらとり幼稚園", "P29_005": "宮城県仙台市宮城野区白鳥2-11-24", "P29_006": "4", "P29_007": "0", "P29_008": "00", "P29_009": null }, "geometry": { "type": "Point", "coordinates": [ 140.98232872662922, 38.264204648931319 ] } },
{ "type": "Feature", "properties": { "P29_001": "04103", "P29_002": "A104391030019", "P29_003": "16011", "P29_004": "幼稚園型認定こども園聖ウルスラ学院英智幼稚園", "P29_005": "宮城県仙台市若林区木ノ下1-25-25", "P29_006": "4", "P29_007": "0", "P29_008": "00", "P29_009": null }, "geometry": { "type": "Point", "coordinates": [ 140.897126803298704, 38.249751030167118 ] } },
{ "type": "Feature", "properties": { "P29_001": "04103", "P29_002": "A104391030028", "P29_003": "16011", "P29_004": "聖和幼稚園", "P29_005": "宮城県仙台市若林区木ノ下4-3-14", "P29_006": "4", "P29_007": "0", "P29_008": "00", "P29_009": null }, "geometry": { "type": "Point", "coordinates": [ 140.900897998310541, 38.249297996143326 ] } },
{ "type": "Feature", "properties": { "P29_001": "04103", "P29_002": "A104391030037", "P29_003": "16011", "P29_004": "古城幼稚園", "P29_005": "宮城県仙台市若林区河原町2-2-7", "P29_006": "4", "P29_007": "0", "P29_008": "00", "P29_009": null }, "geometry": { "type": "Point", "coordinates": [ 140.893818001189317, 38.239223997353029 ] } },
{ "type": "Feature", "properties": { "P29_001": "04103", "P29_002": "A104391030046", "P29_003": "16011", "P29_004": "若林幼稚園", "P29_005": "宮城県仙台市若林区若林4-1-24", "P29_006": "4", "P29_007": "0", "P29_008": "00", "P29_009": null }, "geometry": { "type": "Point", "coordinates": [ 140.900229002439119, 38.230706000793639 ] } },
{ "type": "Feature", "properties": { "P29_001": "04103", "P29_002": "A104391030055", "P29_003": "16011", "P29_004": "小さき花幼稚園", "P29_005": "宮城県仙台市若林区畳屋丁31", "P29_006": "4", "P29_007": "0", "P29_008": "00", "P29_009": null }, "geometry": { "type": "Point", "coordinates": [ 140.890151615770236, 38.245588053708175 ] } },
{ "type": "Feature", "properties": { "P29_001": "04103", "P29_002": "A104391030064", "P29_003": "16011", "P29_004": "天苗幼稚園", "P29_005": "宮城県仙台市若林区荒町205", "P29_006": "4", "P29_007": "0", "P29_008": "00", "P29_009": null }, "geometry": { "type": "Point", "coordinates": [ 140.885851407233758, 38.249723474811226 ] } },
{ "type": "Feature", "properties": { "P29_001": "04103", "P29_002": "A104391030073", "P29_003": "16011", "P29_004": "エコールノワール幼稚園", "P29_005": "宮城県仙台市若林区大和町1-17-25", "P29_006": "4", "P29_007": "0", "P29_008": "00", "P29_009": null }, "geometry": { "type": "Point", "coordinates": [ 140.908292359691075, 38.246868563072468 ] } },
{ "type": "Feature", "properties": { "P29_001": "04103", "P29_002": "A104391030082", "P29_003": "16011", "P29_004": "六郷幼稚園", "P29_005": "宮城県仙台市若林区沖野5-4-33", "P29_006": "4", "P29_007": "0", "P29_008": "00", "P29_009": null }, "geometry": { "type": "Point", "coordinates": [ 140.910550997962304, 38.223720998985208 ] } },
{ "type": "Feature", "properties": { "P29_001": "04103", "P29_002": "A104391030091", "P29_003": "16011", "P29_004": "やまと幼稚園", "P29_005": "宮城県仙台市若林区大和町3-15-28", "P29_006": "4", "P29_007": "0", "P29_008": "00", "P29_009": null }, "geometry": { "type": "Point", "coordinates": [ 140.91844300288048, 38.246195001913058 ] } },
{ "type": "Feature", "properties": { "P29_001": "04103", "P29_002": "A104391030108", "P29_003": "16011", "P29_004": "ドリーム幼稚園", "P29_005": "宮城県仙台市若林区下飯田字築道11", "P29_006": "4", "P29_007": "0", "P29_008": "00", "P29_009": null }, "geometry": { "type": "Point", "coordinates": [ 140.939212996980245, 38.215900003880307 ] } },
{ "type": "Feature", "properties": { "P29_001": "04103", "P29_002": "A104391030117", "P29_003": "16011", "P29_004": "七郷幼稚園", "P29_005": "宮城県仙台市若林区荒井3-15-9", "P29_006": "4", "P29_007": "0", "P29_008": "00", "P29_009": null }, "geometry": { "type": "Point", "coordinates": [ 140.943261848743617, 38.24191601520296 ] } },
{ "type": "Feature", "properties": { "P29_001": "04103", "P29_002": "A104391030135", "P29_003": "16011", "P29_004": "認定こども園るり幼稚園", "P29_005": "宮城県仙台市若林区六丁の目南町4-38", "P29_006": "4", "P29_007": "0", "P29_008": "00", "P29_009": null }, "geometry": { "type": "Point", "coordinates": [ 140.939011998809548, 38.249198002651802 ] } },
{ "type": "Feature", "properties": { "P29_001": "04104", "P29_002": "A104391040017", "P29_003": "16011", "P29_004": "東北生活文化大学短期大学部附属ますみ幼稚園", "P29_005": "宮城県仙台市太白区向山4-26-34", "P29_006": "4", "P29_007": "0", "P29_008": "00", "P29_009": null }, "geometry": { "type": "Point", "coordinates": [ 140.879881657391564, 38.242962742349079 ] } },
{ "type": "Feature", "properties": { "P29_001": "04104", "P29_002": "A104391040026", "P29_003": "16011", "P29_004": "西多賀幼稚園", "P29_005": "宮城県仙台市太白区金剛沢1-5-35", "P29_006": "4", "P29_007": "0", "P29_008": "00", "P29_009": null }, "geometry": { "type": "Point", "coordinates": [ 140.847874994752743, 38.231675997992156 ] } },
{ "type": "Feature", "properties": { "P29_001": "04104", "P29_002": "A104391040035", "P29_003": "16011", "P29_004": "中田幼稚園", "P29_005": "宮城県仙台市太白区中田1-8-17", "P29_006": "4", "P29_007": "0", "P29_008": "00", "P29_009": null }, "geometry": { "type": "Point", "coordinates": [ 140.883957890845522, 38.201107892290615 ] } },
{ "type": "Feature", "properties": { "P29_001": "04104", "P29_002": "A104391040044", "P29_003": "16011", "P29_004": "ひろせ幼稚園", "P29_005": "宮城県仙台市太白区長町4-2-37", "P29_006": "4", "P29_007": "0", "P29_008": "00", "P29_009": null }, "geometry": { "type": "Point", "coordinates": [ 140.883246372791348, 38.231148220525256 ] } },
{ "type": "Feature", "properties": { "P29_001": "04104", "P29_002": "A104391040053", "P29_003": "16011", "P29_004": "認定こども園若竹幼稚園", "P29_005": "宮城県仙台市太白区四郎丸字吹上23", "P29_006": "4", "P29_007": "0", "P29_008": "00", "P29_009": null }, "geometry": { "type": "Point", "coordinates": [ 140.912479993850638, 38.192523998632218 ] } },
{ "type": "Feature", "properties": { "P29_001": "04104", "P29_002": "A104391040062", "P29_003": "16011", "P29_004": "太陽幼稚園", "P29_005": "宮城県仙台市太白区砂押南町1-10", "P29_006": "4", "P29_007": "0", "P29_008": "00", "P29_009": null }, "geometry": { "type": "Point", "coordinates": [ 140.869329004426703, 38.227158997882448 ] } },
{ "type": "Feature", "properties": { "P29_001": "04104", "P29_002": "A104391040071", "P29_003": "16011", "P29_004": "第二ひろせ幼稚園", "P29_005": "宮城県仙台市太白区土手内2-5-31", "P29_006": "4", "P29_007": "0", "P29_008": "00", "P29_009": null }, "geometry": { "type": "Point", "coordinates": [ 140.862228410990184, 38.230323192174438 ] } },
{ "type": "Feature", "properties": { "P29_001": "04104", "P29_002": "A104391040080", "P29_003": "16011", "P29_004": "八木山カトリック幼稚園", "P29_005": "宮城県仙台市太白区松が丘44-1", "P29_006": "4", "P29_007": "0", "P29_008": "00", "P29_009": null }, "geometry": { "type": "Point", "coordinates": [ 140.847924735118625, 38.240147770048075 ] } },
{ "type": "Feature", "properties": { "P29_001": "04104", "P29_002": "A104391040099", "P29_003": "16011", "P29_004": "やまびこ幼稚園", "P29_005": "宮城県仙台市太白区旗立3-8-30", "P29_006": "4", "P29_007": "0", "P29_008": "00", "P29_009": null }, "geometry": { "type": "Point", "coordinates": [ 140.810767400493035, 38.225691092170777 ] } },
{ "type": "Feature", "properties": { "P29_001": "04104", "P29_002": "A104391040106", "P29_003": "16011", "P29_004": "袋原幼稚園", "P29_005": "宮城県仙台市太白区東中田3-25-6", "P29_006": "4", "P29_007": "0", "P29_008": "00", "P29_009": null }, "geometry": { "type": "Point", "coordinates": [ 140.90533930789303, 38.201906852217896 ] } },
{ "type": "Feature", "properties": { "P29_001": "04104", "P29_002": "A104391040115", "P29_003": "16011", "P29_004": "光塩幼稚園", "P29_005": "宮城県仙台市太白区鈎取2-2-6", "P29_006": "4", "P29_007": "0", "P29_008": "00", "P29_009": null }, "geometry": { "type": "Point", "coordinates": [ 140.843276150936703, 38.224525793278914 ] } },
{ "type": "Feature", "properties": { "P29_001": "04104", "P29_002": "A104391040124", "P29_003": "16011", "P29_004": "富沢幼稚園", "P29_005": "宮城県仙台市太白区富沢3-1-13", "P29_006": "4", "P29_007": "0", "P29_008": "00", "P29_009": null }, "geometry": { "type": "Point", "coordinates": [ 140.864702724508618, 38.217152019144585 ] } },
{ "type": "Feature", "properties": { "P29_001": "04104", "P29_002": "A104391040133", "P29_003": "16011", "P29_004": "しげる幼稚園", "P29_005": "宮城県仙台市太白区郡山4-13-4", "P29_006": "4", "P29_007": "0", "P29_008": "00", "P29_009": null }, "geometry": { "type": "Point", "coordinates": [ 140.895676646736405, 38.222357805454756 ] } },
{ "type": "Feature", "properties": { "P29_001": "04104", "P29_002": "A104391040142", "P29_003": "16011", "P29_004": "聖ルカ幼稚園", "P29_005": "宮城県仙台市太白区八木山南3-3-4", "P29_006": "4", "P29_007": "0", "P29_008": "00", "P29_009": null }, "geometry": { "type": "Point", "coordinates": [ 140.83509899965577, 38.235550998169501 ] } },
{ "type": "Feature", "properties": { "P29_001": "04104", "P29_002": "A104391040151", "P29_003": "16011", "P29_004": "すがわら幼稚園", "P29_005": "宮城県仙台市太白区郡山6-2-40", "P29_006": "4", "P29_007": "0", "P29_008": "00", "P29_009": null }, "geometry": { "type": "Point", "coordinates": [ 140.88842800469746, 38.220561998668096 ] } },
{ "type": "Feature", "properties": { "P29_001": "04104", "P29_002": "A104391040160", "P29_003": "16011", "P29_004": "大野田幼稚園", "P29_005": "宮城県仙台市太白区大野田4-8-12", "P29_006": "4", "P29_007": "0", "P29_008": "00", "P29_009": null }, "geometry": { "type": "Point", "coordinates": [ 140.876030288963932, 38.212025466537277 ] } },
{ "type": "Feature", "properties": { "P29_001": "04104", "P29_002": "A104391040179", "P29_003": "16011", "P29_004": "茂庭幼稚園", "P29_005": "宮城県仙台市太白区茂庭台4-22-22", "P29_006": "4", "P29_007": "0", "P29_008": "00", "P29_009": null }, "geometry": { "type": "Point", "coordinates": [ 140.783974214752334, 38.238806477096134 ] } },
{ "type": "Feature", "properties": { "P29_001": "04105", "P29_002": "A104391050014", "P29_003": "16011", "P29_004": "仙台白百合学園幼稚園", "P29_005": "宮城県仙台市泉区紫山1-2-1", "P29_006": "4", "P29_007": "0", "P29_008": "00", "P29_009": null }, "geometry": { "type": "Point", "coordinates": [ 140.834806503413262, 38.34645425915118 ] } },
{ "type": "Feature", "properties": { "P29_001": "04105", "P29_002": "A104391050023", "P29_003": "16011", "P29_004": "明泉丸山幼稚園", "P29_005": "宮城県仙台市泉区上谷刈4-1-1", "P29_006": "4", "P29_007": "0", "P29_008": "00", "P29_009": null }, "geometry": { "type": "Point", "coordinates": [ 140.869904738969012, 38.31434289914209 ] } },
{ "type": "Feature", "properties": { "P29_001": "04105", "P29_002": "A104391050032", "P29_003": "16011", "P29_004": "ねのしろいし幼稚園", "P29_005": "宮城県仙台市泉区根白石字新坂上29", "P29_006": "4", "P29_007": "0", "P29_008": "00", "P29_009": null }, "geometry": { "type": "Point", "coordinates": [ 140.800277842573649, 38.338652351889678 ] } },
{ "type": "Feature", "properties": { "P29_001": "04105", "P29_002": "A104391050041", "P29_003": "16011", "P29_004": "南光幼稚園", "P29_005": "宮城県仙台市泉区南光台2-2-3", "P29_006": "4", "P29_007": "0", "P29_008": "00", "P29_009": null }, "geometry": { "type": "Point", "coordinates": [ 140.890460778451143, 38.29021856197383 ] } },
{ "type": "Feature", "properties": { "P29_001": "04105", "P29_002": "A104391050069", "P29_003": "16011", "P29_004": "南光第二幼稚園", "P29_005": "宮城県仙台市泉区南光台南1-18-1", "P29_006": "4", "P29_007": "0", "P29_008": "00", "P29_009": null }, "geometry": { "type": "Point", "coordinates": [ 140.899641005311963, 38.296292996966358 ] } },
{ "type": "Feature", "properties": { "P29_001": "04105", "P29_002": "A104391050078", "P29_003": "16011", "P29_004": "将監幼稚園", "P29_005": "宮城県仙台市泉区将監2-10-1", "P29_006": "4", "P29_007": "0", "P29_008": "00", "P29_009": null }, "geometry": { "type": "Point", "coordinates": [ 140.883800258421104, 38.330556416206072 ] } },
{ "type": "Feature", "properties": { "P29_001": "04105", "P29_002": "A104391050087", "P29_003": "16011", "P29_004": "泉第二幼稚園", "P29_005": "宮城県仙台市泉区将監13-1-1", "P29_006": "4", "P29_007": "0", "P29_008": "00", "P29_009": null }, "geometry": { "type": "Point", "coordinates": [ 140.869368002605455, 38.340075002703934 ] } },
{ "type": "Feature", "properties": { "P29_001": "04105", "P29_002": "A104391050096", "P29_003": "16011", "P29_004": "南光シオン幼稚園", "P29_005": "宮城県仙台市泉区松森字陣ヶ原30-10", "P29_006": "4", "P29_007": "0", "P29_008": "00", "P29_009": null }, "geometry": { "type": "Point", "coordinates": [ 140.909750474590425, 38.300955783644312 ] } },
{ "type": "Feature", "properties": { "P29_001": "04105", "P29_002": "A104391050103", "P29_003": "16011", "P29_004": "第二向陽台幼稚園", "P29_005": "宮城県仙台市泉区七北田字寺沢17-3", "P29_006": "4", "P29_007": "0", "P29_008": "00", "P29_009": null }, "geometry": { "type": "Point", "coordinates": [ 140.889646003978925, 38.336606997351439 ] } },
{ "type": "Feature", "properties": { "P29_001": "04105", "P29_002": "A104391050112", "P29_003": "16011", "P29_004": "南光紫陽幼稚園", "P29_005": "宮城県仙台市泉区明石南6-13-2", "P29_006": "4", "P29_007": "0", "P29_008": "00", "P29_009": null }, "geometry": { "type": "Point", "coordinates": [ 140.883469397497578, 38.346903193041243 ] } },
{ "type": "Feature", "properties": { "P29_001": "04105", "P29_002": "A104391050121", "P29_003": "16011", "P29_004": "明泉高森幼稚園", "P29_005": "宮城県仙台市泉区高森2-1-3", "P29_006": "4", "P29_007": "0", "P29_008": "00", "P29_009": null }, "geometry": { "type": "Point", "coordinates": [ 140.844171290592442, 38.341140949156966 ] } },
{ "type": "Feature", "properties": { "P29_001": "04105", "P29_002": "A104391050130", "P29_003": "16011", "P29_004": "鶴が丘幼稚園", "P29_005": "宮城県仙台市泉区泉区鶴ケ丘3-17-1", "P29_006": "4", "P29_007": "0", "P29_008": "00", "P29_009": null }, "geometry": { "type": "Point", "coordinates": [ 140.920769368646688, 38.323560983244249 ] } },
{ "type": "Feature", "properties": { "P29_001": "04105", "P29_002": "A104391050149", "P29_003": "16011", "P29_004": "めるへんの森幼稚園", "P29_005": "宮城県仙台市泉区加茂2-24-2", "P29_006": "4", "P29_007": "0", "P29_008": "00", "P29_009": null }, "geometry": { "type": "Point", "coordinates": [ 140.859028997910968, 38.314733000289301 ] } },
{ "type": "Feature", "properties": { "P29_001": "04105", "P29_002": "A104391050158", "P29_003": "16011", "P29_004": "ふたばエンゼル幼稚園", "P29_005": "宮城県仙台市泉区南中山6-3-1", "P29_006": "4", "P29_007": "0", "P29_008": "00", "P29_009": null }, "geometry": { "type": "Point", "coordinates": [ 140.823753933445886, 38.310377535254062 ] } },
{ "type": "Feature", "properties": { "P29_001": "04105", "P29_002": "A104391050167", "P29_003": "16011", "P29_004": "ふたばハイジ幼稚園", "P29_005": "宮城県仙台市泉区北中山2-6-3", "P29_006": "4", "P29_007": "0", "P29_008": "00", "P29_009": null }, "geometry": { "type": "Point", "coordinates": [ 140.817042181390462, 38.318109210012906 ] } },
{ "type": "Feature", "properties": { "P29_001": "04105", "P29_002": "A104391050176", "P29_003": "16011", "P29_004": "幼稚園型認定こども園いずみ松陵幼稚園", "P29_005": "宮城県仙台市泉区松陵2-19-1", "P29_006": "4", "P29_007": "0", "P29_008": "00", "P29_009": null }, "geometry": { "type": "Point", "coordinates": [ 140.91161371911997, 38.328991420174667 ] } },
{ "type": "Feature", "properties": { "P29_001": "04105", "P29_002": "A104391050185", "P29_003": "16011", "P29_004": "こどもの国幼稚園", "P29_005": "宮城県仙台市泉区寺岡6-7-6", "P29_006": "4", "P29_007": "0", "P29_008": "00", "P29_009": null }, "geometry": { "type": "Point", "coordinates": [ 140.833302824574616, 38.34180610872744 ] } },
{ "type": "Feature", "properties": { "P29_001": "04202", "P29_002": "A104392020028", "P29_003": "16011", "P29_004": "石巻カトリック幼稚園", "P29_005": "宮城県石巻市泉町3-2-17", "P29_006": "4", "P29_007": "0", "P29_008": "00", "P29_009": null }, "geometry": { "type": "Point", "coordinates": [ 141.298645208725532, 38.429048669831523 ] } },
{ "type": "Feature", "properties": { "P29_001": "04202", "P29_002": "A104392020037", "P29_003": "16011", "P29_004": "穀町幼稚園", "P29_005": "宮城県石巻市山下町1-2-42", "P29_006": "4", "P29_007": "0", "P29_008": "00", "P29_009": null }, "geometry": { "type": "Point", "coordinates": [ 141.298120713627156, 38.434764219990896 ] } },
{ "type": "Feature", "properties": { "P29_001": "04202", "P29_002": "A104392020046", "P29_003": "16011", "P29_004": "石巻みづほ幼稚園", "P29_005": "宮城県石巻市蛇田字新下前沼166-1", "P29_006": "4", "P29_007": "0", "P29_008": "00", "P29_009": null }, "geometry": { "type": "Point", "coordinates": [ 141.264152326807391, 38.436237621721943 ] } },
{ "type": "Feature", "properties": { "P29_001": "04202", "P29_002": "A104392020055", "P29_003": "16011", "P29_004": "法山寺幼稚園", "P29_005": "宮城県石巻市湊字鹿妻山96-3", "P29_006": "4", "P29_007": "0", "P29_008": "00", "P29_009": null }, "geometry": { "type": "Point", "coordinates": [ 141.338136921103512, 38.423519111935917 ] } },
{ "type": "Feature", "properties": { "P29_001": "04202", "P29_002": "A104392020064", "P29_003": "16011", "P29_004": "ひばり幼稚園", "P29_005": "宮城県石巻市蛇田字新西境谷地12", "P29_006": "4", "P29_007": "0", "P29_008": "00", "P29_009": null }, "geometry": { "type": "Point", "coordinates": [ 141.287851003658943, 38.443827003589526 ] } },
{ "type": "Feature", "properties": { "P29_001": "04202", "P29_002": "A104392020073", "P29_003": "16011", "P29_004": "石巻みづほ第二幼稚園", "P29_005": "宮城県石巻市蛇田字新下前沼166-1", "P29_006": "4", "P29_007": "0", "P29_008": "00", "P29_009": null }, "geometry": { "type": "Point", "coordinates": [ 141.264051002683885, 38.436238000657532 ] } },
{ "type": "Feature", "properties": { "P29_001": "04202", "P29_002": "A104392020082", "P29_003": "16011", "P29_004": "長浜幼稚園", "P29_005": "宮城県石巻市さくら町2-2-1", "P29_006": "4", "P29_007": "0", "P29_008": "00", "P29_009": null }, "geometry": { "type": "Point", "coordinates": [ 141.353650108488239, 38.423146716141829 ] } },
{ "type": "Feature", "properties": { "P29_001": "04202", "P29_002": "A104392020091", "P29_003": "16011", "P29_004": "万石浦幼稚園", "P29_005": "宮城県石巻市流留字七勺9-1", "P29_006": "4", "P29_007": "0", "P29_008": "00", "P29_009": null }, "geometry": { "type": "Point", "coordinates": [ 141.375076110237984, 38.426459106298317 ] } },
{ "type": "Feature", "properties": { "P29_001": "04203", "P29_002": "A104392030017", "P29_003": "16011", "P29_004": "塩釜カトリック幼稚園", "P29_005": "宮城県塩竈市新富町15-1", "P29_006": "4", "P29_007": "0", "P29_008": "00", "P29_009": null }, "geometry": { "type": "Point", "coordinates": [ 141.025422857064427, 38.312556217040807 ] } },
{ "type": "Feature", "properties": { "P29_001": "04203", "P29_002": "A104392030026", "P29_003": "16011", "P29_004": "パドマ幼稚園", "P29_005": "宮城県塩竈市玉川2-6-12", "P29_006": "4", "P29_007": "0", "P29_008": "00", "P29_009": null }, "geometry": { "type": "Point", "coordinates": [ 141.00596217979043, 38.309417787199024 ] } },
{ "type": "Feature", "properties": { "P29_001": "04203", "P29_002": "A104392030035", "P29_003": "16011", "P29_004": "塩釜中央幼稚園", "P29_005": "宮城県塩竈市旭町4-8", "P29_006": "4", "P29_007": "0", "P29_008": "00", "P29_009": null }, "geometry": { "type": "Point", "coordinates": [ 141.020764948794863, 38.31538013985778 ] } },
{ "type": "Feature", "properties": { "P29_001": "04203", "P29_002": "A104392030044", "P29_003": "16011", "P29_004": "塩釜第二中央幼稚園", "P29_005": "宮城県塩竈市芦畔町13-51", "P29_006": "4", "P29_007": "0", "P29_008": "00", "P29_009": null }, "geometry": { "type": "Point", "coordinates": [ 141.032967168248518, 38.304178071403278 ] } },
{ "type": "Feature", "properties": { "P29_001": "04203", "P29_002": "A104392030053", "P29_003": "16011", "P29_004": "塩釜ひまわり幼稚園", "P29_005": "宮城県塩竈市字伊保石234", "P29_006": "4", "P29_007": "0", "P29_008": "00", "P29_009": null }, "geometry": { "type": "Point", "coordinates": [ 141.011749001969946, 38.336550996930086 ] } },
{ "type": "Feature", "properties": { "P29_001": "04205", "P29_002": "A104392050012", "P29_003": "16011", "P29_004": "愛耕幼稚園", "P29_005": "宮城県気仙沼市反松2-6", "P29_006": "4", "P29_007": "0", "P29_008": "00", "P29_009": null }, "geometry": { "type": "Point", "coordinates": [ 141.550634756643888, 38.885705110467995 ] } },
{ "type": "Feature", "properties": { "P29_001": "04205", "P29_002": "A104392050021", "P29_003": "16011", "P29_004": "気仙沼カトリック幼稚園", "P29_005": "宮城県気仙沼市南町1-1-1", "P29_006": "4", "P29_007": "0", "P29_008": "00", "P29_009": null }, "geometry": { "type": "Point", "coordinates": [ 141.570670240470719, 38.906417188780068 ] } },
{ "type": "Feature", "properties": { "P29_001": "04205", "P29_002": "A104392050030", "P29_003": "16011", "P29_004": "葦の芽幼稚園", "P29_005": "宮城県気仙沼市古町3-5-8", "P29_006": "4", "P29_007": "0", "P29_008": "00", "P29_009": null }, "geometry": { "type": "Point", "coordinates": [ 141.55504245639753, 38.910599743151415 ] } },
{ "type": "Feature", "properties": { "P29_001": "04205", "P29_002": "A104392050049", "P29_003": "16011", "P29_004": "葦の芽星谷幼稚園", "P29_005": "宮城県気仙沼市岩月星谷55-1", "P29_006": "4", "P29_007": "0", "P29_008": "00", "P29_009": null }, "geometry": { "type": "Point", "coordinates": [ 141.57655823559989, 38.859186769809497 ] } },
{ "type": "Feature", "properties": { "P29_001": "04206", "P29_002": "A104392060010", "P29_003": "16011", "P29_004": "認定こども園ひかり幼稚園", "P29_005": "宮城県白石市沢目21-1", "P29_006": "4", "P29_007": "0", "P29_008": "00", "P29_009": null }, "geometry": { "type": "Point", "coordinates": [ 140.624872921403011, 38.002403565703013 ] } },
{ "type": "Feature", "properties": { "P29_001": "04207", "P29_002": "A104392070018", "P29_003": "16011", "P29_004": "尚絅学院大学附属幼稚園", "P29_005": "宮城県名取市ゆりが丘4-10-2", "P29_006": "4", "P29_007": "0", "P29_008": "00", "P29_009": null }, "geometry": { "type": "Point", "coordinates": [ 140.828865726158114, 38.19767877310229 ] } },
{ "type": "Feature", "properties": { "P29_001": "04207", "P29_002": "A104392070036", "P29_003": "16011", "P29_004": "ふたば幼稚園", "P29_005": "宮城県名取市飯野坂5-2-1", "P29_006": "4", "P29_007": "0", "P29_008": "00", "P29_009": null }, "geometry": { "type": "Point", "coordinates": [ 140.879758527294854, 38.161925895045357 ] } },
{ "type": "Feature", "properties": { "P29_001": "04208", "P29_002": "A104392080025", "P29_003": "16011", "P29_004": "ミネ幼稚園", "P29_005": "宮城県角田市角田字長泉寺69-2", "P29_006": "4", "P29_007": "0", "P29_008": "00", "P29_009": null }, "geometry": { "type": "Point", "coordinates": [ 140.774688232330902, 37.974587879988022 ] } },
{ "type": "Feature", "properties": { "P29_001": "04208", "P29_002": "A104392080034", "P29_003": "16011", "P29_004": "角田カトリック幼稚園", "P29_005": "宮城県角田市角田字町1", "P29_006": "4", "P29_007": "0", "P29_008": "00", "P29_009": null }, "geometry": { "type": "Point", "coordinates": [ 140.786052587163482, 37.970060747611853 ] } },
{ "type": "Feature", "properties": { "P29_001": "04209", "P29_002": "A104392090014", "P29_003": "16011", "P29_004": "東北学院幼稚園", "P29_005": "宮城県多賀城市高崎3-7-7", "P29_006": "4", "P29_007": "0", "P29_008": "00", "P29_009": null }, "geometry": { "type": "Point", "coordinates": [ 141.00100800115564, 38.296102001684439 ] } },
{ "type": "Feature", "properties": { "P29_001": "04209", "P29_002": "A104392090023", "P29_003": "16011", "P29_004": "桜木花園幼稚園", "P29_005": "宮城県多賀城市桜木3-5-7", "P29_006": "4", "P29_007": "0", "P29_008": "00", "P29_009": null }, "geometry": { "type": "Point", "coordinates": [ 141.015915411397657, 38.288947011287632 ] } },
{ "type": "Feature", "properties": { "P29_001": "04209", "P29_002": "A104392090032", "P29_003": "16011", "P29_004": "柏幼稚園", "P29_005": "宮城県多賀城市大代5-17-50", "P29_006": "4", "P29_007": "0", "P29_008": "00", "P29_009": null }, "geometry": { "type": "Point", "coordinates": [ 141.037986002918899, 38.294798997830696 ] } },
{ "type": "Feature", "properties": { "P29_001": "04209", "P29_002": "A104392090041", "P29_003": "16011", "P29_004": "睦幼稚園", "P29_005": "宮城県多賀城市鶴ヶ谷2-29-3", "P29_006": "4", "P29_007": "0", "P29_008": "00", "P29_009": null }, "geometry": { "type": "Point", "coordinates": [ 141.018240003140903, 38.298139001304754 ] } },
{ "type": "Feature", "properties": { "P29_001": "04209", "P29_002": "A104392090050", "P29_003": "16011", "P29_004": "多賀城高崎幼稚園", "P29_005": "宮城県多賀城市城南2-21-1", "P29_006": "4", "P29_007": "0", "P29_008": "00", "P29_009": null }, "geometry": { "type": "Point", "coordinates": [ 140.991409450526049, 38.294179467991157 ] } },
{ "type": "Feature", "properties": { "P29_001": "04209", "P29_002": "A104392090069", "P29_003": "16011", "P29_004": "八幡花園幼稚園", "P29_005": "宮城県多賀城市八幡字庚田54", "P29_006": "4", "P29_007": "0", "P29_008": "00", "P29_009": null }, "geometry": { "type": "Point", "coordinates": [ 140.996924148397142, 38.287936324581274 ] } },
{ "type": "Feature", "properties": { "P29_001": "04209", "P29_002": "A104392090078", "P29_003": "16011", "P29_004": "日本国際学園大学せいがん幼稚園", "P29_005": "宮城県多賀城市新田字下216", "P29_006": "4", "P29_007": "0", "P29_008": "00", "P29_009": null }, "geometry": { "type": "Point", "coordinates": [ 140.97290800016458, 38.288852000480105 ] } },
{ "type": "Feature", "properties": { "P29_001": "04211", "P29_002": "A104392110010", "P29_003": "16011", "P29_004": "岩沼こばと幼稚園", "P29_005": "宮城県岩沼市桜3-8-15", "P29_006": "4", "P29_007": "0", "P29_008": "00", "P29_009": null }, "geometry": { "type": "Point", "coordinates": [ 140.869674892461688, 38.108999391527547 ] } },
{ "type": "Feature", "properties": { "P29_001": "04211", "P29_002": "A104392110029", "P29_003": "16011", "P29_004": "岩沼さくら幼稚園", "P29_005": "宮城県岩沼市里の杜3-4-20", "P29_006": "4", "P29_007": "0", "P29_008": "00", "P29_009": null }, "geometry": { "type": "Point", "coordinates": [ 140.878741998104402, 38.108430996141585 ] } },
{ "type": "Feature", "properties": { "P29_001": "04211", "P29_002": "A104392110038", "P29_003": "16011", "P29_004": "岩沼南こばと幼稚園", "P29_005": "宮城県岩沼市桑原4-10-6", "P29_006": "4", "P29_007": "0", "P29_008": "00", "P29_009": null }, "geometry": { "type": "Point", "coordinates": [ 140.861428128082849, 38.09905922162902 ] } },
{ "type": "Feature", "properties": { "P29_001": "04212", "P29_002": "A104392120018", "P29_003": "16011", "P29_004": "登米幼稚園", "P29_005": "宮城県登米市登米町寺池桜小路64-2", "P29_006": "4", "P29_007": "0", "P29_008": "00", "P29_009": null }, "geometry": { "type": "Point", "coordinates": [ 141.280627045097191, 38.652636777574976 ] } },
{ "type": "Feature", "properties": { "P29_001": "04212", "P29_002": "A104392120036", "P29_003": "16011", "P29_004": "さくら幼稚園", "P29_005": "宮城県登米市中田町宝江黒沼字新西野1-1", "P29_006": "4", "P29_007": "0", "P29_008": "00", "P29_009": null }, "geometry": { "type": "Point", "coordinates": [ 141.233605709445385, 38.705918207232358 ] } },
{ "type": "Feature", "properties": { "P29_001": "04213", "P29_002": "A104392130016", "P29_003": "16011", "P29_004": "築館聖マリア幼稚園", "P29_005": "宮城県栗原市築館薬師4-7-8", "P29_006": "4", "P29_007": "0", "P29_008": "00", "P29_009": null }, "geometry": { "type": "Point", "coordinates": [ 141.021311003891157, 38.734323998899875 ] } },
{ "type": "Feature", "properties": { "P29_001": "04214", "P29_002": "A104392140014", "P29_003": "16011", "P29_004": "鳴瀬幼稚園", "P29_005": "宮城県東松島市小野字町120", "P29_006": "4", "P29_007": "0", "P29_008": "00", "P29_009": null }, "geometry": { "type": "Point", "coordinates": [ 141.151728620167347, 38.407138843217389 ] } },
{ "type": "Feature", "properties": { "P29_001": "04214", "P29_002": "A104392140023", "P29_003": "16011", "P29_004": "のびる幼稚園", "P29_005": "宮城県東松島市矢本字西新町10-19", "P29_006": "4", "P29_007": "0", "P29_008": "00", "P29_009": null }, "geometry": { "type": "Point", "coordinates": [ 141.202997480488307, 38.424109331378503 ] } },
{ "type": "Feature", "properties": { "P29_001": "04214", "P29_002": "A104392140032", "P29_003": "16011", "P29_004": "矢本はなぶさ幼稚園", "P29_005": "宮城県東松島市赤井字川前弐215-1", "P29_006": "4", "P29_007": "0", "P29_008": "00", "P29_009": null }, "geometry": { "type": "Point", "coordinates": [ 141.236531611076259, 38.430117907242327 ] } },
{ "type": "Feature", "properties": { "P29_001": "04215", "P29_002": "A104392150011", "P29_003": "16011", "P29_004": "古川幼稚園", "P29_005": "宮城県大崎市古川中里1-3-16", "P29_006": "4", "P29_007": "0", "P29_008": "00", "P29_009": null }, "geometry": { "type": "Point", "coordinates": [ 140.960685824539098, 38.574285173814026 ] } },
{ "type": "Feature", "properties": { "P29_001": "04215", "P29_002": "A104392150020", "P29_003": "16011", "P29_004": "木の実幼稚園", "P29_005": "宮城県大崎市古川前田町3-28", "P29_006": "4", "P29_007": "0", "P29_008": "00", "P29_009": null }, "geometry": { "type": "Point", "coordinates": [ 140.959881082506598, 38.578254050199767 ] } },
{ "type": "Feature", "properties": { "P29_001": "04215", "P29_002": "A104392150039", "P29_003": "16011", "P29_004": "純心幼稚園", "P29_005": "宮城県大崎市古川七日町2-13", "P29_006": "4", "P29_007": "0", "P29_008": "00", "P29_009": null }, "geometry": { "type": "Point", "coordinates": [ 140.954905780371433, 38.577063537971902 ] } },
{ "type": "Feature", "properties": { "P29_001": "04215", "P29_002": "A104392150048", "P29_003": "16011", "P29_004": "千手寺幼稚園", "P29_005": "宮城県大崎市古川千手寺町1-10-45", "P29_006": "4", "P29_007": "0", "P29_008": "00", "P29_009": null }, "geometry": { "type": "Point", "coordinates": [ 140.95493994173205, 38.580184912034966 ] } },
{ "type": "Feature", "properties": { "P29_001": "04215", "P29_002": "A104392150057", "P29_003": "16011", "P29_004": "白梅幼稚園", "P29_005": "宮城県大崎市古川駅東2-11-2", "P29_006": "4", "P29_007": "0", "P29_008": "00", "P29_009": null }, "geometry": { "type": "Point", "coordinates": [ 140.973410337405483, 38.573539128766917 ] } },
{ "type": "Feature", "properties": { "P29_001": "04215", "P29_002": "A104392150066", "P29_003": "16011", "P29_004": "まこと幼稚園", "P29_005": "宮城県大崎市古川福沼3-8-12", "P29_006": "4", "P29_007": "0", "P29_008": "00", "P29_009": null }, "geometry": { "type": "Point", "coordinates": [ 140.97237626982934, 38.580081223660514 ] } },
{ "type": "Feature", "properties": { "P29_001": "04215", "P29_002": "A104392150075", "P29_003": "16011", "P29_004": "まとば幼稚園", "P29_005": "宮城県大崎市古川幸町1-5-10", "P29_006": "4", "P29_007": "0", "P29_008": "00", "P29_009": null }, "geometry": { "type": "Point", "coordinates": [ 140.968075996353491, 38.576536996376603 ] } },
{ "type": "Feature", "properties": { "P29_001": "04216", "P29_002": "A104392160019", "P29_003": "16011", "P29_004": "鷹乃杜幼稚園", "P29_005": "宮城県富谷市鷹乃杜1-23-16", "P29_006": "4", "P29_007": "0", "P29_008": "00", "P29_009": null }, "geometry": { "type": "Point", "coordinates": [ 140.869496997121473, 38.365984002614674 ] } },
{ "type": "Feature", "properties": { "P29_001": "04216", "P29_002": "A104392160028", "P29_003": "16011", "P29_004": "ひより台幼稚園", "P29_005": "宮城県富谷市ひより台2-42-1", "P29_006": "4", "P29_007": "0", "P29_008": "00", "P29_009": null }, "geometry": { "type": "Point", "coordinates": [ 140.887773290479998, 38.402279437402001 ] } },
{ "type": "Feature", "properties": { "P29_001": "04216", "P29_002": "A104392160037", "P29_003": "16011", "P29_004": "成田中央幼稚園", "P29_005": "宮城県富谷市成田3-15-9", "P29_006": "4", "P29_007": "0", "P29_008": "00", "P29_009": null }, "geometry": { "type": "Point", "coordinates": [ 140.896345459726291, 38.367384482462974 ] } },
{ "type": "Feature", "properties": { "P29_001": "04321", "P29_002": "A104393210017", "P29_003": "16011", "P29_004": "大河原カトリック幼稚園", "P29_005": "宮城県柴田郡大河原町字町22", "P29_006": "4", "P29_007": "0", "P29_008": "00", "P29_009": null }, "geometry": { "type": "Point", "coordinates": [ 140.733507000042835, 38.04781799675991 ] } },
{ "type": "Feature", "properties": { "P29_001": "04323", "P29_002": "A104393230013", "P29_003": "16011", "P29_004": "浄心幼稚園", "P29_005": "宮城県柴田郡柴田町船岡南1-1-7", "P29_006": "4", "P29_007": "0", "P29_008": "00", "P29_009": null }, "geometry": { "type": "Point", "coordinates": [ 140.766018365673233, 38.053536882405716 ] } },
{ "type": "Feature", "properties": { "P29_001": "04323", "P29_002": "A104393230022", "P29_003": "16011", "P29_004": "たんぽぽ幼稚園", "P29_005": "宮城県柴田郡柴田町槻木西2-8-6", "P29_006": "4", "P29_007": "0", "P29_008": "00", "P29_009": null }, "geometry": { "type": "Point", "coordinates": [ 140.804406185644041, 38.074311625199094 ] } },
{ "type": "Feature", "properties": { "P29_001": "04323", "P29_002": "A104393230031", "P29_003": "16011", "P29_004": "熊野幼稚園", "P29_005": "宮城県柴田郡柴田町大字本船迫字上町51", "P29_006": "4", "P29_007": "0", "P29_008": "00", "P29_009": null }, "geometry": { "type": "Point", "coordinates": [ 140.767894000943471, 38.070895003500361 ] } },
{ "type": "Feature", "properties": { "P29_001": "04323", "P29_002": "A104393230040", "P29_003": "16011", "P29_004": "第二たんぽぽ幼稚園", "P29_005": "宮城県柴田郡柴田町大字入間田字外谷地73", "P29_006": "4", "P29_007": "0", "P29_008": "00", "P29_009": null }, "geometry": { "type": "Point", "coordinates": [ 140.787788518503305, 38.095185870876222 ] } },
{ "type": "Feature", "properties": { "P29_001": "04361", "P29_002": "A104393610013", "P29_003": "16011", "P29_004": "いちょうの実幼稚園", "P29_005": "宮城県亘理郡亘理町字祝田98", "P29_006": "4", "P29_007": "0", "P29_008": "00", "P29_009": null }, "geometry": { "type": "Point", "coordinates": [ 140.84631800090736, 38.037649996899724 ] } },
{ "type": "Feature", "properties": { "P29_001": "04361", "P29_002": "A104393610022", "P29_003": "16011", "P29_004": "のぞみ幼稚園", "P29_005": "宮城県亘理郡亘理町字下小路18", "P29_006": "4", "P29_007": "0", "P29_008": "00", "P29_009": null }, "geometry": { "type": "Point", "coordinates": [ 140.853300995834388, 38.037130998415975 ] } },
{ "type": "Feature", "properties": { "P29_001": "04362", "P29_002": "A104393620011", "P29_003": "16011", "P29_004": "やまもと幼稚園", "P29_005": "宮城県亘理郡山元町高瀬字竹の内原41", "P29_006": "4", "P29_007": "0", "P29_008": "00", "P29_009": null }, "geometry": { "type": "Point", "coordinates": [ 140.881650530460746, 37.946565389191072 ] } },
{ "type": "Feature", "properties": { "P29_001": "04362", "P29_002": "A104393620020", "P29_003": "16011", "P29_004": "ふじ幼稚園", "P29_005": "宮城県亘理郡山元町山寺字上西田123", "P29_006": "4", "P29_007": "0", "P29_008": "00", "P29_009": null }, "geometry": { "type": "Point", "coordinates": [ 140.875438725116112, 37.968586197588401 ] } },
{ "type": "Feature", "properties": { "P29_001": "04404", "P29_002": "A104394040011", "P29_003": "16011", "P29_004": "和光幼稚園", "P29_005": "宮城県宮城郡七ヶ浜町花渕浜字寺坂12", "P29_006": "4", "P29_007": "0", "P29_008": "00", "P29_009": null }, "geometry": { "type": "Point", "coordinates": [ 141.086675996774602, 38.301584001276815 ] } },
{ "type": "Feature", "properties": { "P29_001": "04404", "P29_002": "A104394040020", "P29_003": "16011", "P29_004": "第二柏幼稚園", "P29_005": "宮城県宮城郡七ヶ浜町東宮浜字笠岩16-15", "P29_006": "4", "P29_007": "0", "P29_008": "00", "P29_009": null }, "geometry": { "type": "Point", "coordinates": [ 141.052147314352851, 38.311130932048918 ] } },
{ "type": "Feature", "properties": { "P29_001": "04406", "P29_002": "A104394060016", "P29_003": "16011", "P29_004": "利府聖光幼稚園", "P29_005": "宮城県宮城郡利府町加瀬字南野中沢29", "P29_006": "4", "P29_007": "0", "P29_008": "00", "P29_009": null }, "geometry": { "type": "Point", "coordinates": [ 140.99819339199604, 38.322987305346111 ] } },
{ "type": "Feature", "properties": { "P29_001": "04406", "P29_002": "A104394060025", "P29_003": "16011", "P29_004": "日本国際学園大学利府おおぞら幼稚園", "P29_005": "宮城県宮城郡利府町菅谷字赤萱31-2", "P29_006": "4", "P29_007": "0", "P29_008": "00", "P29_009": null }, "geometry": { "type": "Point", "coordinates": [ 140.952179747989078, 38.31848432567854 ] } },
{ "type": "Feature", "properties": { "P29_001": "04406", "P29_002": "A104394060034", "P29_003": "16011", "P29_004": "日本国際学園大学利府第二おおぞら幼稚園", "P29_005": "宮城県宮城郡利府町しらかし台4-3-1", "P29_006": "4", "P29_007": "0", "P29_008": "00", "P29_009": null }, "geometry": { "type": "Point", "coordinates": [ 140.963194001700231, 38.351105998436907 ] } },
{ "type": "Feature", "properties": { "P29_001": "04406", "P29_002": "A104394060043", "P29_003": "16011", "P29_004": "認定こども園利府幼稚園", "P29_005": "宮城県宮城郡利府町花園1-13-2", "P29_006": "4", "P29_007": "0", "P29_008": "00", "P29_009": null }, "geometry": { "type": "Point", "coordinates": [ 140.973176953683833, 38.339205566377345 ] } },
{ "type": "Feature", "properties": { "P29_001": "04421", "P29_002": "A104394210024", "P29_003": "16011", "P29_004": "もみじが丘幼稚園", "P29_005": "宮城県黒川郡大和町もみじが丘2-2-2", "P29_006": "4", "P29_007": "0", "P29_008": "00", "P29_009": null }, "geometry": { "type": "Point", "coordinates": [ 140.860968004265857, 38.382484000373054 ] } },
{ "type": "Feature", "properties": { "P29_001": "04445", "P29_002": "A104394450014", "P29_003": "16011", "P29_004": "小鳩幼稚園", "P29_005": "宮城県加美郡加美町字矢越405", "P29_006": "4", "P29_007": "0", "P29_008": "00", "P29_009": null }, "geometry": { "type": "Point", "coordinates": [ 140.858221841623674, 38.575436526372584 ] } },
{ "type": "Feature", "properties": { "P29_001": "04606", "P29_002": "A104396060011", "P29_003": "16011", "P29_004": "あさひ幼稚園", "P29_005": "宮城県本吉郡南三陸町志津川字天王山38-141", "P29_006": "4", "P29_007": "0", "P29_008": "00", "P29_009": null }, "geometry": { "type": "Point", "coordinates": [ 141.460635000114252, 38.68247100092524 ] } }
]
}
