{
"type": "FeatureCollection",
"name": "geo_04_短期大学",
"crs": { "type": "name", "properties": { "name": "urn:ogc:def:crs:EPSG::6668" } },
"features": [
{ "type": "Feature", "properties": { "P29_001": "04215", "P29_002": "F204310100995", "P29_003": "16006", "P29_004": "宮城誠真短期大学", "P29_005": "宮城県大崎市古川福沼1-27-2", "P29_006": "4", "P29_007": "0", "P29_008": "00", "P29_009": null }, "geometry": { "type": "Point", "coordinates": [ 140.973211003827714, 38.580158999473873 ] } },
{ "type": "Feature", "properties": { "P29_001": "04105", "P29_002": "F204310101002", "P29_003": "16006", "P29_004": "聖和学園短期大学", "P29_005": "宮城県仙台市泉区南中山5-5-2", "P29_006": "4", "P29_007": "0", "P29_008": "00", "P29_009": null }, "geometry": { "type": "Point", "coordinates": [ 140.812485378985173, 38.306447209035355 ] } },
{ "type": "Feature", "properties": { "P29_001": "04105", "P29_002": "F204310101011", "P29_003": "16006", "P29_004": "東北生活文化大学短期大学部", "P29_005": "宮城県仙台市泉区虹の丘1-18-2", "P29_006": "4", "P29_007": "0", "P29_008": "00", "P29_009": null }, "geometry": { "type": "Point", "coordinates": [ 140.872052152424288, 38.304216263467346 ] } },
{ "type": "Feature", "properties": { "P29_001": "04103", "P29_002": "F204310101020", "P29_003": "16006", "P29_004": "仙台青葉学院短期大学", "P29_005": "宮城県仙台市若林区五橋3-5-75", "P29_006": "4", "P29_007": "0", "P29_008": "00", "P29_009": null }, "geometry": { "type": "Point", "coordinates": [ 140.883895997451475, 38.253379995303455 ] } },
{ "type": "Feature", "properties": { "P29_001": "04101", "P29_002": "F204310101039", "P29_003": "16006", "P29_004": "仙台赤門短期大学", "P29_005": "宮城県仙台市青葉区荒巻字青葉6-41", "P29_006": "4", "P29_007": "0", "P29_008": "00", "P29_009": null }, "geometry": { "type": "Point", "coordinates": [ 140.839092202206103, 38.261192697685829 ] } }
]
}
