{
"type": "FeatureCollection",
"name": "geo_04_介護老人保健施設",
"crs": { "type": "name", "properties": { "name": "urn:ogc:def:crs:OGC:1.3:CRS84" } },
"features": [
{ "type": "Feature", "properties": { "内容": "仙台ロイヤルケアセンター【介護老人保健施設】宮城県仙台市青葉区みやぎ台一丁目31-1", "url2": "https://www.kaigokensaku.mhlw.go.jp/04/index.php?action_kouhyou_detail_004_kani=true&JigyosyoCd=0455180018-00&ServiceCd=520&Type=search" }, "geometry": { "type": "Point", "coordinates": [ 140.777284399999985, 38.3073494 ] } },
{ "type": "Feature", "properties": { "内容": "仙台ロイヤルケアセンター【介護老人保健施設】宮城県仙台市青葉区みやぎ台一丁目31-1", "url2": "https://www.kaigokensaku.mhlw.go.jp/04/index.php?action_kouhyou_detail_004_kani=true&JigyosyoCd=0455180109-00&ServiceCd=520&Type=search" }, "geometry": { "type": "Point", "coordinates": [ 140.777634499999976, 38.3071619 ] } },
{ "type": "Feature", "properties": { "内容": "介護老人保健施設ハート五橋【介護老人保健施設】宮城県仙台市青葉区五橋１丁目１番5号", "url2": "https://www.kaigokensaku.mhlw.go.jp/04/index.php?action_kouhyou_detail_004_kani=true&JigyosyoCd=0455180059-00&ServiceCd=520&Type=search" }, "geometry": { "type": "Point", "coordinates": [ 140.880492612827993, 38.255568326257645 ] } },
{ "type": "Feature", "properties": { "内容": "介護老人保健施設　由季の里【介護老人保健施設】宮城県仙台市青葉区折立４丁目１番１５号", "url2": "https://www.kaigokensaku.mhlw.go.jp/04/index.php?action_kouhyou_detail_004_kani=true&JigyosyoCd=0455180133-00&ServiceCd=520&Type=search" }, "geometry": { "type": "Point", "coordinates": [ 140.809433899999988, 38.2614076 ] } },
{ "type": "Feature", "properties": { "内容": "介護老人保健施設　メープル小田原【介護老人保健施設】宮城県仙台市青葉区小田原8丁目6-22", "url2": "https://www.kaigokensaku.mhlw.go.jp/04/index.php?action_kouhyou_detail_004_kani=true&JigyosyoCd=0455180091-00&ServiceCd=520&Type=search" }, "geometry": { "type": "Point", "coordinates": [ 140.892907245368974, 38.270850218416953 ] } },
{ "type": "Feature", "properties": { "内容": "介護老人保健施設　せんだんの丘【介護老人保健施設】宮城県仙台市青葉区国見ヶ丘6-126-51", "url2": "https://www.kaigokensaku.mhlw.go.jp/04/index.php?action_kouhyou_detail_004_kani=true&JigyosyoCd=0455180042-00&ServiceCd=520&Type=search" }, "geometry": { "type": "Point", "coordinates": [ 140.8344442, 38.2840815 ] } },
{ "type": "Feature", "properties": { "内容": "一般財団法人周行会介護老人保健施設トラスト【介護老人保健施設】宮城県仙台市青葉区上杉２－３－１７", "url2": "https://www.kaigokensaku.mhlw.go.jp/04/index.php?action_kouhyou_detail_004_kani=true&JigyosyoCd=0455180034-00&ServiceCd=520&Type=search" }, "geometry": { "type": "Point", "coordinates": [ 140.869194500000049, 38.2727062 ] } },
{ "type": "Feature", "properties": { "内容": "国見ナーシングホーム翔裕園【介護老人保健施設】宮城県仙台市青葉区国見6丁目84番1号", "url2": "https://www.kaigokensaku.mhlw.go.jp/04/index.php?action_kouhyou_detail_004_kani=true&JigyosyoCd=0455180026-00&ServiceCd=520&Type=search" }, "geometry": { "type": "Point", "coordinates": [ 140.828371458074912, 38.282856586970098 ] } },
{ "type": "Feature", "properties": { "内容": "介護老人保健施設　仙台青葉ロイヤルケアセンター【介護老人保健施設】宮城県仙台市青葉区吉成台二丁目3番20号", "url2": "https://www.kaigokensaku.mhlw.go.jp/04/index.php?action_kouhyou_detail_004_kani=true&JigyosyoCd=0455180067-00&ServiceCd=520&Type=search" }, "geometry": { "type": "Point", "coordinates": [ 140.826741299999981, 38.2963993 ] } },
{ "type": "Feature", "properties": { "内容": "介護老人保健施設Challengeすこやか【介護老人保健施設】宮城県仙台市青葉区郷六字久保38番地42", "url2": "https://www.kaigokensaku.mhlw.go.jp/04/index.php?action_kouhyou_detail_004_kani=true&JigyosyoCd=0455180117-00&ServiceCd=520&Type=search" }, "geometry": { "type": "Point", "coordinates": [ 140.815538599999968, 38.2617392 ] } },
{ "type": "Feature", "properties": { "内容": "介護老人保健施設エバーグリーン・ツルガヤ【介護老人保健施設】宮城県仙台市宮城野区鶴ヶ谷字舘下35番地の1", "url2": "https://www.kaigokensaku.mhlw.go.jp/04/index.php?action_kouhyou_detail_004_kani=true&JigyosyoCd=0455280040-00&ServiceCd=520&Type=search" }, "geometry": { "type": "Point", "coordinates": [ 140.9201597, 38.297032500000014 ] } },
{ "type": "Feature", "properties": { "内容": "介護老人保健施設リハビリパーク高砂【介護老人保健施設】宮城県仙台市宮城野区福室3丁目14番", "url2": "https://www.kaigokensaku.mhlw.go.jp/04/index.php?action_kouhyou_detail_004_kani=true&JigyosyoCd=0455280032-00&ServiceCd=520&Type=search" }, "geometry": { "type": "Point", "coordinates": [ 140.967773500000021, 38.2739927 ] } },
{ "type": "Feature", "properties": { "内容": "サテライト老健けやき【介護老人保健施設】宮城県仙台市宮城野区東仙台四丁目1-20介護複合施設careN", "url2": "https://www.kaigokensaku.mhlw.go.jp/04/index.php?action_kouhyou_detail_004_kani=true&JigyosyoCd=0455280057-00&ServiceCd=520&Type=search" }, "geometry": { "type": "Point", "coordinates": [ 140.9082098, 38.2733397 ] } },
{ "type": "Feature", "properties": { "内容": "介護老人保健施設　コジーケアホーム【介護老人保健施設】宮城県仙台市宮城野区岩切字稲荷１４", "url2": "https://www.kaigokensaku.mhlw.go.jp/04/index.php?action_kouhyou_detail_004_kani=true&JigyosyoCd=0455280016-00&ServiceCd=520&Type=search" }, "geometry": { "type": "Point", "coordinates": [ 140.938940663229346, 38.300704612665101 ] } },
{ "type": "Feature", "properties": { "内容": "介護老人保健施設　けやき【介護老人保健施設】宮城県仙台市宮城野区大梶15-27", "url2": "https://www.kaigokensaku.mhlw.go.jp/04/index.php?action_kouhyou_detail_004_kani=true&JigyosyoCd=0455280024-00&ServiceCd=520&Type=search" }, "geometry": { "type": "Point", "coordinates": [ 140.906840500000044, 38.2723684 ] } },
{ "type": "Feature", "properties": { "内容": "介護老人保健施設　春風のころ【介護老人保健施設】宮城県仙台市若林区日辺字沖田１５番", "url2": "https://www.kaigokensaku.mhlw.go.jp/04/index.php?action_kouhyou_detail_004_kani=true&JigyosyoCd=0455380030-00&ServiceCd=520&Type=search" }, "geometry": { "type": "Point", "coordinates": [ 140.914256600000044, 38.216433 ] } },
{ "type": "Feature", "properties": { "内容": "介護老人保健施設　葵の園・仙台東【介護老人保健施設】宮城県仙台市若林区荒井東1丁目6番地の11", "url2": "https://www.kaigokensaku.mhlw.go.jp/04/index.php?action_kouhyou_detail_004_kani=true&JigyosyoCd=0455380055-00&ServiceCd=520&Type=search" }, "geometry": { "type": "Point", "coordinates": [ 140.949508501852392, 38.240238800215892 ] } },
{ "type": "Feature", "properties": { "内容": "介護老人保健施設　リハビリパーク仙台東【介護老人保健施設】宮城県仙台市若林区長喜城字宮浦26番地", "url2": "https://www.kaigokensaku.mhlw.go.jp/04/index.php?action_kouhyou_detail_004_kani=true&JigyosyoCd=0455380022-00&ServiceCd=520&Type=search" }, "geometry": { "type": "Point", "coordinates": [ 140.935970499999939, 38.2391396 ] } },
{ "type": "Feature", "properties": { "内容": "介護老人保健施設　リハビリパーク仙台東【介護老人保健施設】宮城県仙台市若林区長喜城字宮浦26番地", "url2": "https://www.kaigokensaku.mhlw.go.jp/04/index.php?action_kouhyou_detail_004_kani=true&JigyosyoCd=0455380048-00&ServiceCd=520&Type=search" }, "geometry": { "type": "Point", "coordinates": [ 140.935970499999939, 38.2391396 ] } },
{ "type": "Feature", "properties": { "内容": "老人保健施設はくれい【介護老人保健施設】宮城県仙台市若林区今泉字鹿子穴62番地", "url2": "https://www.kaigokensaku.mhlw.go.jp/04/index.php?action_kouhyou_detail_004_kani=true&JigyosyoCd=0455380014-00&ServiceCd=520&Type=search" }, "geometry": { "type": "Point", "coordinates": [ 140.928694899999982, 38.2063069 ] } },
{ "type": "Feature", "properties": { "内容": "介護老人保健施設　茂庭台豊齢ホーム【介護老人保健施設】宮城県仙台市太白区茂庭台二丁目１６番１０号", "url2": "https://www.kaigokensaku.mhlw.go.jp/04/index.php?action_kouhyou_detail_004_kani=true&JigyosyoCd=0455480012-00&ServiceCd=520&Type=search" }, "geometry": { "type": "Point", "coordinates": [ 140.783045300000026, 38.2329972 ] } },
{ "type": "Feature", "properties": { "内容": "介護老人保健施設　オー・ド・エクラ【介護老人保健施設】宮城県仙台市太白区茂庭2丁目3番地の3", "url2": "https://www.kaigokensaku.mhlw.go.jp/04/index.php?action_kouhyou_detail_004_kani=true&JigyosyoCd=0455480095-00&ServiceCd=520&Type=search" }, "geometry": { "type": "Point", "coordinates": [ 140.792142943368589, 38.221433461434167 ] } },
{ "type": "Feature", "properties": { "内容": "老人保健施設　千愛【介護老人保健施設】宮城県仙台市太白区茂庭字人来田西８－１３", "url2": "https://www.kaigokensaku.mhlw.go.jp/04/index.php?action_kouhyou_detail_004_kani=true&JigyosyoCd=0455480046-00&ServiceCd=520&Type=search" }, "geometry": { "type": "Point", "coordinates": [ 140.801237302069154, 38.215221638826037 ] } },
{ "type": "Feature", "properties": { "内容": "医療法人松田会　介護老人保健施設　エバーグリーン・ヤギヤマ【介護老人保健施設】仙台市太白区八木山香澄町1番20", "url2": "https://www.kaigokensaku.mhlw.go.jp/04/index.php?action_kouhyou_detail_004_kani=true&JigyosyoCd=0455480061-00&ServiceCd=520&Type=search" }, "geometry": { "type": "Point", "coordinates": [ 140.865281900000014, 38.2464173 ] } },
{ "type": "Feature", "properties": { "内容": "介護老人保健施設　葵の園・仙台【介護老人保健施設】宮城県仙台市太白区鈎取２丁目２８－１", "url2": "https://www.kaigokensaku.mhlw.go.jp/04/index.php?action_kouhyou_detail_004_kani=true&JigyosyoCd=0455480079-00&ServiceCd=520&Type=search" }, "geometry": { "type": "Point", "coordinates": [ 140.840604909786947, 38.229773197589402 ] } },
{ "type": "Feature", "properties": { "内容": "介護老人保健施設　葵の園・柳生【介護老人保健施設】宮城県仙台市太白区柳生字台57-1", "url2": "https://www.kaigokensaku.mhlw.go.jp/04/index.php?action_kouhyou_detail_004_kani=true&JigyosyoCd=0455480087-00&ServiceCd=520&Type=search" }, "geometry": { "type": "Point", "coordinates": [ 140.874708346032776, 38.20130454031419 ] } },
{ "type": "Feature", "properties": { "内容": "介護老人保健施設ノテやるきになる里【介護老人保健施設】宮城県仙台市太白区富沢西3丁目10番地の1", "url2": "https://www.kaigokensaku.mhlw.go.jp/04/index.php?action_kouhyou_detail_004_kani=true&JigyosyoCd=0455480103-00&ServiceCd=520&Type=search" }, "geometry": { "type": "Point", "coordinates": [ 140.85446479999996, 38.2102432 ] } },
{ "type": "Feature", "properties": { "内容": "介護老人保健施設ソアーズ【介護老人保健施設】宮城県仙台市太白区西中田2丁目11-17", "url2": "https://www.kaigokensaku.mhlw.go.jp/04/index.php?action_kouhyou_detail_004_kani=true&JigyosyoCd=0455480020-00&ServiceCd=520&Type=search" }, "geometry": { "type": "Point", "coordinates": [ 140.879087499999969, 38.2028583 ] } },
{ "type": "Feature", "properties": { "内容": "老人保健施設杜の俱楽部ユニット館【介護老人保健施設】宮城県仙台市太白区茂庭字人来田東19-13", "url2": "https://www.kaigokensaku.mhlw.go.jp/04/index.php?action_kouhyou_detail_004_kani=true&JigyosyoCd=0455480111-00&ServiceCd=520&Type=search" }, "geometry": { "type": "Point", "coordinates": [ 140.807640782803333, 38.214599066790029 ] } },
{ "type": "Feature", "properties": { "内容": "独立行政法人地域医療機能推進機構仙台南病院附属介護老人保健施設【介護老人保健施設】宮城県仙台市太白区中田町字前沖143番地", "url2": "https://www.kaigokensaku.mhlw.go.jp/04/index.php?action_kouhyou_detail_004_kani=true&JigyosyoCd=0455480038-00&ServiceCd=520&Type=search" }, "geometry": { "type": "Point", "coordinates": [ 140.898886599999969, 38.1904435 ] } },
{ "type": "Feature", "properties": { "内容": "介護老人保健施設　葵の園・仙台泉【介護老人保健施設】宮城県仙台市泉区泉中央南16番", "url2": "https://www.kaigokensaku.mhlw.go.jp/04/index.php?action_kouhyou_detail_004_kani=true&JigyosyoCd=0455580084-00&ServiceCd=520&Type=search" }, "geometry": { "type": "Point", "coordinates": [ 140.869435694538765, 38.32086450992481 ] } },
{ "type": "Feature", "properties": { "内容": "介護老人保健施設ファンコート泉【介護老人保健施設】宮城県仙台市泉区西田中字萱場中37-1", "url2": "https://www.kaigokensaku.mhlw.go.jp/04/index.php?action_kouhyou_detail_004_kani=true&JigyosyoCd=0455580076-00&ServiceCd=520&Type=search" }, "geometry": { "type": "Point", "coordinates": [ 140.789431, 38.32351 ] } },
{ "type": "Feature", "properties": { "内容": "医療法人松田会　介護老人保健施設エバーグリーン・イズミ【介護老人保健施設】宮城県仙台市泉区実沢字立田屋敷１７番地の１", "url2": "https://www.kaigokensaku.mhlw.go.jp/04/index.php?action_kouhyou_detail_004_kani=true&JigyosyoCd=0455580019-00&ServiceCd=520&Type=search" }, "geometry": { "type": "Point", "coordinates": [ 140.838660200000049, 38.3344617 ] } },
{ "type": "Feature", "properties": { "内容": "介護老人保健施設　プレシオーソ【介護老人保健施設】宮城県仙台市泉区南光台7丁目1番18号", "url2": "https://www.kaigokensaku.mhlw.go.jp/04/index.php?action_kouhyou_detail_004_kani=true&JigyosyoCd=0455580068-00&ServiceCd=520&Type=search" }, "geometry": { "type": "Point", "coordinates": [ 140.899204759663462, 38.298788547000321 ] } },
{ "type": "Feature", "properties": { "内容": "介護老人保健施設　エクセレンテ【介護老人保健施設】宮城県仙台市泉区将監6丁目3-33", "url2": "https://www.kaigokensaku.mhlw.go.jp/04/index.php?action_kouhyou_detail_004_kani=true&JigyosyoCd=0455580092-00&ServiceCd=520&Type=search" }, "geometry": { "type": "Point", "coordinates": [ 140.878593024992369, 38.337712630581954 ] } },
{ "type": "Feature", "properties": { "内容": "医療法人徳洲会　介護老人保健施設　シルバーホーム　いずみ【介護老人保健施設】宮城県仙台市泉区高玉町9-8", "url2": "https://www.kaigokensaku.mhlw.go.jp/04/index.php?action_kouhyou_detail_004_kani=true&JigyosyoCd=0455580027-00&ServiceCd=520&Type=search" }, "geometry": { "type": "Point", "coordinates": [ 140.895172592398694, 38.316512895948776 ] } },
{ "type": "Feature", "properties": { "内容": "介護老人保健施設　　　コスモス【介護老人保健施設】宮城県仙台市泉区上谷刈字長命８番地", "url2": "https://www.kaigokensaku.mhlw.go.jp/04/index.php?action_kouhyou_detail_004_kani=true&JigyosyoCd=0455580035-00&ServiceCd=520&Type=search" }, "geometry": { "type": "Point", "coordinates": [ 140.856379, 38.3188336 ] } },
{ "type": "Feature", "properties": { "内容": "介護老人保健施設いずみの杜【介護老人保健施設】宮城県仙台市泉区松森字西沢２６番地の４", "url2": "https://www.kaigokensaku.mhlw.go.jp/04/index.php?action_kouhyou_detail_004_kani=true&JigyosyoCd=0455580050-00&ServiceCd=520&Type=search" }, "geometry": { "type": "Point", "coordinates": [ 140.914259099999981, 38.3164109 ] } },
{ "type": "Feature", "properties": { "内容": "介護老人保健施設　ユニットケア泉【介護老人保健施設】宮城県仙台市泉区大沢3-5-5", "url2": "https://www.kaigokensaku.mhlw.go.jp/04/index.php?action_kouhyou_detail_004_kani=true&JigyosyoCd=0455580043-00&ServiceCd=520&Type=search" }, "geometry": { "type": "Point", "coordinates": [ 140.8743475, 38.3578991 ] } },
{ "type": "Feature", "properties": { "内容": "介護老人保健施設　恵仁ホーム【介護老人保健施設】宮城県石巻市山下町二丁目１番５号", "url2": "https://www.kaigokensaku.mhlw.go.jp/04/index.php?action_kouhyou_detail_004_kani=true&JigyosyoCd=0450280011-00&ServiceCd=520&Type=search" }, "geometry": { "type": "Point", "coordinates": [ 141.292645499999907, 38.4320023 ] } },
{ "type": "Feature", "properties": { "内容": "介護老人保健施設第二恵仁ホーム【介護老人保健施設】宮城県石巻市門脇字一番谷地５７番地の１８", "url2": "https://www.kaigokensaku.mhlw.go.jp/04/index.php?action_kouhyou_detail_004_kani=true&JigyosyoCd=0450280037-00&ServiceCd=520&Type=search" }, "geometry": { "type": "Point", "coordinates": [ 141.26324180000006, 38.4336152 ] } },
{ "type": "Feature", "properties": { "内容": "介護老人保健施設リハビリパーク花もよう【介護老人保健施設】宮城県石巻市大橋３丁目９番１号", "url2": "https://www.kaigokensaku.mhlw.go.jp/04/index.php?action_kouhyou_detail_004_kani=true&JigyosyoCd=0450280029-00&ServiceCd=520&Type=search" }, "geometry": { "type": "Point", "coordinates": [ 141.3117909, 38.4428129 ] } },
{ "type": "Feature", "properties": { "内容": "医療法人海邦会介護老人保健施設長山【介護老人保健施設】宮城県石巻市広渕字長山200番地", "url2": "https://www.kaigokensaku.mhlw.go.jp/04/index.php?action_kouhyou_detail_004_kani=true&JigyosyoCd=0450280060-00&ServiceCd=520&Type=search" }, "geometry": { "type": "Point", "coordinates": [ 141.197726699999947, 38.4740141 ] } },
{ "type": "Feature", "properties": { "内容": "医療機関併設型小規模介護老人保健施設　網小【介護老人保健施設】宮城県石巻市長渡浜杉13-3", "url2": "https://www.kaigokensaku.mhlw.go.jp/04/index.php?action_kouhyou_detail_004_kani=true&JigyosyoCd=0450280078-00&ServiceCd=520&Type=search" }, "geometry": { "type": "Point", "coordinates": [ 141.478165399999966, 38.2663788 ] } },
{ "type": "Feature", "properties": { "内容": "介護老人保健施設　しおん【介護老人保健施設】宮城県石巻市吉野町１－７－１", "url2": "https://www.kaigokensaku.mhlw.go.jp/04/index.php?action_kouhyou_detail_004_kani=true&JigyosyoCd=0450280086-00&ServiceCd=520&Type=search" }, "geometry": { "type": "Point", "coordinates": [ 141.318135, 38.4261203 ] } },
{ "type": "Feature", "properties": { "内容": "介護老人保健施設　ガーデンハウスこだま【介護老人保健施設】宮城県石巻市泉町４丁目１１番４７号", "url2": "https://www.kaigokensaku.mhlw.go.jp/04/index.php?action_kouhyou_detail_004_kani=true&JigyosyoCd=0450280052-00&ServiceCd=520&Type=search" }, "geometry": { "type": "Point", "coordinates": [ 141.293551100000059, 38.4279637 ] } },
{ "type": "Feature", "properties": { "内容": "介護老人保健施設グリーンヒルズ【介護老人保健施設】宮城県塩竈市西玉川町１番２８号", "url2": "https://www.kaigokensaku.mhlw.go.jp/04/index.php?action_kouhyou_detail_004_kani=true&JigyosyoCd=0450380019-00&ServiceCd=520&Type=search" }, "geometry": { "type": "Point", "coordinates": [ 141.001715900000022, 38.3103205 ] } },
{ "type": "Feature", "properties": { "内容": "介護老人保健施設　やまと塩竈【介護老人保健施設】宮城県塩竈市字伊保石20番地1", "url2": "https://www.kaigokensaku.mhlw.go.jp/04/index.php?action_kouhyou_detail_004_kani=true&JigyosyoCd=0450380027-00&ServiceCd=520&Type=search" }, "geometry": { "type": "Point", "coordinates": [ 141.017773600000027, 38.3348847 ] } },
{ "type": "Feature", "properties": { "内容": "介護老人保健施設　はまなすの丘【介護老人保健施設】宮城県気仙沼市本吉町外尾25番地", "url2": "https://www.kaigokensaku.mhlw.go.jp/04/index.php?action_kouhyou_detail_004_kani=true&JigyosyoCd=0453680035-00&ServiceCd=520&Type=search" }, "geometry": { "type": "Point", "coordinates": [ 141.499599, 38.7643277 ] } },
{ "type": "Feature", "properties": { "内容": "医療法人社団晃和会　　介護老人保健施設リンデンバウムの杜【介護老人保健施設】宮城県気仙沼市東新城2-9-1", "url2": "https://www.kaigokensaku.mhlw.go.jp/04/index.php?action_kouhyou_detail_004_kani=true&JigyosyoCd=0450580022-00&ServiceCd=520&Type=search" }, "geometry": { "type": "Point", "coordinates": [ 141.549055, 38.9057564 ] } },
{ "type": "Feature", "properties": { "内容": "老人保健施設リバーサイド春圃【介護老人保健施設】宮城県気仙沼市舘山一丁目1番43号", "url2": "https://www.kaigokensaku.mhlw.go.jp/04/index.php?action_kouhyou_detail_004_kani=true&JigyosyoCd=0450580014-00&ServiceCd=520&Type=search" }, "geometry": { "type": "Point", "coordinates": [ 141.560451967143479, 38.903074149405811 ] } },
{ "type": "Feature", "properties": { "内容": "医療機関併設型小規模介護老人保健施設　リンデンヴィラ【介護老人保健施設】宮城県気仙沼市東新城2-9-1", "url2": "https://www.kaigokensaku.mhlw.go.jp/04/index.php?action_kouhyou_detail_004_kani=true&JigyosyoCd=0450580030-00&ServiceCd=520&Type=search" }, "geometry": { "type": "Point", "coordinates": [ 141.549055, 38.9057564 ] } },
{ "type": "Feature", "properties": { "内容": "介護老人保健施設　清風【介護老人保健施設】宮城県白石市大手町2‐1", "url2": "https://www.kaigokensaku.mhlw.go.jp/04/index.php?action_kouhyou_detail_004_kani=true&JigyosyoCd=0450680020-00&ServiceCd=520&Type=search" }, "geometry": { "type": "Point", "coordinates": [ 140.618963300000019, 38.0031333 ] } },
{ "type": "Feature", "properties": { "内容": "老人保健施設あさくらホーム【介護老人保健施設】宮城県白石市字本町89番地", "url2": "https://www.kaigokensaku.mhlw.go.jp/04/index.php?action_kouhyou_detail_004_kani=true&JigyosyoCd=0450680012-00&ServiceCd=520&Type=search" }, "geometry": { "type": "Point", "coordinates": [ 140.62327747050017, 38.002335883332215 ] } },
{ "type": "Feature", "properties": { "内容": "老人保健施設　ライフケアセンター名取【介護老人保健施設】宮城県名取市増田字柳田８", "url2": "https://www.kaigokensaku.mhlw.go.jp/04/index.php?action_kouhyou_detail_004_kani=true&JigyosyoCd=0450780028-00&ServiceCd=520&Type=search" }, "geometry": { "type": "Point", "coordinates": [ 140.893585199999961, 38.1721339 ] } },
{ "type": "Feature", "properties": { "内容": "介護老人保健施設なとり【介護老人保健施設】宮城県名取市高舘熊野堂字岩口下１－２", "url2": "https://www.kaigokensaku.mhlw.go.jp/04/index.php?action_kouhyou_detail_004_kani=true&JigyosyoCd=0450780036-00&ServiceCd=520&Type=search" }, "geometry": { "type": "Point", "coordinates": [ 140.846060200000011, 38.1975025 ] } },
{ "type": "Feature", "properties": { "内容": "介護老人保健施設　はくあいホーム【介護老人保健施設】宮城県角田市角田字牛舘16番地", "url2": "https://www.kaigokensaku.mhlw.go.jp/04/index.php?action_kouhyou_detail_004_kani=true&JigyosyoCd=0450880026-00&ServiceCd=520&Type=search" }, "geometry": { "type": "Point", "coordinates": [ 140.783040804893574, 37.972182648925603 ] } },
{ "type": "Feature", "properties": { "内容": "介護老人保健施設ゆうゆうホーム【介護老人保健施設】角田市角田字田町114-9", "url2": "https://www.kaigokensaku.mhlw.go.jp/04/index.php?action_kouhyou_detail_004_kani=true&JigyosyoCd=0450880018-00&ServiceCd=520&Type=search" }, "geometry": { "type": "Point", "coordinates": [ 140.786353800000029, 37.9737298 ] } },
{ "type": "Feature", "properties": { "内容": "恵愛ホーム【介護老人保健施設】宮城県多賀城市大代５丁目１６番４６号", "url2": "https://www.kaigokensaku.mhlw.go.jp/04/index.php?action_kouhyou_detail_004_kani=true&JigyosyoCd=0450980032-00&ServiceCd=520&Type=search" }, "geometry": { "type": "Point", "coordinates": [ 141.0391539, 38.2936871 ] } },
{ "type": "Feature", "properties": { "内容": "介護老人保健施設　リハビリパークみやび【介護老人保健施設】宮城県多賀城市高橋4丁目17-16", "url2": "https://www.kaigokensaku.mhlw.go.jp/04/index.php?action_kouhyou_detail_004_kani=true&JigyosyoCd=0450980016-00&ServiceCd=520&Type=search" }, "geometry": { "type": "Point", "coordinates": [ 140.981391300000041, 38.2881501 ] } },
{ "type": "Feature", "properties": { "内容": "サニーホーム【介護老人保健施設】宮城県岩沼市里の杜１丁目2-6", "url2": "https://www.kaigokensaku.mhlw.go.jp/04/index.php?action_kouhyou_detail_004_kani=true&JigyosyoCd=0451180012-00&ServiceCd=520&Type=search" }, "geometry": { "type": "Point", "coordinates": [ 140.876876399999986, 38.1081141 ] } },
{ "type": "Feature", "properties": { "内容": "介護老人保健施設なかだ【介護老人保健施設】宮城県登米市中田町浅水字上川面65－1", "url2": "https://www.kaigokensaku.mhlw.go.jp/04/index.php?action_kouhyou_detail_004_kani=true&JigyosyoCd=0451280044-00&ServiceCd=520&Type=search" }, "geometry": { "type": "Point", "coordinates": [ 141.2619939, 38.7155727 ] } },
{ "type": "Feature", "properties": { "内容": "登米市立豊里老人保健施設【介護老人保健施設】宮城県登米市豊里町土手下104番地1", "url2": "https://www.kaigokensaku.mhlw.go.jp/04/index.php?action_kouhyou_detail_004_kani=true&JigyosyoCd=0451280028-00&ServiceCd=520&Type=search" }, "geometry": { "type": "Point", "coordinates": [ 141.253272899999956, 38.5871671 ] } },
{ "type": "Feature", "properties": { "内容": "南方ナーシングホーム翔裕園【介護老人保健施設】宮城県登米市南方町山成前791-1", "url2": "https://www.kaigokensaku.mhlw.go.jp/04/index.php?action_kouhyou_detail_004_kani=true&JigyosyoCd=0451280036-00&ServiceCd=520&Type=search" }, "geometry": { "type": "Point", "coordinates": [ 141.150214600000027, 38.6573663 ] } },
{ "type": "Feature", "properties": { "内容": "介護老人保健施設　高森ロマンホーム【介護老人保健施設】宮城県栗原市築館字下高森124-1", "url2": "https://www.kaigokensaku.mhlw.go.jp/04/index.php?action_kouhyou_detail_004_kani=true&JigyosyoCd=0451380018-00&ServiceCd=520&Type=search" }, "geometry": { "type": "Point", "coordinates": [ 140.984322300000031, 38.7159817 ] } },
{ "type": "Feature", "properties": { "内容": "介護老人保健施設せみねの丘【介護老人保健施設】宮城県栗原市瀬峰根岸55-2", "url2": "https://www.kaigokensaku.mhlw.go.jp/04/index.php?action_kouhyou_detail_004_kani=true&JigyosyoCd=0451380059-00&ServiceCd=520&Type=search" }, "geometry": { "type": "Point", "coordinates": [ 141.071274059941089, 38.652376226541193 ] } },
{ "type": "Feature", "properties": { "内容": "介護老人保健施設　PFC藤の里【介護老人保健施設】宮城県栗原市瀬峰新田沢12-1", "url2": "https://www.kaigokensaku.mhlw.go.jp/04/index.php?action_kouhyou_detail_004_kani=true&JigyosyoCd=0451380067-00&ServiceCd=520&Type=search" }, "geometry": { "type": "Point", "coordinates": [ 141.072632, 38.6666941 ] } },
{ "type": "Feature", "properties": { "内容": "介護老人保健施設　グレイスガーデン【介護老人保健施設】宮城県栗原市若柳字福岡谷地畑浦35", "url2": "https://www.kaigokensaku.mhlw.go.jp/04/index.php?action_kouhyou_detail_004_kani=true&JigyosyoCd=0451380026-00&ServiceCd=520&Type=search" }, "geometry": { "type": "Point", "coordinates": [ 141.117026399999986, 38.7836547 ] } },
{ "type": "Feature", "properties": { "内容": "介護老人保健施設　シエスタ【介護老人保健施設】宮城県栗原市金成末野台下31番地１", "url2": "https://www.kaigokensaku.mhlw.go.jp/04/index.php?action_kouhyou_detail_004_kani=true&JigyosyoCd=0451380034-00&ServiceCd=520&Type=search" }, "geometry": { "type": "Point", "coordinates": [ 141.100017500000035, 38.8475054 ] } },
{ "type": "Feature", "properties": { "内容": "介護老人保健施設さつき苑【介護老人保健施設】宮城県東松島市大塩字山崎42番地1", "url2": "https://www.kaigokensaku.mhlw.go.jp/04/index.php?action_kouhyou_detail_004_kani=true&JigyosyoCd=0451480016-00&ServiceCd=520&Type=search" }, "geometry": { "type": "Point", "coordinates": [ 141.1783084, 38.4366763 ] } },
{ "type": "Feature", "properties": { "内容": "介護老人保健施設アミスタ【介護老人保健施設】宮城県大崎市古川浦町1-37", "url2": "https://www.kaigokensaku.mhlw.go.jp/04/index.php?action_kouhyou_detail_004_kani=true&JigyosyoCd=0451580013-00&ServiceCd=520&Type=search" }, "geometry": { "type": "Point", "coordinates": [ 140.9574576, 38.5779131 ] } },
{ "type": "Feature", "properties": { "内容": "介護老人保健施設リハビリパークあやめ【介護老人保健施設】宮城県大崎市古川旭3丁目６－１", "url2": "https://www.kaigokensaku.mhlw.go.jp/04/index.php?action_kouhyou_detail_004_kani=true&JigyosyoCd=0451580054-00&ServiceCd=520&Type=search" }, "geometry": { "type": "Point", "coordinates": [ 140.974861899999951, 38.5685703 ] } },
{ "type": "Feature", "properties": { "内容": "介護老人保健施設　ジュイールクラブ【介護老人保健施設】宮城県大崎市古川北町2丁目5番15号", "url2": "https://www.kaigokensaku.mhlw.go.jp/04/index.php?action_kouhyou_detail_004_kani=true&JigyosyoCd=0451580062-00&ServiceCd=520&Type=search" }, "geometry": { "type": "Point", "coordinates": [ 140.965620599999966, 38.5795937 ] } },
{ "type": "Feature", "properties": { "内容": "介護老人保健施設　さくら【介護老人保健施設】宮城県大崎市古川小稲葉町5番25号", "url2": "https://www.kaigokensaku.mhlw.go.jp/04/index.php?action_kouhyou_detail_004_kani=true&JigyosyoCd=0451580021-00&ServiceCd=520&Type=search" }, "geometry": { "type": "Point", "coordinates": [ 140.951925100000039, 38.5687473 ] } },
{ "type": "Feature", "properties": { "内容": "介護老人保健施設　ヒューマンシティ松山【介護老人保健施設】宮城県大崎市松山千石字広田３５番地", "url2": "https://www.kaigokensaku.mhlw.go.jp/04/index.php?action_kouhyou_detail_004_kani=true&JigyosyoCd=0451580039-00&ServiceCd=520&Type=search" }, "geometry": { "type": "Point", "coordinates": [ 141.061228699999987, 38.5146609 ] } },
{ "type": "Feature", "properties": { "内容": "介護老人保健施設　庭の里【介護老人保健施設】宮城県大崎市古川江合本町２丁目２－５", "url2": "https://www.kaigokensaku.mhlw.go.jp/04/index.php?action_kouhyou_detail_004_kani=true&JigyosyoCd=0451580047-00&ServiceCd=520&Type=search" }, "geometry": { "type": "Point", "coordinates": [ 140.971652899999981, 38.5889538 ] } },
{ "type": "Feature", "properties": { "内容": "介護老人保健施設　富谷の郷【介護老人保健施設】宮城県富谷市三ノ関坂ノ下116番3", "url2": "https://www.kaigokensaku.mhlw.go.jp/04/index.php?action_kouhyou_detail_004_kani=true&JigyosyoCd=0451680011-00&ServiceCd=520&Type=search" }, "geometry": { "type": "Point", "coordinates": [ 140.892148186508166, 38.406858342942648 ] } },
{ "type": "Feature", "properties": { "内容": "介護老人保健施設　リーブズ【介護老人保健施設】宮城県富谷市成田二丁目1番地の3", "url2": "https://www.kaigokensaku.mhlw.go.jp/04/index.php?action_kouhyou_detail_004_kani=true&JigyosyoCd=0452780034-00&ServiceCd=520&Type=search" }, "geometry": { "type": "Point", "coordinates": [ 140.8868847, 38.36400410000001 ] } },
{ "type": "Feature", "properties": { "内容": "介護老人保健施設　リラの郷【介護老人保健施設】宮城県刈田郡蔵王町遠刈田温泉字八山4番１８", "url2": "https://www.kaigokensaku.mhlw.go.jp/04/index.php?action_kouhyou_detail_004_kani=true&JigyosyoCd=0452180011-00&ServiceCd=520&Type=search" }, "geometry": { "type": "Point", "coordinates": [ 140.602266900000018, 38.1086668 ] } },
{ "type": "Feature", "properties": { "内容": "介護老人保健施設さくらの杜【介護老人保健施設】宮城県柴田郡大河原町字広表３３番地１", "url2": "https://www.kaigokensaku.mhlw.go.jp/04/index.php?action_kouhyou_detail_004_kani=true&JigyosyoCd=0452280043-00&ServiceCd=520&Type=search" }, "geometry": { "type": "Point", "coordinates": [ 140.716591867459073, 38.048498097690498 ] } },
{ "type": "Feature", "properties": { "内容": "介護老人保健施設あいやま【介護老人保健施設】宮城県柴田郡村田町大字村田字相山100番地5", "url2": "https://www.kaigokensaku.mhlw.go.jp/04/index.php?action_kouhyou_detail_004_kani=true&JigyosyoCd=0452280035-00&ServiceCd=520&Type=search" }, "geometry": { "type": "Point", "coordinates": [ 140.723141899999973, 38.1288611 ] } },
{ "type": "Feature", "properties": { "内容": "介護老人保健施設　リハビリパークさくら【介護老人保健施設】宮城県柴田郡柴田町船岡新栄6丁目6番地５", "url2": "https://www.kaigokensaku.mhlw.go.jp/04/index.php?action_kouhyou_detail_004_kani=true&JigyosyoCd=0452280027-00&ServiceCd=520&Type=search" }, "geometry": { "type": "Point", "coordinates": [ 140.781464, 38.0481201 ] } },
{ "type": "Feature", "properties": { "内容": "アルパイン川崎【介護老人保健施設】宮城県柴田郡川崎町大字前川字北原59番地の6", "url2": "https://www.kaigokensaku.mhlw.go.jp/04/index.php?action_kouhyou_detail_004_kani=true&JigyosyoCd=0452280019-00&ServiceCd=520&Type=search" }, "geometry": { "type": "Point", "coordinates": [ 140.629458699999986, 38.1825884 ] } },
{ "type": "Feature", "properties": { "内容": "介護老人保健施設　丸森ロイヤルケアセンター【介護老人保健施設】宮城県伊具郡丸森町字鳥屋9番2", "url2": "https://www.kaigokensaku.mhlw.go.jp/04/index.php?action_kouhyou_detail_004_kani=true&JigyosyoCd=0452380017-00&ServiceCd=520&Type=search" }, "geometry": { "type": "Point", "coordinates": [ 140.766114099999982, 37.9132735 ] } },
{ "type": "Feature", "properties": { "内容": "老人保健施設　和多里ホーム【介護老人保健施設】宮城県亘理郡亘理町字裏城戸155", "url2": "https://www.kaigokensaku.mhlw.go.jp/04/index.php?action_kouhyou_detail_004_kani=true&JigyosyoCd=0452480023-00&ServiceCd=520&Type=search" }, "geometry": { "type": "Point", "coordinates": [ 140.859900499999981, 38.0300772 ] } },
{ "type": "Feature", "properties": { "内容": "医療法人育志会　介護老人保健施設アルカディアウエル【介護老人保健施設】宮城県亘理郡山元町山寺字堤山8番地5", "url2": "https://www.kaigokensaku.mhlw.go.jp/04/index.php?action_kouhyou_detail_004_kani=true&JigyosyoCd=0452480015-00&ServiceCd=520&Type=search" }, "geometry": { "type": "Point", "coordinates": [ 140.87121609999997, 37.9634178 ] } },
{ "type": "Feature", "properties": { "内容": "利府仙台ロイヤルケアセンター【介護老人保健施設】宮城県宮城郡利府町新中道二丁目1番地1", "url2": "https://www.kaigokensaku.mhlw.go.jp/04/index.php?action_kouhyou_detail_004_kani=true&JigyosyoCd=0452680028-00&ServiceCd=520&Type=search" }, "geometry": { "type": "Point", "coordinates": [ 140.975114299999973, 38.3254122 ] } },
{ "type": "Feature", "properties": { "内容": "介護老人保健施設　加瀬ウェルネスタウン【介護老人保健施設】宮城県宮城郡利府町加瀬字北窪１６番１", "url2": "https://www.kaigokensaku.mhlw.go.jp/04/index.php?action_kouhyou_detail_004_kani=true&JigyosyoCd=0452680036-00&ServiceCd=520&Type=search" }, "geometry": { "type": "Point", "coordinates": [ 140.981342, 38.3203575 ] } },
{ "type": "Feature", "properties": { "内容": "介護老人保健施設希望の杜【介護老人保健施設】宮城県黒川郡大和町吉田字新要害１０番地", "url2": "https://www.kaigokensaku.mhlw.go.jp/04/index.php?action_kouhyou_detail_004_kani=true&JigyosyoCd=0452780018-00&ServiceCd=520&Type=search" }, "geometry": { "type": "Point", "coordinates": [ 140.880479499999979, 38.4339985 ] } },
{ "type": "Feature", "properties": { "内容": "羽生の丘・オーベルジュ【介護老人保健施設】宮城県黒川郡大郷町羽生字蒲ヶ沢50番地の1", "url2": "https://www.kaigokensaku.mhlw.go.jp/04/index.php?action_kouhyou_detail_004_kani=true&JigyosyoCd=0452780042-00&ServiceCd=520&Type=search" }, "geometry": { "type": "Point", "coordinates": [ 141.015302199999951, 38.424535 ] } },
{ "type": "Feature", "properties": { "内容": "加美老人保健施設【介護老人保健施設】宮城県加美郡色麻町四竃字杉成９番地", "url2": "https://www.kaigokensaku.mhlw.go.jp/04/index.php?action_kouhyou_detail_004_kani=true&JigyosyoCd=0452880016-00&ServiceCd=520&Type=search" }, "geometry": { "type": "Point", "coordinates": [ 140.848583407270837, 38.551285119544602 ] } },
{ "type": "Feature", "properties": { "内容": "涌谷町老人保健施設【介護老人保健施設】宮城県遠田郡涌谷町涌谷字中江南278", "url2": "https://www.kaigokensaku.mhlw.go.jp/04/index.php?action_kouhyou_detail_004_kani=true&JigyosyoCd=0453180010-00&ServiceCd=520&Type=search" }, "geometry": { "type": "Point", "coordinates": [ 141.148284, 38.5401658 ] } },
{ "type": "Feature", "properties": { "内容": "介護老人保健施設　なかぞね【介護老人保健施設】宮城県遠田郡美里町中埣字上戸３４", "url2": "https://www.kaigokensaku.mhlw.go.jp/04/index.php?action_kouhyou_detail_004_kani=true&JigyosyoCd=0453180028-00&ServiceCd=520&Type=search" }, "geometry": { "type": "Point", "coordinates": [ 141.033642, 38.5807869 ] } },
{ "type": "Feature", "properties": { "内容": "野崎病院附属介護老人保健施設美里【介護老人保健施設】宮城県遠田郡美里町字藤ヶ崎町151-2", "url2": "https://www.kaigokensaku.mhlw.go.jp/04/index.php?action_kouhyou_detail_004_kani=true&JigyosyoCd=0453180036-00&ServiceCd=520&Type=search" }, "geometry": { "type": "Point", "coordinates": [ 141.059960599548731, 38.539398402462254 ] } },
{ "type": "Feature", "properties": { "内容": "女川町地域医療センター【介護老人保健施設】宮城県牡鹿郡女川町鷲神浜字堀切山107-1", "url2": "https://www.kaigokensaku.mhlw.go.jp/04/index.php?action_kouhyou_detail_004_kani=true&JigyosyoCd=0453580011-00&ServiceCd=520&Type=search" }, "geometry": { "type": "Point", "coordinates": [ 141.445232499999946, 38.4434142 ] } },
{ "type": "Feature", "properties": { "内容": "医療法人　医徳会　介護老人保健施設　歌津つつじ苑【介護老人保健施設】宮城県本吉郡南三陸町歌津字砂浜２３－５９", "url2": "https://www.kaigokensaku.mhlw.go.jp/04/index.php?action_kouhyou_detail_004_kani=true&JigyosyoCd=0453680019-00&ServiceCd=520&Type=search" }, "geometry": { "type": "Point", "coordinates": [ 141.51009810000005, 38.7033202 ] } },
{ "type": "Feature", "properties": { "内容": "介護老人保健施設　ハイム・メアーズ【介護老人保健施設】宮城県本吉郡南三陸町志津川字袖浜255番地", "url2": "https://www.kaigokensaku.mhlw.go.jp/04/index.php?action_kouhyou_detail_004_kani=true&JigyosyoCd=0453680027-00&ServiceCd=520&Type=search" }, "geometry": { "type": "Point", "coordinates": [ 141.471692246696421, 38.678316567631398 ] } }
]
}
