{
"type": "FeatureCollection",
"name": "geo_04_特別支援学校",
"crs": { "type": "name", "properties": { "name": "urn:ogc:def:crs:EPSG::6668" } },
"features": [
{ "type": "Feature", "properties": { "P29_001": "04101", "P29_002": "E104110000010", "P29_003": "16012", "P29_004": "宮城教育大学附属特別支援学校", "P29_005": "宮城県仙台市青葉区青葉区荒巻字青葉395-2", "P29_006": "1", "P29_007": "0", "P29_008": "00", "P29_009": null }, "geometry": { "type": "Point", "coordinates": [ 140.833905734470534, 38.260614912463367 ] } },
{ "type": "Feature", "properties": { "P29_001": "04101", "P29_002": "E104211010014", "P29_003": "16012", "P29_004": "宮城県立視覚支援学校", "P29_005": "宮城県仙台市青葉区上杉6-5-1", "P29_006": "2", "P29_007": "0", "P29_008": "00", "P29_009": null }, "geometry": { "type": "Point", "coordinates": [ 140.878040014303053, 38.277688887666152 ] } },
{ "type": "Feature", "properties": { "P29_001": "04101", "P29_002": "E104211010023", "P29_003": "16012", "P29_004": "宮城県立拓桃支援学校", "P29_005": "宮城県仙台市青葉区落合4-3-17-2", "P29_006": "2", "P29_007": "0", "P29_008": "00", "P29_009": null }, "geometry": { "type": "Point", "coordinates": [ 140.783800110636975, 38.275605428864978 ] } },
{ "type": "Feature", "properties": { "P29_001": "04101", "P29_002": "E104211010032", "P29_003": "16012", "P29_004": "宮城県立小松島支援学校", "P29_005": "宮城県仙台市青葉区小松島新堤2-1", "P29_006": "2", "P29_007": "0", "P29_008": "00", "P29_009": null }, "geometry": { "type": "Point", "coordinates": [ 140.894131072063118, 38.283928552348371 ] } },
{ "type": "Feature", "properties": { "P29_001": "04104", "P29_002": "E104211040018", "P29_003": "16012", "P29_004": "宮城県立聴覚支援学校", "P29_005": "宮城県仙台市太白区八本松2-7-29", "P29_006": "2", "P29_007": "0", "P29_008": "00", "P29_009": null }, "geometry": { "type": "Point", "coordinates": [ 140.892620743334533, 38.227341646461937 ] } },
{ "type": "Feature", "properties": { "P29_001": "04104", "P29_002": "E104211040027", "P29_003": "16012", "P29_004": "宮城県立西多賀支援学校", "P29_005": "宮城県仙台市太白区鈎取本町2-11-17", "P29_006": "2", "P29_007": "0", "P29_008": "00", "P29_009": null }, "geometry": { "type": "Point", "coordinates": [ 140.834169016681443, 38.226418621171504 ] } },
{ "type": "Feature", "properties": { "P29_001": "04105", "P29_002": "E104211050015", "P29_003": "16012", "P29_004": "宮城県立光明支援学校", "P29_005": "宮城県仙台市泉区南中山5-1-1", "P29_006": "2", "P29_007": "0", "P29_008": "00", "P29_009": null }, "geometry": { "type": "Point", "coordinates": [ 140.816043468255458, 38.312888299102013 ] } },
{ "type": "Feature", "properties": { "P29_001": "04105", "P29_002": "E104211050024", "P29_003": "16012", "P29_004": "宮城県小松島支援学校松陵校", "P29_005": "宮城県仙台市泉区松陵4-28-2", "P29_006": "2", "P29_007": "0", "P29_008": "00", "P29_009": null }, "geometry": { "type": "Point", "coordinates": [ 140.917186638035048, 38.332697632784239 ] } },
{ "type": "Feature", "properties": { "P29_001": "04202", "P29_002": "E104212020010", "P29_003": "16012", "P29_004": "宮城県立石巻支援学校", "P29_005": "宮城県石巻市蛇田字新立野410-1", "P29_006": "2", "P29_007": "0", "P29_008": "00", "P29_009": null }, "geometry": { "type": "Point", "coordinates": [ 141.258204423785429, 38.451663832399021 ] } },
{ "type": "Feature", "properties": { "P29_001": "04203", "P29_002": "E104212030018", "P29_003": "16012", "P29_004": "宮城県立利府支援学校塩釜校", "P29_005": "宮城県塩竈市小松崎10-1", "P29_006": "2", "P29_007": "0", "P29_008": "00", "P29_009": null }, "geometry": { "type": "Point", "coordinates": [ 141.01981499414353, 38.325085997090632 ] } },
{ "type": "Feature", "properties": { "P29_001": "04205", "P29_002": "E104212050013", "P29_003": "16012", "P29_004": "宮城県立気仙沼支援学校", "P29_005": "宮城県気仙沼市松崎柳沢216-7", "P29_006": "2", "P29_007": "0", "P29_008": "00", "P29_009": null }, "geometry": { "type": "Point", "coordinates": [ 141.5529672772428, 38.876900279861147 ] } },
{ "type": "Feature", "properties": { "P29_001": "04206", "P29_002": "E104212060011", "P29_003": "16012", "P29_004": "宮城県立角田支援学校白石校", "P29_005": "宮城県白石市南町1-2-79", "P29_006": "2", "P29_007": "0", "P29_008": "00", "P29_009": null }, "geometry": { "type": "Point", "coordinates": [ 140.619854697683309, 37.999533314993627 ] } },
{ "type": "Feature", "properties": { "P29_001": "04207", "P29_002": "E104212070019", "P29_003": "16012", "P29_004": "宮城県立名取支援学校", "P29_005": "宮城県名取市高舘吉田字東真坂6-11", "P29_006": "2", "P29_007": "0", "P29_008": "00", "P29_009": null }, "geometry": { "type": "Point", "coordinates": [ 140.851172922377174, 38.1872799145304 ] } },
{ "type": "Feature", "properties": { "P29_001": "04207", "P29_002": "E104212070028", "P29_003": "16012", "P29_004": "宮城県立名取支援学校名取が丘校", "P29_005": "宮城県名取市名取が丘6-11-1", "P29_006": "2", "P29_007": "0", "P29_008": "00", "P29_009": null }, "geometry": { "type": "Point", "coordinates": [ 140.871378676937582, 38.154931043153304 ] } },
{ "type": "Feature", "properties": { "P29_001": "04208", "P29_002": "E104212080017", "P29_003": "16012", "P29_004": "宮城県立角田支援学校", "P29_005": "宮城県角田市島田字御蔵林24-1", "P29_006": "2", "P29_007": "0", "P29_008": "00", "P29_009": null }, "geometry": { "type": "Point", "coordinates": [ 140.826552892964173, 37.932573050572181 ] } },
{ "type": "Feature", "properties": { "P29_001": "04211", "P29_002": "E104212110011", "P29_003": "16012", "P29_004": "宮城県立支援学校岩沼高等学園", "P29_005": "宮城県岩沼市北長谷字豊田1-1", "P29_006": "2", "P29_007": "0", "P29_008": "00", "P29_009": null }, "geometry": { "type": "Point", "coordinates": [ 140.843104185487789, 38.108152209782283 ] } },
{ "type": "Feature", "properties": { "P29_001": "04212", "P29_002": "E104212120019", "P29_003": "16012", "P29_004": "宮城県立迫支援学校", "P29_005": "宮城県登米市迫町北方字大洞59-10", "P29_006": "2", "P29_007": "0", "P29_008": "00", "P29_009": null }, "geometry": { "type": "Point", "coordinates": [ 141.176272020738963, 38.695705001630721 ] } },
{ "type": "Feature", "properties": { "P29_001": "04213", "P29_002": "E104212130017", "P29_003": "16012", "P29_004": "宮城県立金成支援学校", "P29_005": "宮城県栗原市金成沢辺小崎87-1", "P29_006": "2", "P29_007": "0", "P29_008": "00", "P29_009": null }, "geometry": { "type": "Point", "coordinates": [ 141.044579998328174, 38.801524997937655 ] } },
{ "type": "Feature", "properties": { "P29_001": "04215", "P29_002": "E104212150012", "P29_003": "16012", "P29_004": "宮城県立古川支援学校", "P29_005": "宮城県大崎市古川飯川字熊野87", "P29_006": "2", "P29_007": "0", "P29_008": "00", "P29_009": null }, "geometry": { "type": "Point", "coordinates": [ 140.913359221536012, 38.570671419346617 ] } },
{ "type": "Feature", "properties": { "P29_001": "04216", "P29_002": "E104212160010", "P29_003": "16012", "P29_004": "宮城県立利府支援学校富谷校", "P29_005": "宮城県富谷市富ヶ丘1-17-37", "P29_006": "2", "P29_007": "0", "P29_008": "00", "P29_009": null }, "geometry": { "type": "Point", "coordinates": [ 140.869326609265954, 38.36070016876814 ] } },
{ "type": "Feature", "properties": { "P29_001": "04323", "P29_002": "E104213230014", "P29_003": "16012", "P29_004": "宮城県立船岡支援学校", "P29_005": "宮城県柴田郡柴田町船岡南2-3-1", "P29_006": "2", "P29_007": "0", "P29_008": "00", "P29_009": null }, "geometry": { "type": "Point", "coordinates": [ 140.774441760541691, 38.050666402891373 ] } },
{ "type": "Feature", "properties": { "P29_001": "04362", "P29_002": "E104213620012", "P29_003": "16012", "P29_004": "宮城県立山元支援学校", "P29_005": "宮城県亘理郡山元町高瀬字合戦原100-2", "P29_006": "2", "P29_007": "0", "P29_008": "00", "P29_009": null }, "geometry": { "type": "Point", "coordinates": [ 140.890014156008476, 37.940803420094277 ] } },
{ "type": "Feature", "properties": { "P29_001": "04406", "P29_002": "E104214060017", "P29_003": "16012", "P29_004": "宮城県立利府支援学校", "P29_005": "宮城県宮城郡利府町沢乙字向山26", "P29_006": "2", "P29_007": "0", "P29_008": "00", "P29_009": null }, "geometry": { "type": "Point", "coordinates": [ 140.970445001689598, 38.329911000646071 ] } },
{ "type": "Feature", "properties": { "P29_001": "04505", "P29_002": "E104215050016", "P29_003": "16012", "P29_004": "宮城県立聴覚支援学校小牛田校", "P29_005": "宮城県遠田郡美里町北浦字船入1", "P29_006": "2", "P29_007": "0", "P29_008": "00", "P29_009": null }, "geometry": { "type": "Point", "coordinates": [ 141.056450965486476, 38.539346335796857 ] } },
{ "type": "Feature", "properties": { "P29_001": "04505", "P29_002": "E104215050025", "P29_003": "16012", "P29_004": "宮城県立支援学校小牛田高等学園", "P29_005": "宮城県遠田郡美里町北浦字船入1", "P29_006": "2", "P29_007": "0", "P29_008": "00", "P29_009": null }, "geometry": { "type": "Point", "coordinates": [ 141.056580973550354, 38.539321637361311 ] } },
{ "type": "Feature", "properties": { "P29_001": "04581", "P29_002": "E104215810017", "P29_003": "16012", "P29_004": "宮城県立支援学校女川高等学園", "P29_005": "宮城県牡鹿郡女川町浦宿浜字十二神60-3", "P29_006": "2", "P29_007": "0", "P29_008": "00", "P29_009": null }, "geometry": { "type": "Point", "coordinates": [ 141.432923524627142, 38.43870584443038 ] } },
{ "type": "Feature", "properties": { "P29_001": "04102", "P29_002": "E104221020011", "P29_003": "16012", "P29_004": "仙台市立鶴谷特別支援学校", "P29_005": "宮城県仙台市宮城野区鶴ヶ谷5-22-1", "P29_006": "3", "P29_007": "0", "P29_008": "00", "P29_009": null }, "geometry": { "type": "Point", "coordinates": [ 140.915869951379761, 38.295422707182247 ] } },
{ "type": "Feature", "properties": { "P29_001": "04101", "P29_002": "E104391010014", "P29_003": "16012", "P29_004": "支援学校仙台みらい高等学園", "P29_005": "宮城県仙台市青葉区荒巻字青葉393", "P29_006": "4", "P29_007": "0", "P29_008": "00", "P29_009": null }, "geometry": { "type": "Point", "coordinates": [ 140.833022151595259, 38.26142013532067 ] } },
{ "type": "Feature", "properties": { "P29_001": "04102", "P29_002": "E104391020012", "P29_003": "16012", "P29_004": "いずみ高等支援学校", "P29_005": "宮城県仙台市宮城野区安養寺2-1-1", "P29_006": "4", "P29_007": "0", "P29_008": "00", "P29_009": null }, "geometry": { "type": "Point", "coordinates": [ 140.906859712949455, 38.284725435771236 ] } }
]
}
