{
"type": "FeatureCollection",
"name": "geo_04_地域密着型介護老人福祉施設入所者生活介護",
"crs": { "type": "name", "properties": { "name": "urn:ogc:def:crs:OGC:1.3:CRS84" } },
"features": [
{ "type": "Feature", "properties": { "内容": "特別養護老人ホーム　シオンの園【地域密着型介護老人福祉施設入所者生活介護】宮城県仙台市青葉区小松島新堤7-1", "url": "https://www.kaigokensaku.mhlw.go.jp/04/index.php?action_kouhyou_detail_004_kani=true&JigyosyoCd=0495100257-00&ServiceCd=540&Type=search", "url2": "http://scikujiin.or.jp/" }, "geometry": { "type": "Point", "coordinates": [ 140.891546559385688, 38.285895927668051 ] } },
{ "type": "Feature", "properties": { "内容": "地域密着型特別養護老ホーム栗生ハウス【地域密着型介護老人福祉施設入所者生活介護】宮城県仙台市青葉区栗生１丁目２４－２", "url": "https://www.kaigokensaku.mhlw.go.jp/04/index.php?action_kouhyou_detail_004_kani=true&JigyosyoCd=0495100216-00&ServiceCd=540&Type=search", "url2": "http://www.f-kouseikai.or.jp" }, "geometry": { "type": "Point", "coordinates": [ 140.79249070000003, 38.2638466 ] } },
{ "type": "Feature", "properties": { "内容": "特別養護老人ホーム　アルテイル宮町【地域密着型介護老人福祉施設入所者生活介護】仙台市青葉区宮町1丁目4番47号", "url": "https://www.kaigokensaku.mhlw.go.jp/04/index.php?action_kouhyou_detail_004_kani=true&JigyosyoCd=0495100141-00&ServiceCd=540&Type=search", "url2": "http://www.aofuku.or.jp" }, "geometry": { "type": "Point", "coordinates": [ 140.884540432540888, 38.267268147400536 ] } },
{ "type": "Feature", "properties": { "内容": "特別養護老人ホームリベラ荘（ユニット型）【地域密着型介護老人福祉施設入所者生活介護】宮城県仙台市青葉区国見ケ丘７丁目１４１番地の９", "url": "https://www.kaigokensaku.mhlw.go.jp/04/index.php?action_kouhyou_detail_004_kani=true&JigyosyoCd=0495100265-00&ServiceCd=540&Type=search", "url2": "https://www.sendan.or.jp" }, "geometry": { "type": "Point", "coordinates": [ 140.834774399999986, 38.2897503 ] } },
{ "type": "Feature", "properties": { "内容": "特別養護老人ホーム　自生苑サテライト【地域密着型介護老人福祉施設入所者生活介護】宮城県仙台市青葉区芋沢字青野木531-4特別養護老人ホーム自生苑サテライト", "url": "https://www.kaigokensaku.mhlw.go.jp/04/index.php?action_kouhyou_detail_004_kani=true&JigyosyoCd=0495100133-00&ServiceCd=540&Type=search", "url2": "http://www.jisyoukai.net/" }, "geometry": { "type": "Point", "coordinates": [ 140.7233225, 38.2863034 ] } },
{ "type": "Feature", "properties": { "内容": "特別養護老人ホームふたばの杜【地域密着型介護老人福祉施設入所者生活介護】宮城県仙台市青葉区双葉ケ丘一丁目42番6号", "url": "https://www.kaigokensaku.mhlw.go.jp/04/index.php?action_kouhyou_detail_004_kani=true&JigyosyoCd=0495100166-00&ServiceCd=540&Type=search", "url2": "http://www.izuminomori.jp" }, "geometry": { "type": "Point", "coordinates": [ 140.877177299999971, 38.3058302 ] } },
{ "type": "Feature", "properties": { "内容": "地域密着型特別養護老人ホーム　サテライト大石原苑【地域密着型介護老人福祉施設入所者生活介護】宮城県仙台市青葉区荒巻字仁田谷地1番1", "url": "https://www.kaigokensaku.mhlw.go.jp/04/index.php?action_kouhyou_detail_004_kani=true&JigyosyoCd=0495100208-00&ServiceCd=540&Type=search", "url2": "http://oishigaharakai.or.jp" }, "geometry": { "type": "Point", "coordinates": [ 140.81850577967441, 38.283025153852883 ] } },
{ "type": "Feature", "properties": { "内容": "特別養護老人ホームハートケア鶴ヶ谷【地域密着型介護老人福祉施設入所者生活介護】宮城県仙台市宮城野区鶴ヶ谷2丁目1番13号特別養護老人ホームハートケア鶴ヶ谷", "url": "https://www.kaigokensaku.mhlw.go.jp/04/index.php?action_kouhyou_detail_004_kani=true&JigyosyoCd=0495200404-00&ServiceCd=540&Type=search", "url2": "http://catholicjido.org/tsurugaya/" }, "geometry": { "type": "Point", "coordinates": [ 140.913911, 38.2868836 ] } },
{ "type": "Feature", "properties": { "内容": "地域密着型特別養護老人ホーム　チアフル古城【地域密着型介護老人福祉施設入所者生活介護】宮城県仙台市若林区古城三丁目12番18号", "url": "https://www.kaigokensaku.mhlw.go.jp/04/index.php?action_kouhyou_detail_004_kani=true&JigyosyoCd=0495300212-00&ServiceCd=540&Type=search", "url2": "http://敬長福祉会.jp" }, "geometry": { "type": "Point", "coordinates": [ 140.90967820000003, 38.234456 ] } },
{ "type": "Feature", "properties": { "内容": "ライフの学校地域密着型特別養護老人ホーム六郷キャンパス【地域密着型介護老人福祉施設入所者生活介護】今泉字門暮126番1", "url": "https://www.kaigokensaku.mhlw.go.jp/04/index.php?action_kouhyou_detail_004_kani=true&JigyosyoCd=0495300493-00&ServiceCd=540&Type=search", "url2": "https://gakkou.life/" }, "geometry": { "type": "Point", "coordinates": [ 140.930667604754632, 38.213021066789082 ] } },
{ "type": "Feature", "properties": { "内容": "ライフの学校地域密着型特別養護老人ホーム萩の風キャンパス【地域密着型介護老人福祉施設入所者生活介護】宮城県仙台市若林区上飯田字天神1-1ライフの学校地域密着型特別養護老人ホーム萩の風キャンパス", "url": "https://www.kaigokensaku.mhlw.go.jp/04/index.php?action_kouhyou_detail_004_kani=true&JigyosyoCd=0495300295-00&ServiceCd=540&Type=search", "url2": "https://gakkou.life" }, "geometry": { "type": "Point", "coordinates": [ 140.920811400000048, 38.2202968 ] } },
{ "type": "Feature", "properties": { "内容": "地域密着型特別養護老人ホーム　てらす鈎取【地域密着型介護老人福祉施設入所者生活介護】宮城県仙台市太白区鈎取4丁目14番15号", "url": "https://www.kaigokensaku.mhlw.go.jp/04/index.php?action_kouhyou_detail_004_kani=true&JigyosyoCd=0495400186-00&ServiceCd=540&Type=search", "url2": "http:www.welcome.or.jp/" }, "geometry": { "type": "Point", "coordinates": [ 140.837337700000035, 38.2277549 ] } },
{ "type": "Feature", "properties": { "内容": "特別養護老人ホーム　第二白東苑【地域密着型介護老人福祉施設入所者生活介護】宮城県仙台市太白区袋原4丁目36-18なし", "url": "https://www.kaigokensaku.mhlw.go.jp/04/index.php?action_kouhyou_detail_004_kani=true&JigyosyoCd=0495400160-00&ServiceCd=540&Type=search", "url2": "https://sendai-venus.jp/" }, "geometry": { "type": "Point", "coordinates": [ 140.9151713, 38.1993931 ] } },
{ "type": "Feature", "properties": { "内容": "地域密着型特別養護老人ホーム抱優館南光台東【地域密着型介護老人福祉施設入所者生活介護】宮城県仙台市泉区松森字後沢3番地の1", "url": "https://www.kaigokensaku.mhlw.go.jp/04/index.php?action_kouhyou_detail_004_kani=true&JigyosyoCd=0495500498-00&ServiceCd=540&Type=search", "url2": "http://www.yamatomirai.or.jp" }, "geometry": { "type": "Point", "coordinates": [ 140.914583810173099, 38.301415701077438 ] } },
{ "type": "Feature", "properties": { "内容": "特別養護老人ホーム梅が丘【地域密着型介護老人福祉施設入所者生活介護】宮城県仙台市泉区本田町２０番８号", "url": "https://www.kaigokensaku.mhlw.go.jp/04/index.php?action_kouhyou_detail_004_kani=true&JigyosyoCd=0495500233-00&ServiceCd=540&Type=search", "url2": "http://care-net.biz/04/shirayuri/sitemap.php" }, "geometry": { "type": "Point", "coordinates": [ 140.904851399999984, 38.3244652 ] } },
{ "type": "Feature", "properties": { "内容": "地域密着型特別養護老人ホーム寳樹苑いずみ【地域密着型介護老人福祉施設入所者生活介護】宮城県仙台市泉区上谷刈3丁目16-21", "url": "https://www.kaigokensaku.mhlw.go.jp/04/index.php?action_kouhyou_detail_004_kani=true&JigyosyoCd=0495500217-00&ServiceCd=540&Type=search", "url2": "http://mrjk.jp/" }, "geometry": { "type": "Point", "coordinates": [ 140.868877600000019, 38.3198949 ] } },
{ "type": "Feature", "properties": { "内容": "地域密着型特別養護老人ホーム河南の郷【地域密着型介護老人福祉施設入所者生活介護】宮城県石巻市鹿又字扇平37番地1", "url": "https://www.kaigokensaku.mhlw.go.jp/04/index.php?action_kouhyou_detail_004_kani=true&JigyosyoCd=0490200458-00&ServiceCd=540&Type=search", "url2": "https://khanaichi.com/" }, "geometry": { "type": "Point", "coordinates": [ 141.250993514649963, 38.483938405793083 ] } },
{ "type": "Feature", "properties": { "内容": "地域密着型特別養護老人ホームつつじの郷【地域密着型介護老人福祉施設入所者生活介護】宮城県石巻市蛇田字小斎９番地３特別養護老人ホーム　つつじの郷", "url": "https://www.kaigokensaku.mhlw.go.jp/04/index.php?action_kouhyou_detail_004_kani=true&JigyosyoCd=0490200177-00&ServiceCd=540&Type=search", "url2": "http://care-net.biz/04/tsutsujikai/" }, "geometry": { "type": "Point", "coordinates": [ 141.2556389, 38.4539016 ] } },
{ "type": "Feature", "properties": { "内容": "特別養護老人ホーム花水木【地域密着型介護老人福祉施設入所者生活介護】宮城県石巻市鹿又字八幡前15番", "url": "https://www.kaigokensaku.mhlw.go.jp/04/index.php?action_kouhyou_detail_004_kani=true&JigyosyoCd=0470200916-00&ServiceCd=540&Type=search", "url2": "https://hanamizuki1999.com/" }, "geometry": { "type": "Point", "coordinates": [ 141.2850995, 38.4863513 ] } },
{ "type": "Feature", "properties": { "内容": "地域密着型特別養護老人ホーム　ラ・ヴィアンロゼ桜の園【地域密着型介護老人福祉施設入所者生活介護】宮城県石巻市蛇田字北経塚２６－１", "url": "https://www.kaigokensaku.mhlw.go.jp/04/index.php?action_kouhyou_detail_004_kani=true&JigyosyoCd=0490200367-00&ServiceCd=540&Type=search", "url2": "https://yumeminosato.jp" }, "geometry": { "type": "Point", "coordinates": [ 141.267336699999987, 38.4542003 ] } },
{ "type": "Feature", "properties": { "内容": "ウィズ月見ヶ丘【地域密着型介護老人福祉施設入所者生活介護】宮城県塩竈市月見ヶ丘６番１０号", "url": "https://www.kaigokensaku.mhlw.go.jp/04/index.php?action_kouhyou_detail_004_kani=true&JigyosyoCd=0490300035-00&ServiceCd=540&Type=search", "url2": "http://www.shiogama-haginosato.jp" }, "geometry": { "type": "Point", "coordinates": [ 141.00218719999998, 38.3217636 ] } },
{ "type": "Feature", "properties": { "内容": "地域密着型特別養護老人ホーム塩釜こころの樹翔裕園【地域密着型介護老人福祉施設入所者生活介護】宮城県塩釜市北浜4丁目6-13", "url": "https://www.kaigokensaku.mhlw.go.jp/04/index.php?action_kouhyou_detail_004_kani=true&JigyosyoCd=0490300134-00&ServiceCd=540&Type=search", "url2": null }, "geometry": { "type": "Point", "coordinates": [ 141.0267574, 38.3228494 ] } },
{ "type": "Feature", "properties": { "内容": "特別養護老人ホーム春圃苑【地域密着型介護老人福祉施設入所者生活介護】宮城県気仙沼市本吉町中島３５８番地３", "url": "https://www.kaigokensaku.mhlw.go.jp/04/index.php?action_kouhyou_detail_004_kani=true&JigyosyoCd=0490500097-00&ServiceCd=540&Type=search", "url2": "http://syunpo-kai.com/" }, "geometry": { "type": "Point", "coordinates": [ 141.517246800000066, 38.77633 ] } },
{ "type": "Feature", "properties": { "内容": "ひだまり【地域密着型介護老人福祉施設入所者生活介護】宮城県白石市銚子ｹ森26番１", "url": "https://www.kaigokensaku.mhlw.go.jp/04/index.php?action_kouhyou_detail_004_kani=true&JigyosyoCd=0490600079-00&ServiceCd=540&Type=search", "url2": "http://www.eisei-kai.or.jp/" }, "geometry": { "type": "Point", "coordinates": [ 140.626765699999964, 38.0012782 ] } },
{ "type": "Feature", "properties": { "内容": "地域密着型特別養護老人ホーム　風の音サテライト史【地域密着型介護老人福祉施設入所者生活介護】宮城県多賀城市伝上山1丁目5番6号", "url": "https://www.kaigokensaku.mhlw.go.jp/04/index.php?action_kouhyou_detail_004_kani=true&JigyosyoCd=0490900107-00&ServiceCd=540&Type=search", "url2": "http://www.kou-fuku.or.jp" }, "geometry": { "type": "Point", "coordinates": [ 141.010737899999981, 38.2977056 ] } },
{ "type": "Feature", "properties": { "内容": "地域密着型特別養護老人ホーム　チアフル三色吉【地域密着型介護老人福祉施設入所者生活介護】宮城県岩沼市三色吉字松206番地", "url": "https://www.kaigokensaku.mhlw.go.jp/04/index.php?action_kouhyou_detail_004_kani=true&JigyosyoCd=0491100053-00&ServiceCd=540&Type=search", "url2": "http://敬長福祉会.jp" }, "geometry": { "type": "Point", "coordinates": [ 140.84645850000004, 38.1215152 ] } },
{ "type": "Feature", "properties": { "内容": "地域密着型特別養護老人ホーム恵み野【地域密着型介護老人福祉施設入所者生活介護】宮城県岩沼市恵み野一丁目７番地の１", "url": "https://www.kaigokensaku.mhlw.go.jp/04/index.php?action_kouhyou_detail_004_kani=true&JigyosyoCd=0491100061-00&ServiceCd=540&Type=search", "url2": "http://www.akaikoh.or.jp" }, "geometry": { "type": "Point", "coordinates": [ 140.90422430000001, 38.108509800000014 ] } },
{ "type": "Feature", "properties": { "内容": "特別養護老人ホームみろく苑【地域密着型介護老人福祉施設入所者生活介護】宮城県登米市中田町上沼字新寺山下59-6", "url": "https://www.kaigokensaku.mhlw.go.jp/04/index.php?action_kouhyou_detail_004_kani=true&JigyosyoCd=0491200168-00&ServiceCd=540&Type=search", "url2": "http://www.oyukai.jp/" }, "geometry": { "type": "Point", "coordinates": [ 141.260676, 38.7367706 ] } },
{ "type": "Feature", "properties": { "内容": "特別養護老人ホームみろく苑【地域密着型介護老人福祉施設入所者生活介護】宮城県登米市中田町上沼字新寺山下５９－６", "url": "https://www.kaigokensaku.mhlw.go.jp/04/index.php?action_kouhyou_detail_004_kani=true&JigyosyoCd=0491200176-00&ServiceCd=540&Type=search", "url2": "http://www.oyukai.jp/" }, "geometry": { "type": "Point", "coordinates": [ 141.2579958, 38.7334515 ] } },
{ "type": "Feature", "properties": { "内容": "特別養護老人ホームゆりの郷【地域密着型介護老人福祉施設入所者生活介護】宮城県登米市登米町寺池金沢山６０－５", "url": "https://www.kaigokensaku.mhlw.go.jp/04/index.php?action_kouhyou_detail_004_kani=true&JigyosyoCd=0491200077-00&ServiceCd=540&Type=search", "url2": "http://www.keisen-net.jp" }, "geometry": { "type": "Point", "coordinates": [ 141.269799199999966, 38.6475132 ] } },
{ "type": "Feature", "properties": { "内容": "特別養護老人ホーム　ゆりの郷【地域密着型介護老人福祉施設入所者生活介護】宮城県登米市登米町寺池金沢山６０－５", "url": "https://www.kaigokensaku.mhlw.go.jp/04/index.php?action_kouhyou_detail_004_kani=true&JigyosyoCd=0491200085-00&ServiceCd=540&Type=search", "url2": "http://www.keisen-net.jp" }, "geometry": { "type": "Point", "coordinates": [ 141.269799199999966, 38.6475132 ] } },
{ "type": "Feature", "properties": { "内容": "特別養護老人ホーム　登米苑【地域密着型介護老人福祉施設入所者生活介護】宮城県登米市登米町寺池桜小路132", "url": "https://www.kaigokensaku.mhlw.go.jp/04/index.php?action_kouhyou_detail_004_kani=true&JigyosyoCd=0491200234-00&ServiceCd=540&Type=search", "url2": "https://www.tome-fukushi.net/tome-en" }, "geometry": { "type": "Point", "coordinates": [ 141.282564399999956, 38.6560852 ] } },
{ "type": "Feature", "properties": { "内容": "特別養護老人ホーム登米苑【地域密着型介護老人福祉施設入所者生活介護】宮城県登米市登米町寺池桜小路132", "url": "https://www.kaigokensaku.mhlw.go.jp/04/index.php?action_kouhyou_detail_004_kani=true&JigyosyoCd=0491200242-00&ServiceCd=540&Type=search", "url2": "http://tome-fukushi.net" }, "geometry": { "type": "Point", "coordinates": [ 141.283175943655351, 38.656118712988153 ] } },
{ "type": "Feature", "properties": { "内容": "特別養護老人ホーム　にしの【地域密着型介護老人福祉施設入所者生活介護】宮城県登米市米山町西野字古舘廻８番地２", "url": "https://www.kaigokensaku.mhlw.go.jp/04/index.php?action_kouhyou_detail_004_kani=true&JigyosyoCd=0491200218-00&ServiceCd=540&Type=search", "url2": null }, "geometry": { "type": "Point", "coordinates": [ 141.194303609401032, 38.634546547349053 ] } },
{ "type": "Feature", "properties": { "内容": "特別養護老人ホーム　にしの【地域密着型介護老人福祉施設入所者生活介護】宮城県登米市米山町西野字古舘廻８番地２", "url": "https://www.kaigokensaku.mhlw.go.jp/04/index.php?action_kouhyou_detail_004_kani=true&JigyosyoCd=0491200226-00&ServiceCd=540&Type=search", "url2": null }, "geometry": { "type": "Point", "coordinates": [ 141.194322384864137, 38.634458549234807 ] } },
{ "type": "Feature", "properties": { "内容": "特別養護老人ホーム　ほたるの郷【地域密着型介護老人福祉施設入所者生活介護】宮城県登米市東和町米川字寺内２８－２２", "url": "https://www.kaigokensaku.mhlw.go.jp/04/index.php?action_kouhyou_detail_004_kani=true&JigyosyoCd=0491200093-00&ServiceCd=540&Type=search", "url2": "http://www.keisen-net.jp" }, "geometry": { "type": "Point", "coordinates": [ 141.340138, 38.7519458 ] } },
{ "type": "Feature", "properties": { "内容": "特別養護老人ホームほたるの郷【地域密着型介護老人福祉施設入所者生活介護】宮城県登米市東和町米川字寺内２８－２２", "url": "https://www.kaigokensaku.mhlw.go.jp/04/index.php?action_kouhyou_detail_004_kani=true&JigyosyoCd=0491200101-00&ServiceCd=540&Type=search", "url2": "http://www.keisen-net.jp" }, "geometry": { "type": "Point", "coordinates": [ 141.340138, 38.7519458 ] } },
{ "type": "Feature", "properties": { "内容": "特別養護老人ホーム東和【地域密着型介護老人福祉施設入所者生活介護】宮城県登米市東和町米谷字新細待井2", "url": "https://www.kaigokensaku.mhlw.go.jp/04/index.php?action_kouhyou_detail_004_kani=true&JigyosyoCd=0491200275-00&ServiceCd=540&Type=search", "url2": "http://www.keisen-net.jp/" }, "geometry": { "type": "Point", "coordinates": [ 141.289652746270832, 38.702611283209649 ] } },
{ "type": "Feature", "properties": { "内容": "地域密着型特別養護老人ホームせくれ～Secure～【地域密着型介護老人福祉施設入所者生活介護】宮城県登米市迫町新田字狼ノ欠20番地420特別養護老人ホームせくれ～Secure～", "url": "https://www.kaigokensaku.mhlw.go.jp/04/index.php?action_kouhyou_detail_004_kani=true&JigyosyoCd=0491200143-00&ServiceCd=540&Type=search", "url2": "http://www.fureai1117.com/" }, "geometry": { "type": "Point", "coordinates": [ 141.12151318618919, 38.709523676544798 ] } },
{ "type": "Feature", "properties": { "内容": "地域密着型特別養護老人ホームせくれ～Ｓｅｃｕｒｅ～【地域密着型介護老人福祉施設入所者生活介護】宮城県登米市迫町新田狼ノ欠20番地420特別養護老人ホームせくれ～Secure～", "url": "https://www.kaigokensaku.mhlw.go.jp/04/index.php?action_kouhyou_detail_004_kani=true&JigyosyoCd=0491200150-00&ServiceCd=540&Type=search", "url2": "http://www.fureai1117.com/" }, "geometry": { "type": "Point", "coordinates": [ 141.12151543923494, 38.709518402146728 ] } },
{ "type": "Feature", "properties": { "内容": "地域密着型特別養護老人ホーム風の路【地域密着型介護老人福祉施設入所者生活介護】登米市石越町南郷字新石沢前47番地6", "url": "https://www.kaigokensaku.mhlw.go.jp/04/index.php?action_kouhyou_detail_004_kani=true&JigyosyoCd=0491200127-00&ServiceCd=540&Type=search", "url2": "http://www.tome-shakyo.jp/" }, "geometry": { "type": "Point", "coordinates": [ 141.1780718, 38.7541572 ] } },
{ "type": "Feature", "properties": { "内容": "地域密着型特別養護老人ホーム　ルグネット岩ヶ崎【地域密着型介護老人福祉施設入所者生活介護】宮城県栗原市栗駒岩ヶ崎下川原19番地", "url": "https://www.kaigokensaku.mhlw.go.jp/04/index.php?action_kouhyou_detail_004_kani=true&JigyosyoCd=0491300166-00&ServiceCd=540&Type=search", "url2": "http://ktk-fukushikai.or.jp/" }, "geometry": { "type": "Point", "coordinates": [ 140.9969228, 38.8247298 ] } },
{ "type": "Feature", "properties": { "内容": "地域密着型特別養護老人ホーム　ルグネット宮野【地域密着型介護老人福祉施設入所者生活介護】宮城県栗原市築館宮野中央1丁目１－７地域密着型特別養護老人ホームルグネット宮野", "url": "https://www.kaigokensaku.mhlw.go.jp/04/index.php?action_kouhyou_detail_004_kani=true&JigyosyoCd=0491300240-00&ServiceCd=540&Type=search", "url2": "http://ktk-fukushikai.or.jp/" }, "geometry": { "type": "Point", "coordinates": [ 141.01633452341764, 38.74478770719967 ] } },
{ "type": "Feature", "properties": { "内容": "地域密着型特別養護老人ホームしゃくなげの里【地域密着型介護老人福祉施設入所者生活介護】宮城県栗原市花山字本沢久保3番地", "url": "https://www.kaigokensaku.mhlw.go.jp/04/index.php?action_kouhyou_detail_004_kani=true&JigyosyoCd=0491300158-00&ServiceCd=540&Type=search", "url2": "http://houwakai.miyagi.jp/" }, "geometry": { "type": "Point", "coordinates": [ 140.84758480000005, 38.7923354 ] } },
{ "type": "Feature", "properties": { "内容": "地域密着型特別養護老人ホーム第二山王【地域密着型介護老人福祉施設入所者生活介護】宮城県栗原市一迫真坂字新道満39番地", "url": "https://www.kaigokensaku.mhlw.go.jp/04/index.php?action_kouhyou_detail_004_kani=true&JigyosyoCd=0491300083-00&ServiceCd=540&Type=search", "url2": "http://www.miyafuku.jp" }, "geometry": { "type": "Point", "coordinates": [ 140.950220400000063, 38.744380799999981 ] } },
{ "type": "Feature", "properties": { "内容": "地域密着型特別養護老人ホームにこトピアいわで【地域密着型介護老人福祉施設入所者生活介護】宮城県大崎市岩出山字浦小路44番地", "url": "https://www.kaigokensaku.mhlw.go.jp/04/index.php?action_kouhyou_detail_004_kani=true&JigyosyoCd=0491500344-00&ServiceCd=540&Type=search", "url2": "http://www.sg-miyagikai.jp/" }, "geometry": { "type": "Point", "coordinates": [ 140.868221629457906, 38.654596181755807 ] } },
{ "type": "Feature", "properties": { "内容": "特別養護老人ホーム悠縁【地域密着型介護老人福祉施設入所者生活介護】宮城県大崎市田尻字御蔵11-1", "url": "https://www.kaigokensaku.mhlw.go.jp/04/index.php?action_kouhyou_detail_004_kani=true&JigyosyoCd=0491500278-00&ServiceCd=540&Type=search", "url2": "https://yuyu-kai.com" }, "geometry": { "type": "Point", "coordinates": [ 141.024629600000054, 38.5965122 ] } },
{ "type": "Feature", "properties": { "内容": "地域密着型特別養護老人ホームルグネット大崎Yui.【地域密着型介護老人福祉施設入所者生活介護】古川小野字馬場30-2", "url": "https://www.kaigokensaku.mhlw.go.jp/04/index.php?action_kouhyou_detail_004_kani=true&JigyosyoCd=0491500450-00&ServiceCd=540&Type=search", "url2": "https://ktk-fukushikai.or.jp/" }, "geometry": { "type": "Point", "coordinates": [ 140.9824997, 38.624109 ] } },
{ "type": "Feature", "properties": { "内容": "地域密着型特別養護老人ホームルグネット大崎Tsumugi.【地域密着型介護老人福祉施設入所者生活介護】宮城県大崎市古川小野字馬場30-1", "url": "https://www.kaigokensaku.mhlw.go.jp/04/index.php?action_kouhyou_detail_004_kani=true&JigyosyoCd=0491500435-00&ServiceCd=540&Type=search", "url2": "https://ktk-fukushikai.or.jp/" }, "geometry": { "type": "Point", "coordinates": [ 140.9837886, 38.6238002 ] } },
{ "type": "Feature", "properties": { "内容": "特別養護老人ホーム百才館【地域密着型介護老人福祉施設入所者生活介護】宮城県大崎市三本木字大豆坂２４－３福祉施設百才館", "url": "https://www.kaigokensaku.mhlw.go.jp/04/index.php?action_kouhyou_detail_004_kani=true&JigyosyoCd=0491500112-00&ServiceCd=540&Type=search", "url2": "https://www.eiraku.or.jp/" }, "geometry": { "type": "Point", "coordinates": [ 140.938053500000024, 38.5201833 ] } },
{ "type": "Feature", "properties": { "内容": "特別養護老人ホーム第２百才館【地域密着型介護老人福祉施設入所者生活介護】宮城県大崎市三本木字大豆坂24-3福祉施設百才館", "url": "https://www.kaigokensaku.mhlw.go.jp/04/index.php?action_kouhyou_detail_004_kani=true&JigyosyoCd=0491500120-00&ServiceCd=540&Type=search", "url2": "https://www.eiraku.or.jp/" }, "geometry": { "type": "Point", "coordinates": [ 140.938053500000024, 38.5201833 ] } },
{ "type": "Feature", "properties": { "内容": "地域密着型特別養護老人ホーム　成田の里【地域密着型介護老人福祉施設入所者生活介護】宮城県富谷市成田一丁目5-5", "url": "https://www.kaigokensaku.mhlw.go.jp/04/index.php?action_kouhyou_detail_004_kani=true&JigyosyoCd=0492700059-00&ServiceCd=540&Type=search", "url2": "https://hm-hukushikai.or.jp/free/narita_no_sato" }, "geometry": { "type": "Point", "coordinates": [ 140.893891757008305, 38.36300167516152 ] } },
{ "type": "Feature", "properties": { "内容": "地域密着型特別養護老人ホーム柏松苑別館穂の香【地域密着型介護老人福祉施設入所者生活介護】宮城県柴田郡村田町大字足立字湯内前１７－５", "url": "https://www.kaigokensaku.mhlw.go.jp/04/index.php?action_kouhyou_detail_004_kani=true&JigyosyoCd=0492200100-00&ServiceCd=540&Type=search", "url2": "http://hakushokai.com/about/" }, "geometry": { "type": "Point", "coordinates": [ 140.710184199999958, 38.1388513 ] } },
{ "type": "Feature", "properties": { "内容": "特別養護老人ホーム　第二釜房みどりの園【地域密着型介護老人福祉施設入所者生活介護】宮城県柴田郡川崎町大字川内字河原前５－５", "url": "https://www.kaigokensaku.mhlw.go.jp/04/index.php?action_kouhyou_detail_004_kani=true&JigyosyoCd=0492200035-00&ServiceCd=540&Type=search", "url2": "http://kakujukai.or.jp" }, "geometry": { "type": "Point", "coordinates": [ 140.639319, 38.1843026 ] } },
{ "type": "Feature", "properties": { "内容": "特別養護老人ホーム　釜房みどりの園【地域密着型介護老人福祉施設入所者生活介護】宮城県柴田郡川崎町大字川内字芋ノ窪16‐3‐2", "url": "https://www.kaigokensaku.mhlw.go.jp/04/index.php?action_kouhyou_detail_004_kani=true&JigyosyoCd=0492200084-00&ServiceCd=540&Type=search", "url2": "http://kakujukai.or.jp/" }, "geometry": { "type": "Point", "coordinates": [ 140.626718799999907, 38.211699 ] } },
{ "type": "Feature", "properties": { "内容": "地域密着型特別養護老人ホーム阿武隈ジェロントピア【地域密着型介護老人福祉施設入所者生活介護】宮城県伊具郡丸森町舘矢間舘山字中道132", "url": "https://www.kaigokensaku.mhlw.go.jp/04/index.php?action_kouhyou_detail_004_kani=true&JigyosyoCd=0492300025-00&ServiceCd=540&Type=search", "url2": "http://www.welfare-sendai.or.jp" }, "geometry": { "type": "Point", "coordinates": [ 140.786164800000051, 37.922162 ] } },
{ "type": "Feature", "properties": { "内容": "地域密着型特別養護老人ホーム　そよかぜ【地域密着型介護老人福祉施設入所者生活介護】宮城県伊具郡丸森町金山字長根63番地1", "url": "https://www.kaigokensaku.mhlw.go.jp/04/index.php?action_kouhyou_detail_004_kani=true&JigyosyoCd=0492300033-00&ServiceCd=540&Type=search", "url2": "http://houwakai.miyagi.jp" }, "geometry": { "type": "Point", "coordinates": [ 140.805266399999937, 37.9039003 ] } },
{ "type": "Feature", "properties": { "内容": "特別養護老人ホーム　第二みやま荘【地域密着型介護老人福祉施設入所者生活介護】宮城県亘理郡山元町高瀬字合戦原100-40", "url": "https://www.kaigokensaku.mhlw.go.jp/04/index.php?action_kouhyou_detail_004_kani=true&JigyosyoCd=0492400064-00&ServiceCd=540&Type=search", "url2": "http://miyagi-seiwakai.jp" }, "geometry": { "type": "Point", "coordinates": [ 140.891989800000033, 37.9432182 ] } },
{ "type": "Feature", "properties": { "内容": "介護老人福祉施設七ヶ浜自生苑【地域密着型介護老人福祉施設入所者生活介護】宮城県宮城郡七ヶ浜町遠山5丁目5-45", "url": "https://www.kaigokensaku.mhlw.go.jp/04/index.php?action_kouhyou_detail_004_kani=true&JigyosyoCd=0492600044-00&ServiceCd=540&Type=search", "url2": "http://www.jisyoukai.net/" }, "geometry": { "type": "Point", "coordinates": [ 141.037870800000064, 38.3050699 ] } },
{ "type": "Feature", "properties": { "内容": "特別養護老人ホーム　いこいの海・あらと【地域密着型介護老人福祉施設入所者生活介護】宮城県本吉郡南三陸町志津川字蒲の沢190番1", "url": "https://www.kaigokensaku.mhlw.go.jp/04/index.php?action_kouhyou_detail_004_kani=true&JigyosyoCd=0493600043-00&ServiceCd=540&Type=search", "url2": "https://mirakukai.com/facility/arato/" }, "geometry": { "type": "Point", "coordinates": [ 141.480864953967284, 38.678007443207669 ] } }
]
}
