{
"type": "FeatureCollection",
"name": "geo_04_認知症対応型通所介護",
"crs": { "type": "name", "properties": { "name": "urn:ogc:def:crs:OGC:1.3:CRS84" } },
"features": [
{ "type": "Feature", "properties": { "内容": "ツクイ仙台愛子グループホーム【認知症対応型通所介護】宮城県仙台市青葉区下愛子字町18", "url": "https://www.kaigokensaku.mhlw.go.jp/04/index.php?action_kouhyou_detail_004_kani=true&JigyosyoCd=0495100562-00&ServiceCd=720&Type=search", "url2": "https://www.tsukui.net" }, "geometry": { "type": "Point", "coordinates": [ 140.764972810450786, 38.270838629922721 ] } },
{ "type": "Feature", "properties": { "内容": "柏木すこやかデイサービス【認知症対応型通所介護】宮城県仙台市青葉区柏木一丁目６－２３", "url": "https://www.kaigokensaku.mhlw.go.jp/04/index.php?action_kouhyou_detail_004_kani=true&JigyosyoCd=0495100224-00&ServiceCd=720&Type=search", "url2": "https://kashiwagi-seiryo.com/" }, "geometry": { "type": "Point", "coordinates": [ 140.865355879796994, 38.276108650270963 ] } },
{ "type": "Feature", "properties": { "内容": "楽園デイサービスセンター【認知症対応型通所介護】宮城県仙台市青葉区葉山町８－１", "url": "https://www.kaigokensaku.mhlw.go.jp/04/index.php?action_kouhyou_detail_004_kani=true&JigyosyoCd=0475102075-00&ServiceCd=720&Type=search", "url2": "http://www.fukushi-sendai.or.jp" }, "geometry": { "type": "Point", "coordinates": [ 140.862503136106852, 38.285582342821982 ] } },
{ "type": "Feature", "properties": { "内容": "ゆかりの杜【認知症対応型通所介護】仙台市青葉区小松島四丁目22番18号", "url": "https://www.kaigokensaku.mhlw.go.jp/04/index.php?action_kouhyou_detail_004_kani=true&JigyosyoCd=0495100612-00&ServiceCd=720&Type=search", "url2": "http://www.izuminomori.jp" }, "geometry": { "type": "Point", "coordinates": [ 140.8902635, 38.2875694 ] } },
{ "type": "Feature", "properties": { "内容": "ここさいむら小田原【認知症対応型通所介護】宮城県仙台市宮城野区小田原3丁目4番地55号ここさいむら小田原", "url": "https://www.kaigokensaku.mhlw.go.jp/04/index.php?action_kouhyou_detail_004_kani=true&JigyosyoCd=0495200248-00&ServiceCd=720&Type=search", "url2": "https://www.cocomi.co.jp/" }, "geometry": { "type": "Point", "coordinates": [ 140.894611164418023, 38.268273464874426 ] } },
{ "type": "Feature", "properties": { "内容": "ここさいむらつむぎ【認知症対応型通所介護】宮城県仙台市宮城野区幸町１丁目１９－２８", "url": "https://www.kaigokensaku.mhlw.go.jp/04/index.php?action_kouhyou_detail_004_kani=true&JigyosyoCd=0475201133-00&ServiceCd=720&Type=search", "url2": "http://www.cocomi.co.jp" }, "geometry": { "type": "Point", "coordinates": [ 140.896133, 38.278023 ] } },
{ "type": "Feature", "properties": { "内容": "アスケア　デイサービスセンター東仙台(認知症対応型)【認知症対応型通所介護】宮城県仙台市宮城野区新田3-28-20", "url": "https://www.kaigokensaku.mhlw.go.jp/04/index.php?action_kouhyou_detail_004_kani=true&JigyosyoCd=0475200168-00&ServiceCd=720&Type=search", "url2": "https://www.as-care.co.jp/" }, "geometry": { "type": "Point", "coordinates": [ 140.927954399999976, 38.2802931 ] } },
{ "type": "Feature", "properties": { "内容": "福田町デイサービスセンターⅡ【認知症対応型通所介護】宮城県仙台市宮城野区田子字富里２２３", "url": "https://www.kaigokensaku.mhlw.go.jp/04/index.php?action_kouhyou_detail_004_kani=true&JigyosyoCd=0475200341-00&ServiceCd=720&Type=search", "url2": "http://www.kou-fuku.or.jp/miya" }, "geometry": { "type": "Point", "coordinates": [ 140.9564077, 38.2761195 ] } },
{ "type": "Feature", "properties": { "内容": "あんさデイサービス【認知症対応型通所介護】宮城県仙台市宮城野区岩切字水分98-2", "url": "https://www.kaigokensaku.mhlw.go.jp/04/index.php?action_kouhyou_detail_004_kani=true&JigyosyoCd=0495200578-00&ServiceCd=720&Type=search", "url2": "https://ansa-ds.jp/" }, "geometry": { "type": "Point", "coordinates": [ 140.9399612, 38.3016819 ] } },
{ "type": "Feature", "properties": { "内容": "遠見塚デイサービスセンター【認知症対応型通所介護】宮城県仙台市若林区遠見塚１－１４－３０", "url": "https://www.kaigokensaku.mhlw.go.jp/04/index.php?action_kouhyou_detail_004_kani=true&JigyosyoCd=0475300208-00&ServiceCd=720&Type=search", "url2": "http://敬長福祉会.jp/" }, "geometry": { "type": "Point", "coordinates": [ 140.909633699999972, 38.2372696 ] } },
{ "type": "Feature", "properties": { "内容": "セントケア若林デイサービス（地域密着型）【認知症対応型通所介護】宮城県仙台市若林区若林7丁目1番2号2階", "url": "https://www.kaigokensaku.mhlw.go.jp/04/index.php?action_kouhyou_detail_004_kani=true&JigyosyoCd=0495300105-00&ServiceCd=720&Type=search", "url2": "http://www.saint-care.com/" }, "geometry": { "type": "Point", "coordinates": [ 140.904092900000023, 38.2278286 ] } },
{ "type": "Feature", "properties": { "内容": "グループホームなつぎ埜デイサービス【認知症対応型通所介護】宮城県仙台市若林区今泉字小在家東97-2", "url": "https://www.kaigokensaku.mhlw.go.jp/04/index.php?action_kouhyou_detail_004_kani=true&JigyosyoCd=0495300238-00&ServiceCd=720&Type=search", "url2": "http:///www.libre-lifesupport.jp/" }, "geometry": { "type": "Point", "coordinates": [ 140.9393007, 38.2028858 ] } },
{ "type": "Feature", "properties": { "内容": "ここさいむらいろは【認知症対応型通所介護】宮城県仙台市太白区青山1-30-11", "url": "https://www.kaigokensaku.mhlw.go.jp/04/index.php?action_kouhyou_detail_004_kani=true&JigyosyoCd=0475401519-00&ServiceCd=720&Type=search", "url2": "http://www.cocomi.co.jp" }, "geometry": { "type": "Point", "coordinates": [ 140.857776609339908, 38.241439151642666 ] } },
{ "type": "Feature", "properties": { "内容": "はあとふるケアサービス・上野【認知症対応型通所介護】宮城県仙台市太白区郡山字上野１４－３", "url": "https://www.kaigokensaku.mhlw.go.jp/04/index.php?action_kouhyou_detail_004_kani=true&JigyosyoCd=0495400319-00&ServiceCd=720&Type=search", "url2": "http://www.heartful-care.jp" }, "geometry": { "type": "Point", "coordinates": [ 140.89564960000007, 38.2151185 ] } },
{ "type": "Feature", "properties": { "内容": "グループホームさちの家（さちの家デイサービス）【認知症対応型通所介護】宮城県仙台市泉区本田町20番7号", "url": "https://www.kaigokensaku.mhlw.go.jp/04/index.php?action_kouhyou_detail_004_kani=true&JigyosyoCd=0475500765-00&ServiceCd=720&Type=search", "url2": "http://care-net.biz/04/shirayuri/sitemap.php" }, "geometry": { "type": "Point", "coordinates": [ 140.9056492, 38.3225721 ] } },
{ "type": "Feature", "properties": { "内容": "デイサービスセンターつくし【認知症対応型通所介護】宮城県仙台市泉区将監10丁目6－5", "url": "https://www.kaigokensaku.mhlw.go.jp/04/index.php?action_kouhyou_detail_004_kani=true&JigyosyoCd=0495500415-00&ServiceCd=720&Type=search", "url2": null }, "geometry": { "type": "Point", "coordinates": [ 140.871901500000035, 38.3370124 ] } },
{ "type": "Feature", "properties": { "内容": "ここさいむら泉中央【認知症対応型通所介護】宮城県仙台市泉区野村字菅間前２５番４０", "url": "https://www.kaigokensaku.mhlw.go.jp/04/index.php?action_kouhyou_detail_004_kani=true&JigyosyoCd=0495500522-00&ServiceCd=720&Type=search", "url2": "https://www.cocomi.co.jp/" }, "geometry": { "type": "Point", "coordinates": [ 140.8683218, 38.3255442 ] } },
{ "type": "Feature", "properties": { "内容": "セントケア東北（株）　　セントケア北中山【認知症対応型通所介護】宮城県仙台市泉区北中山2-33-6", "url": "https://www.kaigokensaku.mhlw.go.jp/04/index.php?action_kouhyou_detail_004_kani=true&JigyosyoCd=0495500175-00&ServiceCd=720&Type=search", "url2": "http://www.saint-care.com/" }, "geometry": { "type": "Point", "coordinates": [ 140.818016, 38.3169855 ] } },
{ "type": "Feature", "properties": { "内容": "ケアエムズ八乙女【認知症対応型通所介護】宮城県仙台市泉区八乙女中央1-1-10", "url": "https://www.kaigokensaku.mhlw.go.jp/04/index.php?action_kouhyou_detail_004_kani=true&JigyosyoCd=0495500555-00&ServiceCd=720&Type=search", "url2": "http://ms-co-ltd.com/services/359/" }, "geometry": { "type": "Point", "coordinates": [ 140.880923899999971, 38.3100881 ] } },
{ "type": "Feature", "properties": { "内容": "デイホームいずみの杜【認知症対応型通所介護】宮城県仙台市泉区松森字西沢37番地", "url": "https://www.kaigokensaku.mhlw.go.jp/04/index.php?action_kouhyou_detail_004_kani=true&JigyosyoCd=0495500746-00&ServiceCd=720&Type=search", "url2": "http://www.izuminomori.jp" }, "geometry": { "type": "Point", "coordinates": [ 140.914889799999969, 38.3168285 ] } },
{ "type": "Feature", "properties": { "内容": "ツクイ石巻大街道グループホーム【認知症対応型通所介護】宮城県石巻市大街道北2-2-27ツクイ石巻大街道グループホーム", "url": "https://www.kaigokensaku.mhlw.go.jp/04/index.php?action_kouhyou_detail_004_kani=true&JigyosyoCd=0470201419-00&ServiceCd=720&Type=search", "url2": "https://www.tsukui.net" }, "geometry": { "type": "Point", "coordinates": [ 141.2836409, 38.4305303 ] } },
{ "type": "Feature", "properties": { "内容": "ぱんぷきん介護センターグループホームねむの木【認知症対応型通所介護】宮城県石巻市大橋三丁目1番21号", "url": "https://www.kaigokensaku.mhlw.go.jp/04/index.php?action_kouhyou_detail_004_kani=true&JigyosyoCd=0470201484-00&ServiceCd=720&Type=search", "url2": "http://care-net.biz/04/pumpkin/" }, "geometry": { "type": "Point", "coordinates": [ 141.308632900000021, 38.4441488 ] } },
{ "type": "Feature", "properties": { "内容": "ぱんぷきん介護センターグループホームふかや【認知症対応型通所介護】宮城県石巻市広渕字馬場屋敷16-1", "url": "https://www.kaigokensaku.mhlw.go.jp/04/index.php?action_kouhyou_detail_004_kani=true&JigyosyoCd=0490200169-00&ServiceCd=720&Type=search", "url2": "http://care-net.biz/04/pumpkin" }, "geometry": { "type": "Point", "coordinates": [ 141.214261299999947, 38.4729453 ] } },
{ "type": "Feature", "properties": { "内容": "塩釜となりの家翔裕園【認知症対応型通所介護】宮城県塩釜市北浜4丁目6番28号", "url": "https://www.kaigokensaku.mhlw.go.jp/04/index.php?action_kouhyou_detail_004_kani=true&JigyosyoCd=0490300126-00&ServiceCd=720&Type=search", "url2": "https://www.genkimuragroup.jp/facilitylist/siogamatonari/" }, "geometry": { "type": "Point", "coordinates": [ 141.026437499999986, 38.3227037 ] } },
{ "type": "Feature", "properties": { "内容": "悠々の郷デイサービス【認知症対応型通所介護】宮城県気仙沼市西中才289番地5-", "url": "https://www.kaigokensaku.mhlw.go.jp/04/index.php?action_kouhyou_detail_004_kani=true&JigyosyoCd=0490500154-00&ServiceCd=720&Type=search", "url2": "https://yuukyuukai.com/daycare.html" }, "geometry": { "type": "Point", "coordinates": [ 141.57763692327876, 38.936972362382654 ] } },
{ "type": "Feature", "properties": { "内容": "みずなし介護センター　デイサービスまつかわ【認知症対応型通所介護】宮城県気仙沼市切通９４", "url": "https://www.kaigokensaku.mhlw.go.jp/04/index.php?action_kouhyou_detail_004_kani=true&JigyosyoCd=0490500063-00&ServiceCd=720&Type=search", "url2": "https://www.k-macs.ne.jp/~yutaka-0168/cgi-bin/index.html" }, "geometry": { "type": "Point", "coordinates": [ 141.543894, 38.9127581 ] } },
{ "type": "Feature", "properties": { "内容": "あおぞらぽらんデイサービス【認知症対応型通所介護】宮城県気仙沼市所沢201番地1－2", "url": "https://www.kaigokensaku.mhlw.go.jp/04/index.php?action_kouhyou_detail_004_kani=true&JigyosyoCd=0490500147-00&ServiceCd=720&Type=search", "url2": "https://nagomi-poran.jp/" }, "geometry": { "type": "Point", "coordinates": [ 141.5440863, 38.8987821 ] } },
{ "type": "Feature", "properties": { "内容": "デイサービスぽらん大島【認知症対応型通所介護】宮城県気仙沼市廻舘55-2", "url": "https://www.kaigokensaku.mhlw.go.jp/04/index.php?action_kouhyou_detail_004_kani=true&JigyosyoCd=0470501289-00&ServiceCd=720&Type=search", "url2": "https://senkou-kai.jp/" }, "geometry": { "type": "Point", "coordinates": [ 141.6198507, 38.8593331 ] } },
{ "type": "Feature", "properties": { "内容": "ぽらん気仙沼デイサービス【認知症対応型通所介護】宮城県気仙沼市上田中１丁目４－１", "url": "https://www.kaigokensaku.mhlw.go.jp/04/index.php?action_kouhyou_detail_004_kani=true&JigyosyoCd=0490500170-00&ServiceCd=720&Type=search", "url2": null }, "geometry": { "type": "Point", "coordinates": [ 141.551847400000042, 38.887667 ] } },
{ "type": "Feature", "properties": { "内容": "デイサービスセンターしろいし【認知症対応型通所介護】宮城県白石市郡山字平成141番地", "url": "https://www.kaigokensaku.mhlw.go.jp/04/index.php?action_kouhyou_detail_004_kani=true&JigyosyoCd=0490600046-00&ServiceCd=720&Type=search", "url2": "http://www.jinsenkai.com/" }, "geometry": { "type": "Point", "coordinates": [ 140.634147699999971, 38.0154906 ] } },
{ "type": "Feature", "properties": { "内容": "老人デイサービスセンター　ほのぼの【認知症対応型通所介護】宮城県名取市愛島小豆島字山ノ前４９－２", "url": "https://www.kaigokensaku.mhlw.go.jp/04/index.php?action_kouhyou_detail_004_kani=true&JigyosyoCd=0470700162-00&ServiceCd=720&Type=search", "url2": "http://natori-ainosato.net/" }, "geometry": { "type": "Point", "coordinates": [ 140.868169200000011, 38.1537101 ] } },
{ "type": "Feature", "properties": { "内容": "名取市デイサービスセンター　光松苑【認知症対応型通所介護】宮城県名取市手倉田字山２１２番地", "url": "https://www.kaigokensaku.mhlw.go.jp/04/index.php?action_kouhyou_detail_004_kani=true&JigyosyoCd=0470700196-00&ServiceCd=720&Type=search", "url2": null }, "geometry": { "type": "Point", "coordinates": [ 140.8691407, 38.1633728 ] } },
{ "type": "Feature", "properties": { "内容": "グループホーム花水木【認知症対応型通所介護】宮城県角田市角田字中島上170-21", "url": "https://www.kaigokensaku.mhlw.go.jp/04/index.php?action_kouhyou_detail_004_kani=true&JigyosyoCd=0490800018-00&ServiceCd=720&Type=search", "url2": "http://www.kanagami.or.jp/hanamizuki/" }, "geometry": { "type": "Point", "coordinates": [ 140.787148300000013, 37.9715968 ] } },
{ "type": "Feature", "properties": { "内容": "多賀城市留ヶ谷デイサービスセンター【認知症対応型通所介護】宮城県多賀城市留ヶ谷一丁目３８番１号", "url": "https://www.kaigokensaku.mhlw.go.jp/04/index.php?action_kouhyou_detail_004_kani=true&JigyosyoCd=0470900093-00&ServiceCd=720&Type=search", "url2": "http:/www.chiganoura.jp/" }, "geometry": { "type": "Point", "coordinates": [ 141.003308699999934, 38.3014911 ] } },
{ "type": "Feature", "properties": { "内容": "デイサービスセンター「市川桜の家」【認知症対応型通所介護】宮城県多賀城市市川字奏社３１番地の８", "url": "https://www.kaigokensaku.mhlw.go.jp/04/index.php?action_kouhyou_detail_004_kani=true&JigyosyoCd=0490900115-00&ServiceCd=720&Type=search", "url2": "http://sakuranoie.org/" }, "geometry": { "type": "Point", "coordinates": [ 140.994377799999938, 38.3101175 ] } },
{ "type": "Feature", "properties": { "内容": "岩沼市デイサービスセンターさとのもり【認知症対応型通所介護】宮城県岩沼市里の杜三丁目４番１５号", "url": "https://www.kaigokensaku.mhlw.go.jp/04/index.php?action_kouhyou_detail_004_kani=true&JigyosyoCd=0471100131-00&ServiceCd=720&Type=search", "url2": "http://www.iwashakyo.or.jp" }, "geometry": { "type": "Point", "coordinates": [ 140.879254, 38.1079114 ] } },
{ "type": "Feature", "properties": { "内容": "認知症デイサービスみんなの家錦織【認知症対応型通所介護】宮城県登米市東和町錦織字内ノ目25-1", "url": "https://www.kaigokensaku.mhlw.go.jp/04/index.php?action_kouhyou_detail_004_kani=true&JigyosyoCd=0491200192-00&ServiceCd=720&Type=search", "url2": "https://www.min-nano-ie.com/" }, "geometry": { "type": "Point", "coordinates": [ 141.274660365853862, 38.733722211434518 ] } },
{ "type": "Feature", "properties": { "内容": "認知症デイサービスみんなの家錦織結い【認知症対応型通所介護】宮城県登米市東和町錦織字内ノ目14", "url": "https://www.kaigokensaku.mhlw.go.jp/04/index.php?action_kouhyou_detail_004_kani=true&JigyosyoCd=0491200465-00&ServiceCd=720&Type=search", "url2": "https://www.min-nano-ie.com/" }, "geometry": { "type": "Point", "coordinates": [ 141.278491699999989, 38.7341275 ] } },
{ "type": "Feature", "properties": { "内容": "認知症デイサービスみんなの家【認知症対応型通所介護】宮城県登米市中田町宝江新井田字並柳前57", "url": "https://www.kaigokensaku.mhlw.go.jp/04/index.php?action_kouhyou_detail_004_kani=true&JigyosyoCd=0491200069-00&ServiceCd=720&Type=search", "url2": "https://www.min-nano-ie.com/" }, "geometry": { "type": "Point", "coordinates": [ 141.258285399999977, 38.6740098 ] } },
{ "type": "Feature", "properties": { "内容": "はさまデイサービスセンター【認知症対応型通所介護】宮城県登米市迫町佐沼字錦１９２－２", "url": "https://www.kaigokensaku.mhlw.go.jp/04/index.php?action_kouhyou_detail_004_kani=true&JigyosyoCd=0491200051-00&ServiceCd=720&Type=search", "url2": "http://www.sg-nakada.jp/net_hasama.html" }, "geometry": { "type": "Point", "coordinates": [ 141.199549899999965, 38.6885233 ] } },
{ "type": "Feature", "properties": { "内容": "デイサービスセンター　くりこまの里Ⅱ【認知症対応型通所介護】宮城県栗原市栗駒稲屋敷大鳥東側1-1", "url": "https://www.kaigokensaku.mhlw.go.jp/04/index.php?action_kouhyou_detail_004_kani=true&JigyosyoCd=0491300018-00&ServiceCd=720&Type=search", "url2": "http://www.kou-fuku.or.jp/kuri/" }, "geometry": { "type": "Point", "coordinates": [ 140.985758, 38.81415 ] } },
{ "type": "Feature", "properties": { "内容": "栗原市山王デイサービスセンター【認知症対応型通所介護】宮城県栗原市一迫真坂字新道満３９", "url": "https://www.kaigokensaku.mhlw.go.jp/04/index.php?action_kouhyou_detail_004_kani=true&JigyosyoCd=0471300210-00&ServiceCd=720&Type=search", "url2": null }, "geometry": { "type": "Point", "coordinates": [ 140.950220400000035, 38.7443808 ] } },
{ "type": "Feature", "properties": { "内容": "デイサービスセンター　やもと赤井の里【認知症対応型通所介護】宮城県東松島市赤井字川前四番83番地", "url": "https://www.kaigokensaku.mhlw.go.jp/04/index.php?action_kouhyou_detail_004_kani=true&JigyosyoCd=0491400024-00&ServiceCd=720&Type=search", "url2": "https://hm-hukushikai.or.jp" }, "geometry": { "type": "Point", "coordinates": [ 141.234730200000058, 38.4357698 ] } },
{ "type": "Feature", "properties": { "内容": "大崎市社会福祉協議会　古川福寿館デイサービスセンター【認知症対応型通所介護】大崎市古川大宮七丁目2番3号　福祉センターおおみや内", "url": "https://www.kaigokensaku.mhlw.go.jp/04/index.php?action_kouhyou_detail_004_kani=true&JigyosyoCd=0491500013-00&ServiceCd=720&Type=search", "url2": "http://www.osaki-shakyo.com/annai/content0098.html" }, "geometry": { "type": "Point", "coordinates": [ 140.9594932, 38.5858233 ] } },
{ "type": "Feature", "properties": { "内容": "デイサービスセンター「やすらぎの丘桜の家」【認知症対応型通所介護】宮城県宮城郡松島町桜渡戸字中島14-1", "url": "https://www.kaigokensaku.mhlw.go.jp/04/index.php?action_kouhyou_detail_004_kani=true&JigyosyoCd=0472600337-00&ServiceCd=720&Type=search", "url2": "http://www.sakuranoie.or.jp" }, "geometry": { "type": "Point", "coordinates": [ 141.0354413, 38.3841238 ] } },
{ "type": "Feature", "properties": { "内容": "デイサービスセンターにこトピア加美【認知症対応型通所介護】宮城県加美郡加美町字町裏八番70-1", "url": "https://www.kaigokensaku.mhlw.go.jp/04/index.php?action_kouhyou_detail_004_kani=true&JigyosyoCd=0492800032-00&ServiceCd=720&Type=search", "url2": "http://www.sg-miyagikai.jp" }, "geometry": { "type": "Point", "coordinates": [ 140.858706699999971, 38.5690482 ] } },
{ "type": "Feature", "properties": { "内容": "デイサービス　オレンジキッチン【認知症対応型通所介護】宮城県遠田郡涌谷町猪岡短台字短台40", "url": "https://www.kaigokensaku.mhlw.go.jp/04/index.php?action_kouhyou_detail_004_kani=true&JigyosyoCd=0493100085-00&ServiceCd=720&Type=search", "url2": null }, "geometry": { "type": "Point", "coordinates": [ 141.199917899999946, 38.54195880000001 ] } },
{ "type": "Feature", "properties": { "内容": "デイサービスセンターひまわり【認知症対応型通所介護】宮城県遠田郡涌谷町字立町20番地1", "url": "https://www.kaigokensaku.mhlw.go.jp/04/index.php?action_kouhyou_detail_004_kani=true&JigyosyoCd=0493100010-00&ServiceCd=720&Type=search", "url2": null }, "geometry": { "type": "Point", "coordinates": [ 141.128682819014301, 38.542371976463855 ] } },
{ "type": "Feature", "properties": { "内容": "ゆうらいふデイサービスひび【認知症対応型通所介護】宮城県遠田郡涌谷町涌谷字新下町浦192", "url": "https://www.kaigokensaku.mhlw.go.jp/04/index.php?action_kouhyou_detail_004_kani=true&JigyosyoCd=0493100028-00&ServiceCd=720&Type=search", "url2": "http://www.wakuya-sfk.net/" }, "geometry": { "type": "Point", "coordinates": [ 141.141148700000031, 38.5394129 ] } }
]
}
