{
"type": "FeatureCollection",
"name": "geo_04_短期入所生活介護",
"crs": { "type": "name", "properties": { "name": "urn:ogc:def:crs:OGC:1.3:CRS84" } },
"features": [
{ "type": "Feature", "properties": { "内容": "特別養護老人ホームシオンの園【短期入所生活介護】仙台市青葉区小松島新堤７－１", "url2": "https://www.kaigokensaku.mhlw.go.jp/04/index.php?action_kouhyou_detail_004_kani=true&JigyosyoCd=0475100418-00&ServiceCd=210&Type=search" }, "geometry": { "type": "Point", "coordinates": [ 140.8919161, 38.2865635 ] } },
{ "type": "Feature", "properties": { "内容": "社会福祉法人　庄慶会　特別養護老人ホーム　洛風苑【短期入所生活介護】宮城県仙台市青葉区芋沢字新田56-2", "url2": "https://www.kaigokensaku.mhlw.go.jp/04/index.php?action_kouhyou_detail_004_kani=true&JigyosyoCd=0475100376-00&ServiceCd=210&Type=search" }, "geometry": { "type": "Point", "coordinates": [ 140.741649300000063, 38.2754912 ] } },
{ "type": "Feature", "properties": { "内容": "地域密着型特別養護老人ホーム　栗生ハウス【短期入所生活介護】宮城県仙台市青葉区栗生１丁目２４－２", "url2": "https://www.kaigokensaku.mhlw.go.jp/04/index.php?action_kouhyou_detail_004_kani=true&JigyosyoCd=0475103982-00&ServiceCd=210&Type=search" }, "geometry": { "type": "Point", "coordinates": [ 140.792574, 38.2638356 ] } },
{ "type": "Feature", "properties": { "内容": "特別養護老人ホーム　アルテイル青葉【短期入所生活介護】宮城県仙台市青葉区荒巻字三居沢1番地の16", "url2": "https://www.kaigokensaku.mhlw.go.jp/04/index.php?action_kouhyou_detail_004_kani=true&JigyosyoCd=0475100426-00&ServiceCd=210&Type=search" }, "geometry": { "type": "Point", "coordinates": [ 140.838103100000012, 38.2685724 ] } },
{ "type": "Feature", "properties": { "内容": "アルカディア仙台敬寿園【短期入所生活介護】宮城県仙台市青葉区八幡6丁目9-15アルカディア仙台敬寿園", "url2": "https://www.kaigokensaku.mhlw.go.jp/04/index.php?action_kouhyou_detail_004_kani=true&JigyosyoCd=0475104709-00&ServiceCd=210&Type=search" }, "geometry": { "type": "Point", "coordinates": [ 140.836003299999987, 38.2670086 ] } },
{ "type": "Feature", "properties": { "内容": "せんだんの館ショートステイ【短期入所生活介護】宮城県仙台市青葉区水の森3丁目43-10", "url2": "https://www.kaigokensaku.mhlw.go.jp/04/index.php?action_kouhyou_detail_004_kani=true&JigyosyoCd=0475101739-00&ServiceCd=210&Type=search" }, "geometry": { "type": "Point", "coordinates": [ 140.854411199999959, 38.2947086 ] } },
{ "type": "Feature", "properties": { "内容": "特別養護老人ホーム　仙台敬寿園【短期入所生活介護】宮城県仙台市青葉区下愛子字田中3番地1", "url2": "https://www.kaigokensaku.mhlw.go.jp/04/index.php?action_kouhyou_detail_004_kani=true&JigyosyoCd=0475102570-00&ServiceCd=210&Type=search" }, "geometry": { "type": "Point", "coordinates": [ 140.766717500000027, 38.2630209 ] } },
{ "type": "Feature", "properties": { "内容": "特別養護老人ホーム　エコーが丘【短期】【短期入所生活介護】宮城県仙台市青葉区芋沢字横前1番地2", "url2": "https://www.kaigokensaku.mhlw.go.jp/04/index.php?action_kouhyou_detail_004_kani=true&JigyosyoCd=0475102786-00&ServiceCd=210&Type=search" }, "geometry": { "type": "Point", "coordinates": [ 140.7563887, 38.2918977 ] } },
{ "type": "Feature", "properties": { "内容": "特別養護老人ホーム仙台楽生園【短期入所生活介護】宮城県仙台市青葉区葉山町8－1", "url2": "https://www.kaigokensaku.mhlw.go.jp/04/index.php?action_kouhyou_detail_004_kani=true&JigyosyoCd=0475100384-00&ServiceCd=210&Type=search" }, "geometry": { "type": "Point", "coordinates": [ 140.86255678028715, 38.285418125141121 ] } },
{ "type": "Feature", "properties": { "内容": "特別養護老人ホーム仙台楽生園【短期入所生活介護】宮城県仙台市青葉区葉山町8－1", "url2": "https://www.kaigokensaku.mhlw.go.jp/04/index.php?action_kouhyou_detail_004_kani=true&JigyosyoCd=0475103693-00&ServiceCd=210&Type=search" }, "geometry": { "type": "Point", "coordinates": [ 140.862513864942912, 38.285384439417214 ] } },
{ "type": "Feature", "properties": { "内容": "ショートステイひかりの里「かわだいら」【短期入所生活介護】宮城県仙台市青葉区川平1丁目11番6号", "url2": "https://www.kaigokensaku.mhlw.go.jp/04/index.php?action_kouhyou_detail_004_kani=true&JigyosyoCd=0475105748-00&ServiceCd=210&Type=search" }, "geometry": { "type": "Point", "coordinates": [ 140.846826099999987, 38.2957203 ] } },
{ "type": "Feature", "properties": { "内容": "特別養護老人ホーム青葉ふるさと村【短期入所生活介護】宮城県仙台市青葉区南吉成六丁目6番8", "url2": "https://www.kaigokensaku.mhlw.go.jp/04/index.php?action_kouhyou_detail_004_kani=true&JigyosyoCd=0475105425-00&ServiceCd=210&Type=search" }, "geometry": { "type": "Point", "coordinates": [ 140.812668787613603, 38.286870116388563 ] } },
{ "type": "Feature", "properties": { "内容": "社会福祉法人共和会特別養護老人ホーム思行園【短期入所生活介護】宮城県仙台市青葉区大倉字大原新田26-12", "url2": "https://www.kaigokensaku.mhlw.go.jp/04/index.php?action_kouhyou_detail_004_kani=true&JigyosyoCd=0475100392-00&ServiceCd=210&Type=search" }, "geometry": { "type": "Point", "coordinates": [ 140.694163300000014, 38.294515 ] } },
{ "type": "Feature", "properties": { "内容": "特別養護老人ホーム　大石原苑【短期入所生活介護】宮城県仙台市青葉区南吉成七丁目１４番地１", "url2": "https://www.kaigokensaku.mhlw.go.jp/04/index.php?action_kouhyou_detail_004_kani=true&JigyosyoCd=0475100442-00&ServiceCd=210&Type=search" }, "geometry": { "type": "Point", "coordinates": [ 140.817212599999948, 38.2819174 ] } },
{ "type": "Feature", "properties": { "内容": "短期入所生活介護国見あおば翔裕園【短期入所生活介護】宮城県仙台市青葉区国見6-86-1国見あおば翔裕園", "url2": "https://www.kaigokensaku.mhlw.go.jp/04/index.php?action_kouhyou_detail_004_kani=true&JigyosyoCd=0475104915-00&ServiceCd=210&Type=search" }, "geometry": { "type": "Point", "coordinates": [ 140.829339299999987, 38.2825927 ] } },
{ "type": "Feature", "properties": { "内容": "ショートステイ　はぎの里【短期入所生活介護】宮城県仙台市青葉区愛子中央2丁目10-33", "url2": "https://www.kaigokensaku.mhlw.go.jp/04/index.php?action_kouhyou_detail_004_kani=true&JigyosyoCd=0475103065-00&ServiceCd=210&Type=search" }, "geometry": { "type": "Point", "coordinates": [ 140.763831373016359, 38.276420588763699 ] } },
{ "type": "Feature", "properties": { "内容": "こ～ぷなごみの杜桜ヶ丘ショートステイ【短期入所生活介護】宮城県仙台市青葉区水の森3丁目40-20", "url2": "https://www.kaigokensaku.mhlw.go.jp/04/index.php?action_kouhyou_detail_004_kani=true&JigyosyoCd=0475104923-00&ServiceCd=210&Type=search" }, "geometry": { "type": "Point", "coordinates": [ 140.855522, 38.2971028 ] } },
{ "type": "Feature", "properties": { "内容": "老人短期入所施設清涼苑【短期入所生活介護】宮城県仙台市青葉区双葉ヶ丘２－９－２", "url2": "https://www.kaigokensaku.mhlw.go.jp/04/index.php?action_kouhyou_detail_004_kani=true&JigyosyoCd=0475100665-00&ServiceCd=210&Type=search" }, "geometry": { "type": "Point", "coordinates": [ 140.872042, 38.3016805 ] } },
{ "type": "Feature", "properties": { "内容": "株式会社ASCareアスケアショートステイあやし【短期入所生活介護】仙台市青葉区愛子東5丁目19番25号", "url2": "https://www.kaigokensaku.mhlw.go.jp/04/index.php?action_kouhyou_detail_004_kani=true&JigyosyoCd=0475100525-00&ServiceCd=210&Type=search" }, "geometry": { "type": "Point", "coordinates": [ 140.765767, 38.2746917 ] } },
{ "type": "Feature", "properties": { "内容": "せんだんの里ショートステイ【短期入所生活介護】宮城県仙台市青葉区国見ヶ丘６丁目１４９－１", "url2": "https://www.kaigokensaku.mhlw.go.jp/04/index.php?action_kouhyou_detail_004_kani=true&JigyosyoCd=0475100988-00&ServiceCd=210&Type=search" }, "geometry": { "type": "Point", "coordinates": [ 140.8346024, 38.284787 ] } },
{ "type": "Feature", "properties": { "内容": "特別養護老人ホーム　せんじゅユニット型【短期入所生活介護】宮城県仙台市青葉区西勝山１４－１０", "url2": "https://www.kaigokensaku.mhlw.go.jp/04/index.php?action_kouhyou_detail_004_kani=true&JigyosyoCd=0475103560-00&ServiceCd=210&Type=search" }, "geometry": { "type": "Point", "coordinates": [ 140.837556899999981, 38.2995464 ] } },
{ "type": "Feature", "properties": { "内容": "特別養護老人ホーム　シオンの園【短期入所生活介護】宮城県仙台市青葉区小松島新堤７－１", "url2": "https://www.kaigokensaku.mhlw.go.jp/04/index.php?action_kouhyou_detail_004_kani=true&JigyosyoCd=0475106118-00&ServiceCd=210&Type=search" }, "geometry": { "type": "Point", "coordinates": [ 140.8922824, 38.2852811 ] } },
{ "type": "Feature", "properties": { "内容": "せんだんの杜短期入所生活介護事業所【短期入所生活介護】宮城県仙台市青葉区国見ヶ丘7丁目141番地9", "url2": "https://www.kaigokensaku.mhlw.go.jp/04/index.php?action_kouhyou_detail_004_kani=true&JigyosyoCd=0475100715-00&ServiceCd=210&Type=search" }, "geometry": { "type": "Point", "coordinates": [ 140.834774399999986, 38.2897503 ] } },
{ "type": "Feature", "properties": { "内容": "せんだんの杜短期入所生活介護事業所（ユニット型）【短期入所生活介護】宮城県仙台市青葉区国見ヶ丘7丁目141番地9", "url2": "https://www.kaigokensaku.mhlw.go.jp/04/index.php?action_kouhyou_detail_004_kani=true&JigyosyoCd=0475103719-00&ServiceCd=210&Type=search" }, "geometry": { "type": "Point", "coordinates": [ 140.835388200000011, 38.2903976 ] } },
{ "type": "Feature", "properties": { "内容": "特別養護老人ホーム国見苑【短期入所生活介護】宮城県仙台市青葉区国見6-40-35", "url2": "https://www.kaigokensaku.mhlw.go.jp/04/index.php?action_kouhyou_detail_004_kani=true&JigyosyoCd=0475100467-00&ServiceCd=210&Type=search" }, "geometry": { "type": "Point", "coordinates": [ 140.831408799999963, 38.2766684 ] } },
{ "type": "Feature", "properties": { "内容": "特別養護老人ホームせんだい郷六の杜【短期入所生活介護】宮城県仙台市青葉区郷六字出戸2番地", "url2": "https://www.kaigokensaku.mhlw.go.jp/04/index.php?action_kouhyou_detail_004_kani=true&JigyosyoCd=0475103842-00&ServiceCd=210&Type=search" }, "geometry": { "type": "Point", "coordinates": [ 140.812852799999973, 38.261753 ] } },
{ "type": "Feature", "properties": { "内容": "特別養護老人ホーム　自生苑【短期入所生活介護】宮城県仙台市青葉区芋沢字青野木５８１－１", "url2": "https://www.kaigokensaku.mhlw.go.jp/04/index.php?action_kouhyou_detail_004_kani=true&JigyosyoCd=0475100400-00&ServiceCd=210&Type=search" }, "geometry": { "type": "Point", "coordinates": [ 140.723561300000028, 38.2874171 ] } },
{ "type": "Feature", "properties": { "内容": "特別養護老人ホーム　自生苑サテライト【短期入所生活介護】宮城県仙台市青葉区芋沢字青野木531-4", "url2": "https://www.kaigokensaku.mhlw.go.jp/04/index.php?action_kouhyou_detail_004_kani=true&JigyosyoCd=0475103362-00&ServiceCd=210&Type=search" }, "geometry": { "type": "Point", "coordinates": [ 140.72330747961314, 38.286293715509778 ] } },
{ "type": "Feature", "properties": { "内容": "特別養護老人ホームふたばの杜【短期入所生活介護】宮城県仙台市青葉区双葉ヶ丘一丁目42番6号", "url2": "https://www.kaigokensaku.mhlw.go.jp/04/index.php?action_kouhyou_detail_004_kani=true&JigyosyoCd=0475103735-00&ServiceCd=210&Type=search" }, "geometry": { "type": "Point", "coordinates": [ 140.877177299999971, 38.305830199999981 ] } },
{ "type": "Feature", "properties": { "内容": "地域密着型特別養護老人ホーム　サテライト大石原苑【短期入所生活介護】宮城県仙台市青葉区荒巻字仁田谷地1番1地域密着型特別養護老人ホーム　サテライト大石原苑", "url2": "https://www.kaigokensaku.mhlw.go.jp/04/index.php?action_kouhyou_detail_004_kani=true&JigyosyoCd=0475104121-00&ServiceCd=210&Type=search" }, "geometry": { "type": "Point", "coordinates": [ 140.818497193139365, 38.283035470993113 ] } },
{ "type": "Feature", "properties": { "内容": "青葉の郷【短期入所生活介護】宮城県仙台市青葉区荒巻字青葉519番1162", "url2": "https://www.kaigokensaku.mhlw.go.jp/04/index.php?action_kouhyou_detail_004_kani=true&JigyosyoCd=0475105193-00&ServiceCd=210&Type=search" }, "geometry": { "type": "Point", "coordinates": [ 140.8259716, 38.2467737 ] } },
{ "type": "Feature", "properties": { "内容": "特別養護老人ホーム中野あおばの杜【短期入所生活介護】宮城県仙台市宮城野区中野5丁目7番８", "url2": "https://www.kaigokensaku.mhlw.go.jp/04/index.php?action_kouhyou_detail_004_kani=true&JigyosyoCd=0475203899-00&ServiceCd=210&Type=search" }, "geometry": { "type": "Point", "coordinates": [ 140.985114900000013, 38.2690785 ] } },
{ "type": "Feature", "properties": { "内容": "ショートステイここさいむら小田原【短期入所生活介護】宮城県仙台市宮城野区小田原3-4-55ここさいむら小田原", "url2": "https://www.kaigokensaku.mhlw.go.jp/04/index.php?action_kouhyou_detail_004_kani=true&JigyosyoCd=0475202982-00&ServiceCd=210&Type=search" }, "geometry": { "type": "Point", "coordinates": [ 140.894605800000022, 38.2682861 ] } },
{ "type": "Feature", "properties": { "内容": "ショートステイコスモス中野栄【短期入所生活介護】宮城県仙台市宮城野区出花2-11-5コスモス中野栄", "url2": "https://www.kaigokensaku.mhlw.go.jp/04/index.php?action_kouhyou_detail_004_kani=true&JigyosyoCd=0475202891-00&ServiceCd=210&Type=search" }, "geometry": { "type": "Point", "coordinates": [ 140.988269606082241, 38.277291363357719 ] } },
{ "type": "Feature", "properties": { "内容": "ショートステイサービスすてら【短期入所生活介護】宮城県仙台市宮城野区福田町南1丁目3-27ステラパークス仙台", "url2": "https://www.kaigokensaku.mhlw.go.jp/04/index.php?action_kouhyou_detail_004_kani=true&JigyosyoCd=0475202701-00&ServiceCd=210&Type=search" }, "geometry": { "type": "Point", "coordinates": [ 140.962430600000062, 38.25953830000001 ] } },
{ "type": "Feature", "properties": { "内容": "特別養護老人ホームＪ＆Ｂ【短期入所生活介護】宮城県仙台市宮城野区清水沼3-7-8", "url2": "https://www.kaigokensaku.mhlw.go.jp/04/index.php?action_kouhyou_detail_004_kani=true&JigyosyoCd=0475201489-00&ServiceCd=210&Type=search" }, "geometry": { "type": "Point", "coordinates": [ 140.902410799999984, 38.2684854 ] } },
{ "type": "Feature", "properties": { "内容": "ショートステイみはるの杜【短期入所生活介護】宮城県仙台市宮城野区福室二丁目５番２７号", "url2": "https://www.kaigokensaku.mhlw.go.jp/04/index.php?action_kouhyou_detail_004_kani=true&JigyosyoCd=0475202040-00&ServiceCd=210&Type=search" }, "geometry": { "type": "Point", "coordinates": [ 140.965684900000042, 38.2722122 ] } },
{ "type": "Feature", "properties": { "内容": "特別養護老人ホームかむりの里【短期入所生活介護】宮城県仙台市宮城野区岩切字東河原352-3", "url2": "https://www.kaigokensaku.mhlw.go.jp/04/index.php?action_kouhyou_detail_004_kani=true&JigyosyoCd=0475200267-00&ServiceCd=210&Type=search" }, "geometry": { "type": "Point", "coordinates": [ 140.9522038, 38.3008053 ] } },
{ "type": "Feature", "properties": { "内容": "介護老人福祉施設　田子のまち【短期入所生活介護】宮城県仙台市宮城野区田子字冨里153", "url2": "https://www.kaigokensaku.mhlw.go.jp/04/index.php?action_kouhyou_detail_004_kani=true&JigyosyoCd=0475202727-00&ServiceCd=210&Type=search" }, "geometry": { "type": "Point", "coordinates": [ 140.9612234, 38.2818813 ] } },
{ "type": "Feature", "properties": { "内容": "ショートステイわかなの杜【短期入所生活介護】宮城県仙台市宮城野区新田東一丁目2番地の5", "url2": "https://www.kaigokensaku.mhlw.go.jp/04/index.php?action_kouhyou_detail_004_kani=true&JigyosyoCd=0475203519-00&ServiceCd=210&Type=search" }, "geometry": { "type": "Point", "coordinates": [ 140.9321718, 38.2787112 ] } },
{ "type": "Feature", "properties": { "内容": "特別養護老人ホーム　暁星園【短期入所生活介護】宮城県仙台市宮城野区東仙台６丁目２番１号", "url2": "https://www.kaigokensaku.mhlw.go.jp/04/index.php?action_kouhyou_detail_004_kani=true&JigyosyoCd=0475200143-00&ServiceCd=210&Type=search" }, "geometry": { "type": "Point", "coordinates": [ 140.908698715513651, 38.280402760235589 ] } },
{ "type": "Feature", "properties": { "内容": "特別養護老人ホーム　リーフ鶴ケ谷【短期入所生活介護】宮城県仙台市宮城野区鶴ケ谷字京原79番1", "url2": "https://www.kaigokensaku.mhlw.go.jp/04/index.php?action_kouhyou_detail_004_kani=true&JigyosyoCd=0475202081-00&ServiceCd=210&Type=search" }, "geometry": { "type": "Point", "coordinates": [ 140.920548599999961, 38.2953244 ] } },
{ "type": "Feature", "properties": { "内容": "短期入所生活介護施設福田町【短期入所生活介護】宮城県仙台市宮城野区田子字富里223", "url2": "https://www.kaigokensaku.mhlw.go.jp/04/index.php?action_kouhyou_detail_004_kani=true&JigyosyoCd=0475200358-00&ServiceCd=210&Type=search" }, "geometry": { "type": "Point", "coordinates": [ 140.956332598147583, 38.276127922507442 ] } },
{ "type": "Feature", "properties": { "内容": "特別養護老人ホーム　パルシア【短期入所生活介護】仙台市宮城野区燕沢東３－８－１０", "url2": "https://www.kaigokensaku.mhlw.go.jp/04/index.php?action_kouhyou_detail_004_kani=true&JigyosyoCd=0475200150-00&ServiceCd=210&Type=search" }, "geometry": { "type": "Point", "coordinates": [ 140.931270300000051, 38.2883756 ] } },
{ "type": "Feature", "properties": { "内容": "特別養護老人ホームいこいの郷・燕沢【短期入所生活介護】宮城県仙台市宮城野区燕沢東2-1-35", "url2": "https://www.kaigokensaku.mhlw.go.jp/04/index.php?action_kouhyou_detail_004_kani=true&JigyosyoCd=0475203477-00&ServiceCd=210&Type=search" }, "geometry": { "type": "Point", "coordinates": [ 140.930569, 38.2855351 ] } },
{ "type": "Feature", "properties": { "内容": "特別養護老人ホーム　チアフル遠見塚【短期入所生活介護】宮城県仙台市若林区遠見塚１丁目14-30", "url2": "https://www.kaigokensaku.mhlw.go.jp/04/index.php?action_kouhyou_detail_004_kani=true&JigyosyoCd=0475300083-00&ServiceCd=210&Type=search" }, "geometry": { "type": "Point", "coordinates": [ 140.909633699999972, 38.2372696 ] } },
{ "type": "Feature", "properties": { "内容": "地域密着型特別養護老人ホーム　チアフル古城　短期入所生活介護事業所【短期入所生活介護】宮城県仙台市若林区古城三丁目12番18号", "url2": "https://www.kaigokensaku.mhlw.go.jp/04/index.php?action_kouhyou_detail_004_kani=true&JigyosyoCd=0475302477-00&ServiceCd=210&Type=search" }, "geometry": { "type": "Point", "coordinates": [ 140.909773968520994, 38.234581297990559 ] } },
{ "type": "Feature", "properties": { "内容": "六郷の杜【短期入所生活介護】仙台市若林区下飯田遠谷地１７１番地", "url2": "https://www.kaigokensaku.mhlw.go.jp/04/index.php?action_kouhyou_detail_004_kani=true&JigyosyoCd=0475300620-00&ServiceCd=210&Type=search" }, "geometry": { "type": "Point", "coordinates": [ 140.933224600000017, 38.2169365 ] } },
{ "type": "Feature", "properties": { "内容": "ライフの学校地域密着型特別養護老人ホーム六郷キャンパス【短期入所生活介護】今泉字門暮126番1", "url2": "https://www.kaigokensaku.mhlw.go.jp/04/index.php?action_kouhyou_detail_004_kani=true&JigyosyoCd=0475303004-00&ServiceCd=210&Type=search" }, "geometry": { "type": "Point", "coordinates": [ 140.930646147082513, 38.213012636966845 ] } },
{ "type": "Feature", "properties": { "内容": "ライフの学校地域密着型特別養護老人ホーム萩の風キャンパス【短期入所生活介護】宮城県仙台市若林区上飯田字天神1-1ライフの学校地域密着型特別養護老人ホーム萩の風キャンパス", "url2": "https://www.kaigokensaku.mhlw.go.jp/04/index.php?action_kouhyou_detail_004_kani=true&JigyosyoCd=0475302584-00&ServiceCd=210&Type=search" }, "geometry": { "type": "Point", "coordinates": [ 140.921235189024401, 38.220199866678215 ] } },
{ "type": "Feature", "properties": { "内容": "ライフの学校特別養護老人ホーム　萩の風キャンパス【短期入所生活介護】宮城県仙台市若林区上飯田字天神1番１", "url2": "https://www.kaigokensaku.mhlw.go.jp/04/index.php?action_kouhyou_detail_004_kani=true&JigyosyoCd=0475301537-00&ServiceCd=210&Type=search" }, "geometry": { "type": "Point", "coordinates": [ 140.920753099999956, 38.2203218 ] } },
{ "type": "Feature", "properties": { "内容": "特別養護老人ホーム成仁杜の里仙台【短期入所生活介護】仙台市若林区荒井東二丁目１２番地の１", "url2": "https://www.kaigokensaku.mhlw.go.jp/04/index.php?action_kouhyou_detail_004_kani=true&JigyosyoCd=0475300091-00&ServiceCd=210&Type=search" }, "geometry": { "type": "Point", "coordinates": [ 140.951709984933444, 38.233805353792917 ] } },
{ "type": "Feature", "properties": { "内容": "特別養護老人ホーム　春の森から【短期入所生活介護】仙台市太白区東郡山二丁目34-5", "url2": "https://www.kaigokensaku.mhlw.go.jp/04/index.php?action_kouhyou_detail_004_kani=true&JigyosyoCd=0475402152-00&ServiceCd=210&Type=search" }, "geometry": { "type": "Point", "coordinates": [ 140.906007100000011, 38.2175465 ] } },
{ "type": "Feature", "properties": { "内容": "特別養護老人ホーム　大東苑【短期入所生活介護】宮城県仙台市太白区秋保町長袋字清水久保51-4", "url2": "https://www.kaigokensaku.mhlw.go.jp/04/index.php?action_kouhyou_detail_004_kani=true&JigyosyoCd=0475400180-00&ServiceCd=210&Type=search" }, "geometry": { "type": "Point", "coordinates": [ 140.660928074868707, 38.262094358729115 ] } },
{ "type": "Feature", "properties": { "内容": "ショートステイ　和み園【短期入所生活介護】宮城県仙台市太白区柳生字田中７－３", "url2": "https://www.kaigokensaku.mhlw.go.jp/04/index.php?action_kouhyou_detail_004_kani=true&JigyosyoCd=0475401436-00&ServiceCd=210&Type=search" }, "geometry": { "type": "Point", "coordinates": [ 140.869186099999979, 38.1941116 ] } },
{ "type": "Feature", "properties": { "内容": "特別養護老人ホーム　オー・ド・エクラ【短期入所生活介護】宮城県仙台市太白区山田北前町８番１号", "url2": "https://www.kaigokensaku.mhlw.go.jp/04/index.php?action_kouhyou_detail_004_kani=true&JigyosyoCd=0475403804-00&ServiceCd=210&Type=search" }, "geometry": { "type": "Point", "coordinates": [ 140.8303191, 38.2220665 ] } },
{ "type": "Feature", "properties": { "内容": "特別養護老人ホーム　ヴェール・ド・エクラ　ショートステイ【短期入所生活介護】宮城県仙台市太白区茂庭2丁目3-21", "url2": "https://www.kaigokensaku.mhlw.go.jp/04/index.php?action_kouhyou_detail_004_kani=true&JigyosyoCd=0475404596-00&ServiceCd=210&Type=search" }, "geometry": { "type": "Point", "coordinates": [ 140.7925021, 38.2214882 ] } },
{ "type": "Feature", "properties": { "内容": "富沢ケアセンターそよ風【短期入所生活介護】宮城県仙台市太白区富沢1-13-6", "url2": "https://www.kaigokensaku.mhlw.go.jp/04/index.php?action_kouhyou_detail_004_kani=true&JigyosyoCd=0475404240-00&ServiceCd=210&Type=search" }, "geometry": { "type": "Point", "coordinates": [ 140.8657168, 38.2184778 ] } },
{ "type": "Feature", "properties": { "内容": "特別養護老人ホームとみざわの里【短期入所生活介護】宮城県仙台市太白区富沢西3丁目10番地の1", "url2": "https://www.kaigokensaku.mhlw.go.jp/04/index.php?action_kouhyou_detail_004_kani=true&JigyosyoCd=0475403762-00&ServiceCd=210&Type=search" }, "geometry": { "type": "Point", "coordinates": [ 140.855207342987228, 38.209270703713251 ] } },
{ "type": "Feature", "properties": { "内容": "特別養護老人ホーム一重の里【短期入所生活介護】宮城県仙台市太白区秋保町湯元字上原３５の８", "url2": "https://www.kaigokensaku.mhlw.go.jp/04/index.php?action_kouhyou_detail_004_kani=true&JigyosyoCd=0475401824-00&ServiceCd=210&Type=search" }, "geometry": { "type": "Point", "coordinates": [ 140.733824700000014, 38.2196529 ] } },
{ "type": "Feature", "properties": { "内容": "地域密着型特別養護老人ホーム　てらす鈎取【短期入所生活介護】宮城県仙台市太白区鈎取4丁目14－15", "url2": "https://www.kaigokensaku.mhlw.go.jp/04/index.php?action_kouhyou_detail_004_kani=true&JigyosyoCd=0475402509-00&ServiceCd=210&Type=search" }, "geometry": { "type": "Point", "coordinates": [ 140.837337700000035, 38.2277549 ] } },
{ "type": "Feature", "properties": { "内容": "特別養護老人ホームまるめろ【短期入所生活介護】宮城県仙台市太白区鈎取本町2丁目12番20", "url2": "https://www.kaigokensaku.mhlw.go.jp/04/index.php?action_kouhyou_detail_004_kani=true&JigyosyoCd=0475404505-00&ServiceCd=210&Type=search" }, "geometry": { "type": "Point", "coordinates": [ 140.836568199999988, 38.225327 ] } },
{ "type": "Feature", "properties": { "内容": "特別養護老人ホーム　サン・つばき【短期入所生活介護】宮城県仙台市太白区越路7番7号", "url2": "https://www.kaigokensaku.mhlw.go.jp/04/index.php?action_kouhyou_detail_004_kani=true&JigyosyoCd=0475401139-00&ServiceCd=210&Type=search" }, "geometry": { "type": "Point", "coordinates": [ 140.877503, 38.246223 ] } },
{ "type": "Feature", "properties": { "内容": "特別養護老人ホーム大年寺山ジェロントピア【短期入所生活介護】宮城県仙台市太白区茂ヶ崎三丁目12番1号", "url2": "https://www.kaigokensaku.mhlw.go.jp/04/index.php?action_kouhyou_detail_004_kani=true&JigyosyoCd=0475402889-00&ServiceCd=210&Type=search" }, "geometry": { "type": "Point", "coordinates": [ 140.873400800000013, 38.2377294 ] } },
{ "type": "Feature", "properties": { "内容": "特別養護老人ホーム　まほろばの里向山【短期入所生活介護】宮城県仙台市太白区向山三丁目１１－３０", "url2": "https://www.kaigokensaku.mhlw.go.jp/04/index.php?action_kouhyou_detail_004_kani=true&JigyosyoCd=0475403747-00&ServiceCd=210&Type=search" }, "geometry": { "type": "Point", "coordinates": [ 140.870264799999973, 38.2435482 ] } },
{ "type": "Feature", "properties": { "内容": "特別養護老人ホーム　第二白東苑【短期入所生活介護】宮城県仙台市太白区袋原4丁目36-18なし", "url2": "https://www.kaigokensaku.mhlw.go.jp/04/index.php?action_kouhyou_detail_004_kani=true&JigyosyoCd=0475402434-00&ServiceCd=210&Type=search" }, "geometry": { "type": "Point", "coordinates": [ 140.9151713, 38.1993931 ] } },
{ "type": "Feature", "properties": { "内容": "特別養護老人ホーム八木山翠風苑【短期入所生活介護】宮城県仙台市太白区恵和町38-10特別養護老人ホーム八木山翠風苑", "url2": "https://www.kaigokensaku.mhlw.go.jp/04/index.php?action_kouhyou_detail_004_kani=true&JigyosyoCd=0475400198-00&ServiceCd=210&Type=search" }, "geometry": { "type": "Point", "coordinates": [ 140.851669897607394, 38.235351391605676 ] } },
{ "type": "Feature", "properties": { "内容": "特別養護老人ホーム白東苑【短期入所生活介護】宮城県仙台市太白区四郎丸字大宮26-3", "url2": "https://www.kaigokensaku.mhlw.go.jp/04/index.php?action_kouhyou_detail_004_kani=true&JigyosyoCd=0475400214-00&ServiceCd=210&Type=search" }, "geometry": { "type": "Point", "coordinates": [ 140.91964069568121, 38.194580628153446 ] } },
{ "type": "Feature", "properties": { "内容": "特別養護老人ホーム茂庭台あおばの杜【短期入所生活介護】宮城県仙台市太白区茂庭台2丁目15番25号", "url2": "https://www.kaigokensaku.mhlw.go.jp/04/index.php?action_kouhyou_detail_004_kani=true&JigyosyoCd=0475404158-00&ServiceCd=210&Type=search" }, "geometry": { "type": "Point", "coordinates": [ 140.781953318910183, 38.233282197405643 ] } },
{ "type": "Feature", "properties": { "内容": "特別養護老人ホーム泉陵虹の苑【短期入所生活介護】宮城県仙台市泉区虹の丘1丁目10-6", "url2": "https://www.kaigokensaku.mhlw.go.jp/04/index.php?action_kouhyou_detail_004_kani=true&JigyosyoCd=0475500138-00&ServiceCd=210&Type=search" }, "geometry": { "type": "Point", "coordinates": [ 140.8733694, 38.306805 ] } },
{ "type": "Feature", "properties": { "内容": "地域密着型特別養護老人ホーム抱優館南光台東【短期入所生活介護】宮城県仙台市泉区松森字後沢3番地の1", "url2": "https://www.kaigokensaku.mhlw.go.jp/04/index.php?action_kouhyou_detail_004_kani=true&JigyosyoCd=0475503892-00&ServiceCd=210&Type=search" }, "geometry": { "type": "Point", "coordinates": [ 140.916198500000064, 38.3039289 ] } },
{ "type": "Feature", "properties": { "内容": "特別養護老人ホーム　泉和荘【短期入所生活介護】宮城県仙台市泉区根白石字新坂上１６番地の１", "url2": "https://www.kaigokensaku.mhlw.go.jp/04/index.php?action_kouhyou_detail_004_kani=true&JigyosyoCd=0475500120-00&ServiceCd=210&Type=search" }, "geometry": { "type": "Point", "coordinates": [ 140.800486299999989, 38.3382524 ] } },
{ "type": "Feature", "properties": { "内容": "特別養護老人ホーム水泉荘【短期入所生活介護】宮城県仙台市泉区実沢字橘川屋敷１番地", "url2": "https://www.kaigokensaku.mhlw.go.jp/04/index.php?action_kouhyou_detail_004_kani=true&JigyosyoCd=0475500146-00&ServiceCd=210&Type=search" }, "geometry": { "type": "Point", "coordinates": [ 140.8061146, 38.3179768 ] } },
{ "type": "Feature", "properties": { "内容": "特別養護老人ホーム創生園泉大沢【短期入所生活介護】宮城県仙台市泉区大沢３丁目５－１", "url2": "https://www.kaigokensaku.mhlw.go.jp/04/index.php?action_kouhyou_detail_004_kani=true&JigyosyoCd=0475503421-00&ServiceCd=210&Type=search" }, "geometry": { "type": "Point", "coordinates": [ 140.874364199999945, 38.3572492 ] } },
{ "type": "Feature", "properties": { "内容": "特別養護老人ホーム　泉寿荘【短期入所生活介護】宮城県仙台市泉区上谷刈字長命１０番地", "url2": "https://www.kaigokensaku.mhlw.go.jp/04/index.php?action_kouhyou_detail_004_kani=true&JigyosyoCd=0475500534-00&ServiceCd=210&Type=search" }, "geometry": { "type": "Point", "coordinates": [ 140.856259499999965, 38.3193474 ] } },
{ "type": "Feature", "properties": { "内容": "特別養護老人ホーム八沢の杜【短期入所生活介護】宮城県仙台市泉区松森字八沢15-5", "url2": "https://www.kaigokensaku.mhlw.go.jp/04/index.php?action_kouhyou_detail_004_kani=true&JigyosyoCd=0475504064-00&ServiceCd=210&Type=search" }, "geometry": { "type": "Point", "coordinates": [ 140.909439106650865, 38.302333384991385 ] } },
{ "type": "Feature", "properties": { "内容": "介護老人福祉施設　泉ふるさと村【短期入所生活介護】宮城県仙台市泉区松森字岡本前27番地", "url2": "https://www.kaigokensaku.mhlw.go.jp/04/index.php?action_kouhyou_detail_004_kani=true&JigyosyoCd=0475504023-00&ServiceCd=210&Type=search" }, "geometry": { "type": "Point", "coordinates": [ 140.912660772352638, 38.311977839581949 ] } },
{ "type": "Feature", "properties": { "内容": "ショートステイコスモス南光台【短期入所生活介護】宮城県仙台市泉区松森字明神20番１号", "url2": "https://www.kaigokensaku.mhlw.go.jp/04/index.php?action_kouhyou_detail_004_kani=true&JigyosyoCd=0475502928-00&ServiceCd=210&Type=search" }, "geometry": { "type": "Point", "coordinates": [ 140.902413461901887, 38.304475569096695 ] } },
{ "type": "Feature", "properties": { "内容": "特別養護老人ホーム百合ヶ丘苑【短期入所生活介護】宮城県仙台市泉区本田町２０番１５号", "url2": "https://www.kaigokensaku.mhlw.go.jp/04/index.php?action_kouhyou_detail_004_kani=true&JigyosyoCd=0475500773-00&ServiceCd=210&Type=search" }, "geometry": { "type": "Point", "coordinates": [ 140.904887499999973, 38.3241986 ] } },
{ "type": "Feature", "properties": { "内容": "南光台ケアセンターそよ風【短期入所生活介護】宮城県仙台市泉区南光台南2丁目２６－１０", "url2": "https://www.kaigokensaku.mhlw.go.jp/04/index.php?action_kouhyou_detail_004_kani=true&JigyosyoCd=0475501417-00&ServiceCd=210&Type=search" }, "geometry": { "type": "Point", "coordinates": [ 140.900331300000062, 38.293288 ] } },
{ "type": "Feature", "properties": { "内容": "特別養護老人ホーム　　　愛泉荘【短期入所生活介護】宮城県仙台市泉区七北田２４番地の2特別養護老人ホーム愛泉荘", "url2": "https://www.kaigokensaku.mhlw.go.jp/04/index.php?action_kouhyou_detail_004_kani=true&JigyosyoCd=0475500112-00&ServiceCd=210&Type=search" }, "geometry": { "type": "Point", "coordinates": [ 140.870288063111531, 38.328828725593226 ] } },
{ "type": "Feature", "properties": { "内容": "特別養護老人ホーム　ラスール泉【短期入所生活介護】宮城県仙台市泉区西田中字萱場中43特別養護老人ホーム　ラスール泉", "url2": "https://www.kaigokensaku.mhlw.go.jp/04/index.php?action_kouhyou_detail_004_kani=true&JigyosyoCd=0475503884-00&ServiceCd=210&Type=search" }, "geometry": { "type": "Point", "coordinates": [ 140.788540506607092, 38.323589961530431 ] } },
{ "type": "Feature", "properties": { "内容": "特別養護老人ホーム梅が丘【短期入所生活介護】仙台市泉区本田町２０番８号", "url2": "https://www.kaigokensaku.mhlw.go.jp/04/index.php?action_kouhyou_detail_004_kani=true&JigyosyoCd=0475503017-00&ServiceCd=210&Type=search" }, "geometry": { "type": "Point", "coordinates": [ 140.904851399999984, 38.3244652 ] } },
{ "type": "Feature", "properties": { "内容": "特別養護老人ホーム　抱優館八乙女【短期入所生活介護】宮城県仙台市泉区上谷刈字向原3番地の30", "url2": "https://www.kaigokensaku.mhlw.go.jp/04/index.php?action_kouhyou_detail_004_kani=true&JigyosyoCd=0475502738-00&ServiceCd=210&Type=search" }, "geometry": { "type": "Point", "coordinates": [ 140.88096829999995, 38.3122157 ] } },
{ "type": "Feature", "properties": { "内容": "地域密着型特別養護老人ホーム寳樹苑いずみ指定（介護予防）短期入所生活介護【短期入所生活介護】宮城県仙台市泉区上谷刈３丁目１６－２１", "url2": "https://www.kaigokensaku.mhlw.go.jp/04/index.php?action_kouhyou_detail_004_kani=true&JigyosyoCd=0475502761-00&ServiceCd=210&Type=search" }, "geometry": { "type": "Point", "coordinates": [ 140.868877600000019, 38.3198949 ] } },
{ "type": "Feature", "properties": { "内容": "特別養護老人ホーム　泉音の郷【短期入所生活介護】宮城県仙台市泉区泉中央南15番地", "url2": "https://www.kaigokensaku.mhlw.go.jp/04/index.php?action_kouhyou_detail_004_kani=true&JigyosyoCd=0475503322-00&ServiceCd=210&Type=search" }, "geometry": { "type": "Point", "coordinates": [ 140.870670099999984, 38.3209774 ] } },
{ "type": "Feature", "properties": { "内容": "特別養護老人ホームリズムタウン仙台【短期入所生活介護】宮城県仙台市泉区古内字坂ノ上16-6", "url2": "https://www.kaigokensaku.mhlw.go.jp/04/index.php?action_kouhyou_detail_004_kani=true&JigyosyoCd=0475503827-00&ServiceCd=210&Type=search" }, "geometry": { "type": "Point", "coordinates": [ 140.843710573155249, 38.320830958718403 ] } },
{ "type": "Feature", "properties": { "内容": "ステイエムズ八乙女【短期入所生活介護】仙台市泉区八乙女中央1丁目１－１０", "url2": "https://www.kaigokensaku.mhlw.go.jp/04/index.php?action_kouhyou_detail_004_kani=true&JigyosyoCd=0475503942-00&ServiceCd=210&Type=search" }, "geometry": { "type": "Point", "coordinates": [ 140.880923899999971, 38.3100881 ] } },
{ "type": "Feature", "properties": { "内容": "特別養護老人ホーム　泉クラシック【短期入所生活介護】宮城県仙台市泉区根白石字清水屋敷35番地の1", "url2": "https://www.kaigokensaku.mhlw.go.jp/04/index.php?action_kouhyou_detail_004_kani=true&JigyosyoCd=0475503595-00&ServiceCd=210&Type=search" }, "geometry": { "type": "Point", "coordinates": [ 140.793625499999962, 38.3476818 ] } },
{ "type": "Feature", "properties": { "内容": "特別養護老人ホームはしうら【短期入所生活介護】石巻市北上町橋浦字大須88－1", "url2": "https://www.kaigokensaku.mhlw.go.jp/04/index.php?action_kouhyou_detail_004_kani=true&JigyosyoCd=0470202722-00&ServiceCd=210&Type=search" }, "geometry": { "type": "Point", "coordinates": [ 141.410691199999974, 38.5493456 ] } },
{ "type": "Feature", "properties": { "内容": "特別養護老人ホーム雄心苑【短期入所生活介護】宮城県石巻市雄勝町小島字和田１２３番地", "url2": "https://www.kaigokensaku.mhlw.go.jp/04/index.php?action_kouhyou_detail_004_kani=true&JigyosyoCd=0470200833-00&ServiceCd=210&Type=search" }, "geometry": { "type": "Point", "coordinates": [ 141.500355899999931, 38.5118724 ] } },
{ "type": "Feature", "properties": { "内容": "特別養護老人ホーム　一心苑【短期入所生活介護】宮城県石巻市北村字幕ヶ崎一１７番地２", "url2": "https://www.kaigokensaku.mhlw.go.jp/04/index.php?action_kouhyou_detail_004_kani=true&JigyosyoCd=0470200817-00&ServiceCd=210&Type=search" }, "geometry": { "type": "Point", "coordinates": [ 141.191743163229376, 38.485451303662643 ] } },
{ "type": "Feature", "properties": { "内容": "特別養護老人ホーム　おしか清心苑【短期入所生活介護】石巻市鮎川浜清崎山7番地", "url2": "https://www.kaigokensaku.mhlw.go.jp/04/index.php?action_kouhyou_detail_004_kani=true&JigyosyoCd=0470200965-00&ServiceCd=210&Type=search" }, "geometry": { "type": "Point", "coordinates": [ 141.498800499999987, 38.2980313 ] } },
{ "type": "Feature", "properties": { "内容": "ショートステイ　うさぎ【短期入所生活介護】宮城県石巻市門脇字一番谷地18-2", "url2": "https://www.kaigokensaku.mhlw.go.jp/04/index.php?action_kouhyou_detail_004_kani=true&JigyosyoCd=0470202920-00&ServiceCd=210&Type=search" }, "geometry": { "type": "Point", "coordinates": [ 141.258970131213346, 38.432712773025074 ] } },
{ "type": "Feature", "properties": { "内容": "特別養護老人ホームきたかみ【短期入所生活介護】宮城県石巻市北上町橋浦字大須234", "url2": "https://www.kaigokensaku.mhlw.go.jp/04/index.php?action_kouhyou_detail_004_kani=true&JigyosyoCd=0470201583-00&ServiceCd=210&Type=search" }, "geometry": { "type": "Point", "coordinates": [ 141.410685699999931, 38.5477235 ] } },
{ "type": "Feature", "properties": { "内容": "特別養護老人ホーム涼風園【短期入所生活介護】宮城県石巻市流留字沖30番地3", "url2": "https://www.kaigokensaku.mhlw.go.jp/04/index.php?action_kouhyou_detail_004_kani=true&JigyosyoCd=0470200718-00&ServiceCd=210&Type=search" }, "geometry": { "type": "Point", "coordinates": [ 141.3765687, 38.4246809 ] } },
{ "type": "Feature", "properties": { "内容": "特別養護老人ホーム第二和香園【短期入所生活介護】宮城県石巻市大瓜字箕輪１７番地", "url2": "https://www.kaigokensaku.mhlw.go.jp/04/index.php?action_kouhyou_detail_004_kani=true&JigyosyoCd=0470200072-00&ServiceCd=210&Type=search" }, "geometry": { "type": "Point", "coordinates": [ 141.319218399999954, 38.4518843 ] } },
{ "type": "Feature", "properties": { "内容": "特別養護老人ホーム　アゼイリア【短期入所生活介護】宮城県石巻市蛇田字小斎６１番地１", "url2": "https://www.kaigokensaku.mhlw.go.jp/04/index.php?action_kouhyou_detail_004_kani=true&JigyosyoCd=0470200312-00&ServiceCd=210&Type=search" }, "geometry": { "type": "Point", "coordinates": [ 141.256747200000063, 38.4520296 ] } },
{ "type": "Feature", "properties": { "内容": "特別養護老人ホーム仁風園【短期入所生活介護】石巻市大森字内田１－２８", "url2": "https://www.kaigokensaku.mhlw.go.jp/04/index.php?action_kouhyou_detail_004_kani=true&JigyosyoCd=0470200825-00&ServiceCd=210&Type=search" }, "geometry": { "type": "Point", "coordinates": [ 141.319533, 38.4979121 ] } },
{ "type": "Feature", "properties": { "内容": "地域密着型特別養護老人ホームつつじの郷【短期入所生活介護】宮城県石巻市蛇田字小斎９番地３地域密着型特別養護老人ホーム　つつじの郷", "url2": "https://www.kaigokensaku.mhlw.go.jp/04/index.php?action_kouhyou_detail_004_kani=true&JigyosyoCd=0470202284-00&ServiceCd=210&Type=search" }, "geometry": { "type": "Point", "coordinates": [ 141.255630500000052, 38.453896 ] } },
{ "type": "Feature", "properties": { "内容": "特別養護老人ホーム和香園【短期入所生活介護】宮城県石巻市山下町一丁目11番22号", "url2": "https://www.kaigokensaku.mhlw.go.jp/04/index.php?action_kouhyou_detail_004_kani=true&JigyosyoCd=0470200064-00&ServiceCd=210&Type=search" }, "geometry": { "type": "Point", "coordinates": [ 141.29765660000001, 38.435388099999983 ] } },
{ "type": "Feature", "properties": { "内容": "ショートステイ花水木【短期入所生活介護】宮城県石巻市鹿又字八幡前１５番", "url2": "https://www.kaigokensaku.mhlw.go.jp/04/index.php?action_kouhyou_detail_004_kani=true&JigyosyoCd=0470201518-00&ServiceCd=210&Type=search" }, "geometry": { "type": "Point", "coordinates": [ 141.2850995, 38.4863513 ] } },
{ "type": "Feature", "properties": { "内容": "特別養護老人ホーム花水木【短期入所生活介護】宮城県石巻市鹿又字八幡前15番", "url2": "https://www.kaigokensaku.mhlw.go.jp/04/index.php?action_kouhyou_detail_004_kani=true&JigyosyoCd=0470200916-00&ServiceCd=210&Type=search" }, "geometry": { "type": "Point", "coordinates": [ 141.2850995, 38.4863513 ] } },
{ "type": "Feature", "properties": { "内容": "せんだんの杜ものう短期入所生活介護事業所【短期入所生活介護】宮城県石巻市桃生町中津山字八木４６番地３", "url2": "https://www.kaigokensaku.mhlw.go.jp/04/index.php?action_kouhyou_detail_004_kani=true&JigyosyoCd=0470200882-00&ServiceCd=210&Type=search" }, "geometry": { "type": "Point", "coordinates": [ 141.241366400000061, 38.5638138 ] } },
{ "type": "Feature", "properties": { "内容": "ウィズ月見ヶ丘　ショートステイ【短期入所生活介護】宮城県塩竈市月見ヶ丘６番１０号", "url2": "https://www.kaigokensaku.mhlw.go.jp/04/index.php?action_kouhyou_detail_004_kani=true&JigyosyoCd=0470300534-00&ServiceCd=210&Type=search" }, "geometry": { "type": "Point", "coordinates": [ 141.00218719999998, 38.3217636 ] } },
{ "type": "Feature", "properties": { "内容": "特別養護老人ホーム　清楽苑【短期入所生活介護】宮城県塩竈市清水沢一丁目12-1", "url2": "https://www.kaigokensaku.mhlw.go.jp/04/index.php?action_kouhyou_detail_004_kani=true&JigyosyoCd=0470300047-00&ServiceCd=210&Type=search" }, "geometry": { "type": "Point", "coordinates": [ 141.009497300000021, 38.3254606 ] } },
{ "type": "Feature", "properties": { "内容": "特別養護老人ホーム塩釜こころの樹翔裕園【短期入所生活介護】宮城県塩竈市北浜4丁目6-13", "url2": "https://www.kaigokensaku.mhlw.go.jp/04/index.php?action_kouhyou_detail_004_kani=true&JigyosyoCd=0470301201-00&ServiceCd=210&Type=search" }, "geometry": { "type": "Point", "coordinates": [ 141.0267574, 38.3228494 ] } },
{ "type": "Feature", "properties": { "内容": "老人短期入所施設しおり【短期入所生活介護】塩竈市字伊保石30番地2しおり", "url2": "https://www.kaigokensaku.mhlw.go.jp/04/index.php?action_kouhyou_detail_004_kani=true&JigyosyoCd=0470300294-00&ServiceCd=210&Type=search" }, "geometry": { "type": "Point", "coordinates": [ 141.019198500000016, 38.3349653 ] } },
{ "type": "Feature", "properties": { "内容": "特別養護老人ホーム　唐桑園【短期入所生活介護】宮城県気仙沼市唐桑町只越３４６－７", "url2": "https://www.kaigokensaku.mhlw.go.jp/04/index.php?action_kouhyou_detail_004_kani=true&JigyosyoCd=0470500752-00&ServiceCd=210&Type=search" }, "geometry": { "type": "Point", "coordinates": [ 141.637508199999957, 38.9225171 ] } },
{ "type": "Feature", "properties": { "内容": "特別養護老人ホーム春圃苑【短期入所生活介護】宮城県気仙沼市本吉町中島３５８番地３", "url2": "https://www.kaigokensaku.mhlw.go.jp/04/index.php?action_kouhyou_detail_004_kani=true&JigyosyoCd=0470500935-00&ServiceCd=210&Type=search" }, "geometry": { "type": "Point", "coordinates": [ 141.517246800000066, 38.77633 ] } },
{ "type": "Feature", "properties": { "内容": "社会福祉法人春圃会　特別養護老人ホーム春圃苑【短期入所生活介護】宮城県気仙沼市本吉町中島358番地3", "url2": "https://www.kaigokensaku.mhlw.go.jp/04/index.php?action_kouhyou_detail_004_kani=true&JigyosyoCd=0473600021-00&ServiceCd=210&Type=search" }, "geometry": { "type": "Point", "coordinates": [ 141.517246800000066, 38.77633 ] } },
{ "type": "Feature", "properties": { "内容": "キングス・タウンショートステイ【短期入所生活介護】宮城県気仙沼市三日町３丁目１－１", "url2": "https://www.kaigokensaku.mhlw.go.jp/04/index.php?action_kouhyou_detail_004_kani=true&JigyosyoCd=0470500521-00&ServiceCd=210&Type=search" }, "geometry": { "type": "Point", "coordinates": [ 141.566397766270484, 38.905958108727226 ] } },
{ "type": "Feature", "properties": { "内容": "特別養護老人ホーム　恵心寮【短期入所生活介護】宮城県気仙沼市下八瀬４２６番地８", "url2": "https://www.kaigokensaku.mhlw.go.jp/04/index.php?action_kouhyou_detail_004_kani=true&JigyosyoCd=0470500364-00&ServiceCd=210&Type=search" }, "geometry": { "type": "Point", "coordinates": [ 141.519963729397546, 38.916588668911352 ] } },
{ "type": "Feature", "properties": { "内容": "特別養護老人ホーム　えんじゅ【短期入所生活介護】宮城県白石市福岡蔵本字茶園６２－１", "url2": "https://www.kaigokensaku.mhlw.go.jp/04/index.php?action_kouhyou_detail_004_kani=true&JigyosyoCd=0470600081-00&ServiceCd=210&Type=search" }, "geometry": { "type": "Point", "coordinates": [ 140.603097599999955, 38.0103403 ] } },
{ "type": "Feature", "properties": { "内容": "特別養護老人ホーム八宮荘【短期入所生活介護】宮城県白石市福岡八宮字川原１０番地３", "url2": "https://www.kaigokensaku.mhlw.go.jp/04/index.php?action_kouhyou_detail_004_kani=true&JigyosyoCd=0470600073-00&ServiceCd=210&Type=search" }, "geometry": { "type": "Point", "coordinates": [ 140.602385700000013, 38.0259329 ] } },
{ "type": "Feature", "properties": { "内容": "ひだまり【短期入所生活介護】白石市銚子ヶ森26番１", "url2": "https://www.kaigokensaku.mhlw.go.jp/04/index.php?action_kouhyou_detail_004_kani=true&JigyosyoCd=0470600461-00&ServiceCd=210&Type=search" }, "geometry": { "type": "Point", "coordinates": [ 140.626765699999964, 38.0012782 ] } },
{ "type": "Feature", "properties": { "内容": "特別養護老人ホームらんらん【短期入所生活介護】宮城県名取市愛島小豆島字島１番地の１", "url2": "https://www.kaigokensaku.mhlw.go.jp/04/index.php?action_kouhyou_detail_004_kani=true&JigyosyoCd=0470700519-00&ServiceCd=210&Type=search" }, "geometry": { "type": "Point", "coordinates": [ 140.86757769999997, 38.1521602 ] } },
{ "type": "Feature", "properties": { "内容": "特別養護老人ホームうらやす【短期入所生活介護】宮城県名取市下余田字鹿島86番地5", "url2": "https://www.kaigokensaku.mhlw.go.jp/04/index.php?action_kouhyou_detail_004_kani=true&JigyosyoCd=0470700097-00&ServiceCd=210&Type=search" }, "geometry": { "type": "Point", "coordinates": [ 140.899090300000012, 38.1726563 ] } },
{ "type": "Feature", "properties": { "内容": "特別養護老人ホームけやき【短期入所生活介護】宮城県名取市愛島明小豆島字山ノ前４９番地の２", "url2": "https://www.kaigokensaku.mhlw.go.jp/04/index.php?action_kouhyou_detail_004_kani=true&JigyosyoCd=0470700170-00&ServiceCd=210&Type=search" }, "geometry": { "type": "Point", "coordinates": [ 140.8635123, 38.1495879 ] } },
{ "type": "Feature", "properties": { "内容": "特別養護老人ホーム　松陽苑【短期入所生活介護】宮城県名取市手倉田字八幡80番地の1", "url2": "https://www.kaigokensaku.mhlw.go.jp/04/index.php?action_kouhyou_detail_004_kani=true&JigyosyoCd=0470700105-00&ServiceCd=210&Type=search" }, "geometry": { "type": "Point", "coordinates": [ 140.877112986003652, 38.173353967967408 ] } },
{ "type": "Feature", "properties": { "内容": "短期入所生活介護事業所　三喜【短期入所生活介護】宮城県名取市閖上中央1丁目39番地の2", "url2": "https://www.kaigokensaku.mhlw.go.jp/04/index.php?action_kouhyou_detail_004_kani=true&JigyosyoCd=0470701335-00&ServiceCd=210&Type=search" }, "geometry": { "type": "Point", "coordinates": [ 140.945105500000011, 38.1791832 ] } },
{ "type": "Feature", "properties": { "内容": "特別養護老人ホーム　聖母の家（ユニット型ショートステイ・マリヤの家、ひかりのいえ）【短期入所生活介護】宮城県角田市横倉字丸山１番地３", "url2": "https://www.kaigokensaku.mhlw.go.jp/04/index.php?action_kouhyou_detail_004_kani=true&JigyosyoCd=0470800491-00&ServiceCd=210&Type=search" }, "geometry": { "type": "Point", "coordinates": [ 140.7648997, 37.9810373 ] } },
{ "type": "Feature", "properties": { "内容": "特別養護老人ホームみどり荘【短期入所生活介護】宮城県角田市佐倉字上土浮2-2", "url2": "https://www.kaigokensaku.mhlw.go.jp/04/index.php?action_kouhyou_detail_004_kani=true&JigyosyoCd=0470800061-00&ServiceCd=210&Type=search" }, "geometry": { "type": "Point", "coordinates": [ 140.789543900000012, 37.9949107 ] } },
{ "type": "Feature", "properties": { "内容": "特別養護老人ホーム多賀城苑【短期入所生活介護】多賀城市高橋４丁目２４番１号", "url2": "https://www.kaigokensaku.mhlw.go.jp/04/index.php?action_kouhyou_detail_004_kani=true&JigyosyoCd=0470900036-00&ServiceCd=210&Type=search" }, "geometry": { "type": "Point", "coordinates": [ 140.977419300000065, 38.288661 ] } },
{ "type": "Feature", "properties": { "内容": "特別養護老人ホーム　チアフル岩沼【短期入所生活介護】宮城県岩沼市三色吉字中の原75-1", "url2": "https://www.kaigokensaku.mhlw.go.jp/04/index.php?action_kouhyou_detail_004_kani=true&JigyosyoCd=0471100586-00&ServiceCd=210&Type=search" }, "geometry": { "type": "Point", "coordinates": [ 140.8433086, 38.1229706 ] } },
{ "type": "Feature", "properties": { "内容": "特別養護老人ホーム　チアフル岩沼【短期入所生活介護】宮城県岩沼市三色吉字中の原７５－1", "url2": "https://www.kaigokensaku.mhlw.go.jp/04/index.php?action_kouhyou_detail_004_kani=true&JigyosyoCd=0471100180-00&ServiceCd=210&Type=search" }, "geometry": { "type": "Point", "coordinates": [ 140.8433086, 38.1229706 ] } },
{ "type": "Feature", "properties": { "内容": "チアフル三色吉短期入所生活介護【短期入所生活介護】宮城県岩沼市三色吉字松206番地", "url2": "https://www.kaigokensaku.mhlw.go.jp/04/index.php?action_kouhyou_detail_004_kani=true&JigyosyoCd=0471100412-00&ServiceCd=210&Type=search" }, "geometry": { "type": "Point", "coordinates": [ 140.84645850000004, 38.1215152 ] } },
{ "type": "Feature", "properties": { "内容": "地域密着型特別養護老人ホーム恵み野【短期入所生活介護】宮城県岩沼市恵み野一丁目７番地の１", "url2": "https://www.kaigokensaku.mhlw.go.jp/04/index.php?action_kouhyou_detail_004_kani=true&JigyosyoCd=0471100545-00&ServiceCd=210&Type=search" }, "geometry": { "type": "Point", "coordinates": [ 140.90422430000001, 38.108509800000014 ] } },
{ "type": "Feature", "properties": { "内容": "特別養護老人ホーム赤井江マリンホーム【短期入所生活介護】宮城県岩沼市恵み野１丁目７番地の１", "url2": "https://www.kaigokensaku.mhlw.go.jp/04/index.php?action_kouhyou_detail_004_kani=true&JigyosyoCd=0471100040-00&ServiceCd=210&Type=search" }, "geometry": { "type": "Point", "coordinates": [ 140.90422784711609, 38.108518047183821 ] } },
{ "type": "Feature", "properties": { "内容": "特別養護老人ホーム　みろく苑【短期入所生活介護】宮城県登米市中田町上沼字新寺山下５９－６", "url2": "https://www.kaigokensaku.mhlw.go.jp/04/index.php?action_kouhyou_detail_004_kani=true&JigyosyoCd=0471201194-00&ServiceCd=210&Type=search" }, "geometry": { "type": "Point", "coordinates": [ 141.2579958, 38.7334515 ] } },
{ "type": "Feature", "properties": { "内容": "特別養護老人ホームさーらの樹【短期入所生活介護】宮城県登米市米山町字桜岡大又２３２－２", "url2": "https://www.kaigokensaku.mhlw.go.jp/04/index.php?action_kouhyou_detail_004_kani=true&JigyosyoCd=0471200642-00&ServiceCd=210&Type=search" }, "geometry": { "type": "Point", "coordinates": [ 141.215579599999955, 38.6296523 ] } },
{ "type": "Feature", "properties": { "内容": "特別養護老人ホーム　光風園【短期入所生活介護】宮城県登米市登米町寺池金沢山６０番地３", "url2": "https://www.kaigokensaku.mhlw.go.jp/04/index.php?action_kouhyou_detail_004_kani=true&JigyosyoCd=0471200055-00&ServiceCd=210&Type=search" }, "geometry": { "type": "Point", "coordinates": [ 141.269154800000024, 38.6481326 ] } },
{ "type": "Feature", "properties": { "内容": "特別養護老人ホーム　にしの【短期入所生活介護】宮城県登米市米山町西野字古舘廻８番地２", "url2": "https://www.kaigokensaku.mhlw.go.jp/04/index.php?action_kouhyou_detail_004_kani=true&JigyosyoCd=0471201269-00&ServiceCd=210&Type=search" }, "geometry": { "type": "Point", "coordinates": [ 141.194301879762264, 38.634323265273487 ] } },
{ "type": "Feature", "properties": { "内容": "特別養護老人ホーム　松風園【短期入所生活介護】宮城県登米市豊里町笑沢153番地62", "url2": "https://www.kaigokensaku.mhlw.go.jp/04/index.php?action_kouhyou_detail_004_kani=true&JigyosyoCd=0471200063-00&ServiceCd=210&Type=search" }, "geometry": { "type": "Point", "coordinates": [ 141.255357564418119, 38.613536499358077 ] } },
{ "type": "Feature", "properties": { "内容": "特別養護老人ホーム南風園【短期入所生活介護】宮城県登米市南方町高石6番地43", "url2": "https://www.kaigokensaku.mhlw.go.jp/04/index.php?action_kouhyou_detail_004_kani=true&JigyosyoCd=0471200097-00&ServiceCd=210&Type=search" }, "geometry": { "type": "Point", "coordinates": [ 141.150347799999963, 38.6593717 ] } },
{ "type": "Feature", "properties": { "内容": "特別養護老人ホーム迫風園【短期入所生活介護】宮城県登米市迫町北方字大洞５６の６", "url2": "https://www.kaigokensaku.mhlw.go.jp/04/index.php?action_kouhyou_detail_004_kani=true&JigyosyoCd=0471200089-00&ServiceCd=210&Type=search" }, "geometry": { "type": "Point", "coordinates": [ 141.177657, 38.6961884 ] } },
{ "type": "Feature", "properties": { "内容": "特別養護老人ホーム　萩風園【短期入所生活介護】宮城県登米市中田町浅水字長谷山３５２－４", "url2": "https://www.kaigokensaku.mhlw.go.jp/04/index.php?action_kouhyou_detail_004_kani=true&JigyosyoCd=0471200071-00&ServiceCd=210&Type=search" }, "geometry": { "type": "Point", "coordinates": [ 141.283080663632092, 38.706182195028994 ] } },
{ "type": "Feature", "properties": { "内容": "特別養護老人ホームせくれ～Ｓｅｃｕｒｅ～【短期入所生活介護】宮城県登米市迫町新田字狼ノ欠20番地420", "url2": "https://www.kaigokensaku.mhlw.go.jp/04/index.php?action_kouhyou_detail_004_kani=true&JigyosyoCd=0471201186-00&ServiceCd=210&Type=search" }, "geometry": { "type": "Point", "coordinates": [ 141.121511093987579, 38.709527862477806 ] } },
{ "type": "Feature", "properties": { "内容": "地域密着型特別養護老人ホーム風の路【短期入所生活介護】宮城県登米市石越町南郷字新石沢前47番地６", "url2": "https://www.kaigokensaku.mhlw.go.jp/04/index.php?action_kouhyou_detail_004_kani=true&JigyosyoCd=0471201137-00&ServiceCd=210&Type=search" }, "geometry": { "type": "Point", "coordinates": [ 141.1780718, 38.7541572 ] } },
{ "type": "Feature", "properties": { "内容": "特別養護老人ホーム柳風園【短期入所生活介護】宮城県登米市津山町柳津字黄牛新山窪125番地", "url2": "https://www.kaigokensaku.mhlw.go.jp/04/index.php?action_kouhyou_detail_004_kani=true&JigyosyoCd=0471200246-00&ServiceCd=210&Type=search" }, "geometry": { "type": "Point", "coordinates": [ 141.309574200000043, 38.6238338 ] } },
{ "type": "Feature", "properties": { "内容": "特別養護老人ホーム　白鳥苑【短期入所生活介護】宮城県栗原市瀬峰根岸55番地2", "url2": "https://www.kaigokensaku.mhlw.go.jp/04/index.php?action_kouhyou_detail_004_kani=true&JigyosyoCd=0471300012-00&ServiceCd=210&Type=search" }, "geometry": { "type": "Point", "coordinates": [ 141.07151149577021, 38.651671972464797 ] } },
{ "type": "Feature", "properties": { "内容": "特別養護老人ホーム　愛光園【短期入所生活介護】宮城県栗原市栗駒岩ヶ崎三島２５５番地", "url2": "https://www.kaigokensaku.mhlw.go.jp/04/index.php?action_kouhyou_detail_004_kani=true&JigyosyoCd=0471301721-00&ServiceCd=210&Type=search" }, "geometry": { "type": "Point", "coordinates": [ 141.003388200000018, 38.8373204 ] } },
{ "type": "Feature", "properties": { "内容": "特別養護老人ホーム　愛光園【短期入所生活介護】宮城県栗原市栗駒岩ヶ崎三島２５５番地", "url2": "https://www.kaigokensaku.mhlw.go.jp/04/index.php?action_kouhyou_detail_004_kani=true&JigyosyoCd=0471300053-00&ServiceCd=210&Type=search" }, "geometry": { "type": "Point", "coordinates": [ 141.003506217196673, 38.837157438147194 ] } },
{ "type": "Feature", "properties": { "内容": "特別養護老人ホーム　桂葉【短期入所生活介護】宮城県栗原市高清水新桂葉２７８番地２", "url2": "https://www.kaigokensaku.mhlw.go.jp/04/index.php?action_kouhyou_detail_004_kani=true&JigyosyoCd=0471301143-00&ServiceCd=210&Type=search" }, "geometry": { "type": "Point", "coordinates": [ 141.008143456344669, 38.657886873198848 ] } },
{ "type": "Feature", "properties": { "内容": "特別養護老人ホーム　若藤園【短期入所生活介護】宮城県栗原市若柳武鎗字藤貫沢85番地", "url2": "https://www.kaigokensaku.mhlw.go.jp/04/index.php?action_kouhyou_detail_004_kani=true&JigyosyoCd=0471300038-00&ServiceCd=210&Type=search" }, "geometry": { "type": "Point", "coordinates": [ 141.112306600000011, 38.8071051 ] } },
{ "type": "Feature", "properties": { "内容": "地域密着型特別養護老人ホーム　ルグネット岩ケ崎　併設型短期入所生活介護【短期入所生活介護】宮城県栗原市栗駒岩ケ崎下川原１９番地", "url2": "https://www.kaigokensaku.mhlw.go.jp/04/index.php?action_kouhyou_detail_004_kani=true&JigyosyoCd=0471302299-00&ServiceCd=210&Type=search" }, "geometry": { "type": "Point", "coordinates": [ 140.995078, 38.824529 ] } },
{ "type": "Feature", "properties": { "内容": "在宅複合型施設さくらの里若柳短期入所生活介護事業所【短期入所生活介護】宮城県栗原市若柳川北塚原１５番地５", "url2": "https://www.kaigokensaku.mhlw.go.jp/04/index.php?action_kouhyou_detail_004_kani=true&JigyosyoCd=0471301325-00&ServiceCd=210&Type=search" }, "geometry": { "type": "Point", "coordinates": [ 141.137161099999958, 38.7681345 ] } },
{ "type": "Feature", "properties": { "内容": "特別養護老人ホームいちょうの里【短期入所生活介護】宮城県栗原市築館字下宮野館１０８番地", "url2": "https://www.kaigokensaku.mhlw.go.jp/04/index.php?action_kouhyou_detail_004_kani=true&JigyosyoCd=0471300046-00&ServiceCd=210&Type=search" }, "geometry": { "type": "Point", "coordinates": [ 141.013227, 38.7563499 ] } },
{ "type": "Feature", "properties": { "内容": "特別養護老人ホーム山王【短期入所生活介護】宮城県栗原市一迫真坂字新道満３９", "url2": "https://www.kaigokensaku.mhlw.go.jp/04/index.php?action_kouhyou_detail_004_kani=true&JigyosyoCd=0471300061-00&ServiceCd=210&Type=search" }, "geometry": { "type": "Point", "coordinates": [ 140.950220400000035, 38.7443808 ] } },
{ "type": "Feature", "properties": { "内容": "特別養護老人ホーム　うぐいすの里【短期入所生活介護】宮城県栗原市鶯沢南郷広面４６番地", "url2": "https://www.kaigokensaku.mhlw.go.jp/04/index.php?action_kouhyou_detail_004_kani=true&JigyosyoCd=0471300806-00&ServiceCd=210&Type=search" }, "geometry": { "type": "Point", "coordinates": [ 140.948957800000017, 38.8106374 ] } },
{ "type": "Feature", "properties": { "内容": "特別養護老人ホーム　千葉福寿園【短期入所生活介護】宮城県栗原市志波姫北郷大門８５－２", "url2": "https://www.kaigokensaku.mhlw.go.jp/04/index.php?action_kouhyou_detail_004_kani=true&JigyosyoCd=0471300020-00&ServiceCd=210&Type=search" }, "geometry": { "type": "Point", "coordinates": [ 141.076037300000053, 38.7608034 ] } },
{ "type": "Feature", "properties": { "内容": "特別養護老人ホーム矢本華の園【短期入所生活介護】宮城県東松島市矢本字寺前247番地", "url2": "https://www.kaigokensaku.mhlw.go.jp/04/index.php?action_kouhyou_detail_004_kani=true&JigyosyoCd=0471400036-00&ServiceCd=210&Type=search" }, "geometry": { "type": "Point", "coordinates": [ 141.194044299999973, 38.4128691 ] } },
{ "type": "Feature", "properties": { "内容": "特別養護老人ホーム　やもと赤井の里【短期入所生活介護】宮城県東松島市赤井字川前四番83番地", "url2": "https://www.kaigokensaku.mhlw.go.jp/04/index.php?action_kouhyou_detail_004_kani=true&JigyosyoCd=0471400424-00&ServiceCd=210&Type=search" }, "geometry": { "type": "Point", "coordinates": [ 141.234730200000058, 38.4357698 ] } },
{ "type": "Feature", "properties": { "内容": "社会福祉法人慶和会ショートステイ大曲花いちもんめ【短期入所生活介護】宮城県東松島市大曲字堰の内南34-55", "url2": "https://www.kaigokensaku.mhlw.go.jp/04/index.php?action_kouhyou_detail_004_kani=true&JigyosyoCd=0471400622-00&ServiceCd=210&Type=search" }, "geometry": { "type": "Point", "coordinates": [ 141.227643149212668, 38.427715064891281 ] } },
{ "type": "Feature", "properties": { "内容": "特別養護老人ホーム　かごぼうの里【短期入所生活介護】宮城県大崎市田尻通木字中崎東24番地の２", "url2": "https://www.kaigokensaku.mhlw.go.jp/04/index.php?action_kouhyou_detail_004_kani=true&JigyosyoCd=0471500074-00&ServiceCd=210&Type=search" }, "geometry": { "type": "Point", "coordinates": [ 141.0294222, 38.6015621 ] } },
{ "type": "Feature", "properties": { "内容": "ショートステイ　しらとり【短期入所生活介護】宮城県大崎市三本木北町63番地4", "url2": "https://www.kaigokensaku.mhlw.go.jp/04/index.php?action_kouhyou_detail_004_kani=true&JigyosyoCd=0471502153-00&ServiceCd=210&Type=search" }, "geometry": { "type": "Point", "coordinates": [ 140.945708100000047, 38.529138 ] } },
{ "type": "Feature", "properties": { "内容": "地域密着型特別養護老人ホームルグネット大崎Yui.併設型短期入所生活介護・介護予防短期入所生活介護【短期入所生活介護】古川小野字馬場30-2", "url2": "https://www.kaigokensaku.mhlw.go.jp/04/index.php?action_kouhyou_detail_004_kani=true&JigyosyoCd=0471502849-00&ServiceCd=210&Type=search" }, "geometry": { "type": "Point", "coordinates": [ 140.9824997, 38.624109 ] } },
{ "type": "Feature", "properties": { "内容": "特別養護老人ホームりんどう苑【短期入所生活介護】宮城県大崎市鳴子温泉字石ノ梅３３番地", "url2": "https://www.kaigokensaku.mhlw.go.jp/04/index.php?action_kouhyou_detail_004_kani=true&JigyosyoCd=0471500058-00&ServiceCd=210&Type=search" }, "geometry": { "type": "Point", "coordinates": [ 140.757813599999963, 38.7311286 ] } },
{ "type": "Feature", "properties": { "内容": "特別養護老人ホーム　岩出の郷【短期入所生活介護】宮城県大崎市岩出山字下川原町84－4", "url2": "https://www.kaigokensaku.mhlw.go.jp/04/index.php?action_kouhyou_detail_004_kani=true&JigyosyoCd=0471500066-00&ServiceCd=210&Type=search" }, "geometry": { "type": "Point", "coordinates": [ 140.86852250000004, 38.6581101 ] } },
{ "type": "Feature", "properties": { "内容": "特別養護老人ホーム百才館【短期入所生活介護】宮城県大崎市三本木字大豆坂24-3福祉施設百才館", "url2": "https://www.kaigokensaku.mhlw.go.jp/04/index.php?action_kouhyou_detail_004_kani=true&JigyosyoCd=0471501957-00&ServiceCd=210&Type=search" }, "geometry": { "type": "Point", "coordinates": [ 140.93811740000001, 38.5201833 ] } },
{ "type": "Feature", "properties": { "内容": "地域密着型特別養護老人ホーム　ルグネット大崎Tsumugi併設型短期入所生活介護・介護予防短期入所生活介護【短期入所生活介護】宮城県大崎市古川小野字馬場30-1", "url2": "https://www.kaigokensaku.mhlw.go.jp/04/index.php?action_kouhyou_detail_004_kani=true&JigyosyoCd=0471502807-00&ServiceCd=210&Type=search" }, "geometry": { "type": "Point", "coordinates": [ 140.9837886, 38.6238002 ] } },
{ "type": "Feature", "properties": { "内容": "特別養護老人ホーム　大崎ホーム【短期入所生活介護】宮城県大崎市古川下中目字赤山廻５１番地", "url2": "https://www.kaigokensaku.mhlw.go.jp/04/index.php?action_kouhyou_detail_004_kani=true&JigyosyoCd=0471500025-00&ServiceCd=210&Type=search" }, "geometry": { "type": "Point", "coordinates": [ 140.99921530000006, 38.5424244 ] } },
{ "type": "Feature", "properties": { "内容": "ショートステイ　くるみ【短期入所生活介護】宮城県大崎市古川若葉町1－7－23", "url2": "https://www.kaigokensaku.mhlw.go.jp/04/index.php?action_kouhyou_detail_004_kani=true&JigyosyoCd=0471502112-00&ServiceCd=210&Type=search" }, "geometry": { "type": "Point", "coordinates": [ 140.952747464487402, 38.589076680121849 ] } },
{ "type": "Feature", "properties": { "内容": "大崎市社会福祉協議会　特別養護老人ホーム楽々楽館【短期入所生活介護】大崎市古川保柳字中江5番2号", "url2": "https://www.kaigokensaku.mhlw.go.jp/04/index.php?action_kouhyou_detail_004_kani=true&JigyosyoCd=0471501262-00&ServiceCd=210&Type=search" }, "geometry": { "type": "Point", "coordinates": [ 140.899535, 38.5860935 ] } },
{ "type": "Feature", "properties": { "内容": "大崎市社会福祉協議会　特別養護老人ホーム敬風園【短期入所生活介護】宮城県大崎市鹿島台平渡字上敷19番地７", "url2": "https://www.kaigokensaku.mhlw.go.jp/04/index.php?action_kouhyou_detail_004_kani=true&JigyosyoCd=0471501270-00&ServiceCd=210&Type=search" }, "geometry": { "type": "Point", "coordinates": [ 141.089721868122865, 38.485392621499798 ] } },
{ "type": "Feature", "properties": { "内容": "特別養護老人ホーム　寿楽苑【短期入所生活介護】宮城県大崎市古川小野字上蝦沢５７番地特別養護老人ホーム寿楽苑", "url2": "https://www.kaigokensaku.mhlw.go.jp/04/index.php?action_kouhyou_detail_004_kani=true&JigyosyoCd=0471500017-00&ServiceCd=210&Type=search" }, "geometry": { "type": "Point", "coordinates": [ 140.972378099999986, 38.6348182 ] } },
{ "type": "Feature", "properties": { "内容": "特別養護老人ホーム　アルシュ富谷【短期入所生活介護】明石台7-1-8", "url2": "https://www.kaigokensaku.mhlw.go.jp/04/index.php?action_kouhyou_detail_004_kani=true&JigyosyoCd=0471600023-00&ServiceCd=210&Type=search" }, "geometry": { "type": "Point", "coordinates": [ 140.8905066, 38.3491291 ] } },
{ "type": "Feature", "properties": { "内容": "株式会社ドリームライトショートステイひかりの里【短期入所生活介護】宮城県富谷市成田8丁目4-10", "url2": "https://www.kaigokensaku.mhlw.go.jp/04/index.php?action_kouhyou_detail_004_kani=true&JigyosyoCd=0472701101-00&ServiceCd=210&Type=search" }, "geometry": { "type": "Point", "coordinates": [ 140.89285940000002, 38.3577663 ] } },
{ "type": "Feature", "properties": { "内容": "特別養護老人ホーム　せせらぎの里【短期入所生活介護】宮城県富谷市成田一丁目5-7", "url2": "https://www.kaigokensaku.mhlw.go.jp/04/index.php?action_kouhyou_detail_004_kani=true&JigyosyoCd=0472701127-00&ServiceCd=210&Type=search" }, "geometry": { "type": "Point", "coordinates": [ 140.893067400000064, 38.363673899999981 ] } },
{ "type": "Feature", "properties": { "内容": "特別養護老人ホーム　杜の風【短期入所生活介護】宮城県富谷市富谷桜田１－１１", "url2": "https://www.kaigokensaku.mhlw.go.jp/04/index.php?action_kouhyou_detail_004_kani=true&JigyosyoCd=0472700285-00&ServiceCd=210&Type=search" }, "geometry": { "type": "Point", "coordinates": [ 140.900390600000037, 38.396557 ] } },
{ "type": "Feature", "properties": { "内容": "特別養護老人ホーム　成田の里【短期入所生活介護】宮城県富谷市成田一丁目5-5", "url2": "https://www.kaigokensaku.mhlw.go.jp/04/index.php?action_kouhyou_detail_004_kani=true&JigyosyoCd=0472700913-00&ServiceCd=210&Type=search" }, "geometry": { "type": "Point", "coordinates": [ 140.893913214680424, 38.363005881371528 ] } },
{ "type": "Feature", "properties": { "内容": "せせらぎのさと蔵王【短期入所生活介護】宮城県刈田郡蔵王町遠刈田温泉字小妻坂79番8", "url2": "https://www.kaigokensaku.mhlw.go.jp/04/index.php?action_kouhyou_detail_004_kani=true&JigyosyoCd=0472100239-00&ServiceCd=210&Type=search" }, "geometry": { "type": "Point", "coordinates": [ 140.613359899999978, 38.1161526 ] } },
{ "type": "Feature", "properties": { "内容": "特別養護老人ホームざおうの杜【短期入所生活介護】宮城県刈田郡蔵王町曲竹字田中４８番地１", "url2": "https://www.kaigokensaku.mhlw.go.jp/04/index.php?action_kouhyou_detail_004_kani=true&JigyosyoCd=0472100189-00&ServiceCd=210&Type=search" }, "geometry": { "type": "Point", "coordinates": [ 140.65392339999994, 38.0772712 ] } },
{ "type": "Feature", "properties": { "内容": "特別養護老人ホーム楽園が丘【短期入所生活介護】宮城県刈田郡蔵王町宮字下別当72番地", "url2": "https://www.kaigokensaku.mhlw.go.jp/04/index.php?action_kouhyou_detail_004_kani=true&JigyosyoCd=0472100288-00&ServiceCd=210&Type=search" }, "geometry": { "type": "Point", "coordinates": [ 140.637045199999989, 38.0698864 ] } },
{ "type": "Feature", "properties": { "内容": "特別養護老人ホーム　ゆりの里七ケ宿【短期入所生活介護】宮城県刈田郡七ケ宿町字矢立３番地１", "url2": "https://www.kaigokensaku.mhlw.go.jp/04/index.php?action_kouhyou_detail_004_kani=true&JigyosyoCd=0472100122-00&ServiceCd=210&Type=search" }, "geometry": { "type": "Point", "coordinates": [ 140.463941, 37.9835759 ] } },
{ "type": "Feature", "properties": { "内容": "特別養護老人ホーム桜寿苑【短期入所生活介護】宮城県柴田郡大河原町大谷字上谷前220番地3", "url2": "https://www.kaigokensaku.mhlw.go.jp/04/index.php?action_kouhyou_detail_004_kani=true&JigyosyoCd=0472200138-00&ServiceCd=210&Type=search" }, "geometry": { "type": "Point", "coordinates": [ 140.731466400000045, 38.0310667 ] } },
{ "type": "Feature", "properties": { "内容": "特別養護老人ホーム柏松苑【短期入所生活介護】宮城県柴田郡村田町大字足立字上ケ戸17-5", "url2": "https://www.kaigokensaku.mhlw.go.jp/04/index.php?action_kouhyou_detail_004_kani=true&JigyosyoCd=0472200120-00&ServiceCd=210&Type=search" }, "geometry": { "type": "Point", "coordinates": [ 140.705337399999962, 38.1364068 ] } },
{ "type": "Feature", "properties": { "内容": "特別養護老人ホーム　常盤園【短期入所生活介護】宮城県柴田郡柴田町西船迫2丁目７番地4", "url2": "https://www.kaigokensaku.mhlw.go.jp/04/index.php?action_kouhyou_detail_004_kani=true&JigyosyoCd=0472200104-00&ServiceCd=210&Type=search" }, "geometry": { "type": "Point", "coordinates": [ 140.759334531111307, 38.062065474985481 ] } },
{ "type": "Feature", "properties": { "内容": "多機能型地域ケアホームふなおか【短期入所生活介護】宮城県柴田郡柴田町北船岡2丁目16-6", "url2": "https://www.kaigokensaku.mhlw.go.jp/04/index.php?action_kouhyou_detail_004_kani=true&JigyosyoCd=0472200690-00&ServiceCd=210&Type=search" }, "geometry": { "type": "Point", "coordinates": [ 140.7636152, 38.0629482 ] } },
{ "type": "Feature", "properties": { "内容": "特別養護老人ホーム　第二釜房みどりの園【短期入所生活介護】宮城県柴田郡川崎町大字川内字河原前５－５", "url2": "https://www.kaigokensaku.mhlw.go.jp/04/index.php?action_kouhyou_detail_004_kani=true&JigyosyoCd=0472200799-00&ServiceCd=210&Type=search" }, "geometry": { "type": "Point", "coordinates": [ 140.639319, 38.1843026 ] } },
{ "type": "Feature", "properties": { "内容": "地域密着型特別養護老人ホーム阿武隈ジェロントピア【短期入所生活介護】宮城県伊具郡丸森町舘矢間舘山字中道132", "url2": "https://www.kaigokensaku.mhlw.go.jp/04/index.php?action_kouhyou_detail_004_kani=true&JigyosyoCd=0472300136-00&ServiceCd=210&Type=search" }, "geometry": { "type": "Point", "coordinates": [ 140.780134299999958, 37.9231212 ] } },
{ "type": "Feature", "properties": { "内容": "ショートステイ憩いの森【短期入所生活介護】宮城県伊具郡丸森町大内字南平２１２－１２", "url2": "https://www.kaigokensaku.mhlw.go.jp/04/index.php?action_kouhyou_detail_004_kani=true&JigyosyoCd=0472300102-00&ServiceCd=210&Type=search" }, "geometry": { "type": "Point", "coordinates": [ 140.8193976, 37.856392 ] } },
{ "type": "Feature", "properties": { "内容": "特別養護老人ホーム仙南ジェロントピア【短期入所生活介護】宮城県伊具郡丸森町舘矢間松掛宮田67番地", "url2": "https://www.kaigokensaku.mhlw.go.jp/04/index.php?action_kouhyou_detail_004_kani=true&JigyosyoCd=0472300011-00&ServiceCd=210&Type=search" }, "geometry": { "type": "Point", "coordinates": [ 140.758911200000057, 37.938162 ] } },
{ "type": "Feature", "properties": { "内容": "特別養護老人ホーム仙南ジェロントピア【短期入所生活介護】宮城県伊具郡丸森町舘矢間松掛宮田67番地", "url2": "https://www.kaigokensaku.mhlw.go.jp/04/index.php?action_kouhyou_detail_004_kani=true&JigyosyoCd=0472300110-00&ServiceCd=210&Type=search" }, "geometry": { "type": "Point", "coordinates": [ 140.758916564418115, 37.937751613086128 ] } },
{ "type": "Feature", "properties": { "内容": "特別養護老人ホーム　第二日就苑【短期入所生活介護】宮城県亘理郡亘理町逢隈鹿島字北鹿島406-1", "url2": "https://www.kaigokensaku.mhlw.go.jp/04/index.php?action_kouhyou_detail_004_kani=true&JigyosyoCd=0472400415-00&ServiceCd=210&Type=search" }, "geometry": { "type": "Point", "coordinates": [ 140.848489500000028, 38.0483386 ] } },
{ "type": "Feature", "properties": { "内容": "特別養護老人ホーム日就苑【短期入所生活介護】宮城県亘理郡亘理町吉田字宮前5-10", "url2": "https://www.kaigokensaku.mhlw.go.jp/04/index.php?action_kouhyou_detail_004_kani=true&JigyosyoCd=0472400092-00&ServiceCd=210&Type=search" }, "geometry": { "type": "Point", "coordinates": [ 140.85620320000001, 38.011750500000019 ] } },
{ "type": "Feature", "properties": { "内容": "医療法人育志会　短期入所生活介護施設　プログレス【短期入所生活介護】宮城県亘理郡山元町山寺字堤山8番地5", "url2": "https://www.kaigokensaku.mhlw.go.jp/04/index.php?action_kouhyou_detail_004_kani=true&JigyosyoCd=0472400811-00&ServiceCd=210&Type=search" }, "geometry": { "type": "Point", "coordinates": [ 140.871096599999987, 37.9633789 ] } },
{ "type": "Feature", "properties": { "内容": "特別養護老人ホーム　みやま荘　ユニット【短期入所生活介護】宮城県亘理郡山元町高瀬字合戦原111-11", "url2": "https://www.kaigokensaku.mhlw.go.jp/04/index.php?action_kouhyou_detail_004_kani=true&JigyosyoCd=0472400688-00&ServiceCd=210&Type=search" }, "geometry": { "type": "Point", "coordinates": [ 140.898055900000031, 37.9418685 ] } },
{ "type": "Feature", "properties": { "内容": "特別養護老人ホームみやま荘【短期入所生活介護】宮城県亘理郡山元町高瀬字合戦原111-11", "url2": "https://www.kaigokensaku.mhlw.go.jp/04/index.php?action_kouhyou_detail_004_kani=true&JigyosyoCd=0472400084-00&ServiceCd=210&Type=search" }, "geometry": { "type": "Point", "coordinates": [ 140.898055900000031, 37.9418685 ] } },
{ "type": "Feature", "properties": { "内容": "特別養護老人ホーム　第二みやま荘【短期入所生活介護】宮城県亘理郡山元町高瀬字合戦原100-40", "url2": "https://www.kaigokensaku.mhlw.go.jp/04/index.php?action_kouhyou_detail_004_kani=true&JigyosyoCd=0472400852-00&ServiceCd=210&Type=search" }, "geometry": { "type": "Point", "coordinates": [ 140.891989800000033, 37.9432182 ] } },
{ "type": "Feature", "properties": { "内容": "特別養護老人ホーム　松島長松苑【短期入所生活介護】宮城県宮城郡松島町根廻字上山王6-27", "url2": "https://www.kaigokensaku.mhlw.go.jp/04/index.php?action_kouhyou_detail_004_kani=true&JigyosyoCd=0472600295-00&ServiceCd=210&Type=search" }, "geometry": { "type": "Point", "coordinates": [ 141.058800522090081, 38.408589091226851 ] } },
{ "type": "Feature", "properties": { "内容": "特別養護老人ホーム第二清楽苑【短期入所生活介護】宮城県宮城郡七ヶ浜町花渕浜字高山25番3", "url2": "https://www.kaigokensaku.mhlw.go.jp/04/index.php?action_kouhyou_detail_004_kani=true&JigyosyoCd=0472600048-00&ServiceCd=210&Type=search" }, "geometry": { "type": "Point", "coordinates": [ 141.070840500000031, 38.2976749 ] } },
{ "type": "Feature", "properties": { "内容": "介護老人福祉施設七ヶ浜自生苑【短期入所生活介護】宮城県宮城郡七ヶ浜町遠山５丁目５－４５", "url2": "https://www.kaigokensaku.mhlw.go.jp/04/index.php?action_kouhyou_detail_004_kani=true&JigyosyoCd=0472600741-00&ServiceCd=210&Type=search" }, "geometry": { "type": "Point", "coordinates": [ 141.0378455, 38.3050807 ] } },
{ "type": "Feature", "properties": { "内容": "介護老人福祉施設　十符・風の音【短期入所生活介護】宮城県宮城郡利府町葉山1-53", "url2": "https://www.kaigokensaku.mhlw.go.jp/04/index.php?action_kouhyou_detail_004_kani=true&JigyosyoCd=0472600444-00&ServiceCd=210&Type=search" }, "geometry": { "type": "Point", "coordinates": [ 141.022061244838369, 38.362052309645136 ] } },
{ "type": "Feature", "properties": { "内容": "特別養護老人ホーム壱ノ町【短期入所生活介護】宮城県宮城郡利府町赤沼字大貝９３番地１", "url2": "https://www.kaigokensaku.mhlw.go.jp/04/index.php?action_kouhyou_detail_004_kani=true&JigyosyoCd=0472600782-00&ServiceCd=210&Type=search" }, "geometry": { "type": "Point", "coordinates": [ 141.027271234393339, 38.366226421053909 ] } },
{ "type": "Feature", "properties": { "内容": "和風園【短期入所生活介護】宮城県黒川郡大和町小野字前沢1番地", "url2": "https://www.kaigokensaku.mhlw.go.jp/04/index.php?action_kouhyou_detail_004_kani=true&JigyosyoCd=0472700889-00&ServiceCd=210&Type=search" }, "geometry": { "type": "Point", "coordinates": [ 140.860790299999962, 38.3689007 ] } },
{ "type": "Feature", "properties": { "内容": "ショートステイまほろばの里たいわ【短期入所生活介護】宮城県黒川郡大和町吉岡まほろば2丁目2番地の4", "url2": "https://www.kaigokensaku.mhlw.go.jp/04/index.php?action_kouhyou_detail_004_kani=true&JigyosyoCd=0472701036-00&ServiceCd=210&Type=search" }, "geometry": { "type": "Point", "coordinates": [ 140.877446299999974, 38.4369815 ] } },
{ "type": "Feature", "properties": { "内容": "特別養護老人ホーム　郷和荘【短期入所生活介護】宮城県黒川郡大郷町大松沢字鶴田山36-2", "url2": "https://www.kaigokensaku.mhlw.go.jp/04/index.php?action_kouhyou_detail_004_kani=true&JigyosyoCd=0472700095-00&ServiceCd=210&Type=search" }, "geometry": { "type": "Point", "coordinates": [ 141.005676699999981, 38.4558615 ] } },
{ "type": "Feature", "properties": { "内容": "特別養護老人ホーム　ウイング【短期入所生活介護】黒川郡大郷町羽生字金井川９４番１", "url2": "https://www.kaigokensaku.mhlw.go.jp/04/index.php?action_kouhyou_detail_004_kani=true&JigyosyoCd=0472700988-00&ServiceCd=210&Type=search" }, "geometry": { "type": "Point", "coordinates": [ 141.0164909, 38.42486 ] } },
{ "type": "Feature", "properties": { "内容": "特別養護老人ホーム万葉の里　短期入所(介護予防)生活介護【短期入所生活介護】宮城県黒川郡大衡村大衡字大童7-20", "url2": "https://www.kaigokensaku.mhlw.go.jp/04/index.php?action_kouhyou_detail_004_kani=true&JigyosyoCd=0472701168-00&ServiceCd=210&Type=search" }, "geometry": { "type": "Point", "coordinates": [ 140.869687699999986, 38.4666005 ] } },
{ "type": "Feature", "properties": { "内容": "特別養護老人ホーム　七峰荘【短期入所生活介護】宮城県黒川郡大衡村大瓜字長町77番地3", "url2": "https://www.kaigokensaku.mhlw.go.jp/04/index.php?action_kouhyou_detail_004_kani=true&JigyosyoCd=0472701457-00&ServiceCd=210&Type=search" }, "geometry": { "type": "Point", "coordinates": [ 140.8479764, 38.4751397 ] } },
{ "type": "Feature", "properties": { "内容": "特別養護老人ホーム芍薬の里色麻【短期入所生活介護】宮城県色麻町四竃字東原1-4", "url2": "https://www.kaigokensaku.mhlw.go.jp/04/index.php?action_kouhyou_detail_004_kani=true&JigyosyoCd=0472800705-00&ServiceCd=210&Type=search" }, "geometry": { "type": "Point", "coordinates": [ 140.860183462287864, 38.529779920920255 ] } },
{ "type": "Feature", "properties": { "内容": "特別養護老人ホームみやざき【短期入所生活介護】宮城県加美郡加美町宮崎字屋敷七番２９番", "url2": "https://www.kaigokensaku.mhlw.go.jp/04/index.php?action_kouhyou_detail_004_kani=true&JigyosyoCd=0472800580-00&ServiceCd=210&Type=search" }, "geometry": { "type": "Point", "coordinates": [ 140.754039400000011, 38.6130753 ] } },
{ "type": "Feature", "properties": { "内容": "特別養護老人ホーム　青風園【短期入所生活介護】宮城県加美郡加美町菜切谷字原16-54", "url2": "https://www.kaigokensaku.mhlw.go.jp/04/index.php?action_kouhyou_detail_004_kani=true&JigyosyoCd=0472800077-00&ServiceCd=210&Type=search" }, "geometry": { "type": "Point", "coordinates": [ 140.860407500000065, 38.5996798 ] } },
{ "type": "Feature", "properties": { "内容": "特別養護老人ホーム　やくらいサンホーム【短期入所生活介護】宮城県加美郡加美町字中原南143", "url2": "https://www.kaigokensaku.mhlw.go.jp/04/index.php?action_kouhyou_detail_004_kani=true&JigyosyoCd=0472800085-00&ServiceCd=210&Type=search" }, "geometry": { "type": "Point", "coordinates": [ 140.782019, 38.579677 ] } },
{ "type": "Feature", "properties": { "内容": "特別養護老人ホーム　ゆうらいふ【短期入所生活介護】宮城県遠田郡涌谷町涌谷字新下町浦192涌谷町高齢者福祉複合施設ゆうらいふ", "url2": "https://www.kaigokensaku.mhlw.go.jp/04/index.php?action_kouhyou_detail_004_kani=true&JigyosyoCd=0473100709-00&ServiceCd=210&Type=search" }, "geometry": { "type": "Point", "coordinates": [ 141.1411941, 38.53939 ] } },
{ "type": "Feature", "properties": { "内容": "介護老人福祉施設　みさとの杜翔裕園【短期入所生活介護】宮城県遠田郡美里町駅東二丁目１７番地５", "url2": "https://www.kaigokensaku.mhlw.go.jp/04/index.php?action_kouhyou_detail_004_kani=true&JigyosyoCd=0473100584-00&ServiceCd=210&Type=search" }, "geometry": { "type": "Point", "coordinates": [ 141.070065399999976, 38.5413583 ] } },
{ "type": "Feature", "properties": { "内容": "特別養護老人ホーム　いなほの里【短期入所生活介護】宮城県遠田郡美里町木間塚字原田７番地", "url2": "https://www.kaigokensaku.mhlw.go.jp/04/index.php?action_kouhyou_detail_004_kani=true&JigyosyoCd=0473100071-00&ServiceCd=210&Type=search" }, "geometry": { "type": "Point", "coordinates": [ 141.1333684, 38.4901935 ] } },
{ "type": "Feature", "properties": { "内容": "特別養護老人ホーム　慈恵園【短期入所生活介護】宮城県本吉郡南三陸町入谷字童子下159番地2", "url2": "https://www.kaigokensaku.mhlw.go.jp/04/index.php?action_kouhyou_detail_004_kani=true&JigyosyoCd=0473600088-00&ServiceCd=210&Type=search" }, "geometry": { "type": "Point", "coordinates": [ 141.415092036770602, 38.708301034986896 ] } }
]
}
