{
"type": "FeatureCollection",
"name": "geo_04_訪問看護",
"crs": { "type": "name", "properties": { "name": "urn:ogc:def:crs:OGC:1.3:CRS84" } },
"features": [
{ "type": "Feature", "properties": { "内容": "訪問看護ステーションこめりな【訪問看護】宮城県仙台市青葉区柏木一丁目8番7号", "url2": "https://www.kaigokensaku.mhlw.go.jp/04/index.php?action_kouhyou_detail_004_kani=true&JigyosyoCd=0465190544-00&ServiceCd=130&Type=search" }, "geometry": { "type": "Point", "coordinates": [ 140.8604228, 38.2752399 ] } },
{ "type": "Feature", "properties": { "内容": "北根訪問看護ステーション【訪問看護】宮城県仙台市青葉区北根2-5-16北根ナーシングホーム", "url2": "https://www.kaigokensaku.mhlw.go.jp/04/index.php?action_kouhyou_detail_004_kani=true&JigyosyoCd=0465190577-00&ServiceCd=130&Type=search" }, "geometry": { "type": "Point", "coordinates": [ 140.874644100000012, 38.2959534 ] } },
{ "type": "Feature", "properties": { "内容": "訪問看護ステーションSora【訪問看護】宮城県仙台市青葉区上杉1丁目8-19副都心ビル上杉百番館3階", "url2": "https://www.kaigokensaku.mhlw.go.jp/04/index.php?action_kouhyou_detail_004_kani=true&JigyosyoCd=0465190346-00&ServiceCd=130&Type=search" }, "geometry": { "type": "Point", "coordinates": [ 140.871265799999946, 38.27072720000001 ] } },
{ "type": "Feature", "properties": { "内容": "南條クリニック訪問看護ステーション【訪問看護】宮城県仙台市青葉区台原5-5-5", "url2": "https://www.kaigokensaku.mhlw.go.jp/04/index.php?action_kouhyou_detail_004_kani=true&JigyosyoCd=0465190601-00&ServiceCd=130&Type=search" }, "geometry": { "type": "Point", "coordinates": [ 140.8799577, 38.2818903 ] } },
{ "type": "Feature", "properties": { "内容": "訪問看護ステーションリヤンド仙台青葉【訪問看護】宮城県仙台市青葉区国見ケ丘5-43-1-", "url2": "https://www.kaigokensaku.mhlw.go.jp/04/index.php?action_kouhyou_detail_004_kani=true&JigyosyoCd=0465190619-00&ServiceCd=130&Type=search" }, "geometry": { "type": "Point", "coordinates": [ 140.824939699999987, 38.2842016 ] } },
{ "type": "Feature", "properties": { "内容": "仙台ロイヤルケアセンター訪問看護ステーション【訪問看護】宮城県仙台市青葉区みやぎ台一丁目31-1", "url2": "https://www.kaigokensaku.mhlw.go.jp/04/index.php?action_kouhyou_detail_004_kani=true&JigyosyoCd=0465190015-00&ServiceCd=130&Type=search" }, "geometry": { "type": "Point", "coordinates": [ 140.777284399999985, 38.3073494 ] } },
{ "type": "Feature", "properties": { "内容": "ひばり訪問看護ステーション【訪問看護】宮城県仙台市青葉区中山台2-60-6MIPビル2F", "url2": "https://www.kaigokensaku.mhlw.go.jp/04/index.php?action_kouhyou_detail_004_kani=true&JigyosyoCd=0465190262-00&ServiceCd=130&Type=search" }, "geometry": { "type": "Point", "coordinates": [ 140.816036735581946, 38.302918116407668 ] } },
{ "type": "Feature", "properties": { "内容": "セコム仙台訪問看護ステーション【訪問看護】宮城県仙台市青葉区上杉1丁目7-30エグゼクティブ上杉２２２号", "url2": "https://www.kaigokensaku.mhlw.go.jp/04/index.php?action_kouhyou_detail_004_kani=true&JigyosyoCd=0465190114-00&ServiceCd=130&Type=search" }, "geometry": { "type": "Point", "coordinates": [ 140.870635399999969, 38.2709612 ] } },
{ "type": "Feature", "properties": { "内容": "セコム仙台北訪問看護ステーション【訪問看護】宮城県仙台市青葉区北根黒松1-30セコム仙台ビル２階", "url2": "https://www.kaigokensaku.mhlw.go.jp/04/index.php?action_kouhyou_detail_004_kani=true&JigyosyoCd=0465190189-00&ServiceCd=130&Type=search" }, "geometry": { "type": "Point", "coordinates": [ 140.879054057672079, 38.306329185520966 ] } },
{ "type": "Feature", "properties": { "内容": "なの花訪問看護ステーション仙台【訪問看護】宮城県仙台市青葉区上杉５丁目１番１号上杉五番館２F", "url2": "https://www.kaigokensaku.mhlw.go.jp/04/index.php?action_kouhyou_detail_004_kani=true&JigyosyoCd=0465190460-00&ServiceCd=130&Type=search" }, "geometry": { "type": "Point", "coordinates": [ 140.8794122, 38.2743286 ] } },
{ "type": "Feature", "properties": { "内容": "医療法人松田会愛子訪問看護ステーション【訪問看護】宮城県仙台市青葉区上愛子字雷神6-2", "url2": "https://www.kaigokensaku.mhlw.go.jp/04/index.php?action_kouhyou_detail_004_kani=true&JigyosyoCd=0475105995-00&ServiceCd=130&Type=search" }, "geometry": { "type": "Point", "coordinates": [ 140.7466087, 38.2726552 ] } },
{ "type": "Feature", "properties": { "内容": "訪問看護ステーションモークシャ愛子【訪問看護】宮城県仙台市青葉区下愛子字観音堂1-1", "url2": "https://www.kaigokensaku.mhlw.go.jp/04/index.php?action_kouhyou_detail_004_kani=true&JigyosyoCd=0465190387-00&ServiceCd=130&Type=search" }, "geometry": { "type": "Point", "coordinates": [ 140.761894608910808, 38.268837378272238 ] } },
{ "type": "Feature", "properties": { "内容": "仙台北訪問看護ステーション【訪問看護】宮城県仙台市青葉区三条町16-12センリーフST301", "url2": "https://www.kaigokensaku.mhlw.go.jp/04/index.php?action_kouhyou_detail_004_kani=true&JigyosyoCd=0465190031-00&ServiceCd=130&Type=search" }, "geometry": { "type": "Point", "coordinates": [ 140.851639345755075, 38.280637613163584 ] } },
{ "type": "Feature", "properties": { "内容": "株式会社　はづき訪問看護ステーション【訪問看護】宮城県仙台市青葉区八幡4丁目17-17", "url2": "https://www.kaigokensaku.mhlw.go.jp/04/index.php?action_kouhyou_detail_004_kani=true&JigyosyoCd=0465190270-00&ServiceCd=130&Type=search" }, "geometry": { "type": "Point", "coordinates": [ 140.847931596476542, 38.272768525945239 ] } },
{ "type": "Feature", "properties": { "内容": "訪問看護ステーション仙台折立【訪問看護】宮城県仙台市青葉区折立1丁目11-20", "url2": "https://www.kaigokensaku.mhlw.go.jp/04/index.php?action_kouhyou_detail_004_kani=true&JigyosyoCd=0465190593-00&ServiceCd=130&Type=search" }, "geometry": { "type": "Point", "coordinates": [ 140.811939300719985, 38.265356719921087 ] } },
{ "type": "Feature", "properties": { "内容": "訪問看護ステーションゆいまーる【訪問看護】宮城県仙台市青葉区栗生三丁目１７番１号ブルーベリー栗生２０５号室", "url2": "https://www.kaigokensaku.mhlw.go.jp/04/index.php?action_kouhyou_detail_004_kani=true&JigyosyoCd=0465190106-00&ServiceCd=130&Type=search" }, "geometry": { "type": "Point", "coordinates": [ 140.795662499999906, 38.2686128 ] } },
{ "type": "Feature", "properties": { "内容": "医療法人社団爽秋会岡部医院仙台【訪問看護】宮城県仙台市青葉区柏木2-4-76ガーデンテラス柏木106", "url2": "https://www.kaigokensaku.mhlw.go.jp/04/index.php?action_kouhyou_detail_004_kani=true&JigyosyoCd=0415117878-00&ServiceCd=130&Type=search" }, "geometry": { "type": "Point", "coordinates": [ 140.855720499999961, 38.2738398 ] } },
{ "type": "Feature", "properties": { "内容": "ナースステーションきずな【訪問看護】宮城県仙台市青葉区本町一丁目12番12号GMビルディング2階", "url2": "https://www.kaigokensaku.mhlw.go.jp/04/index.php?action_kouhyou_detail_004_kani=true&JigyosyoCd=0465190502-00&ServiceCd=130&Type=search" }, "geometry": { "type": "Point", "coordinates": [ 140.878476519971088, 38.266445277955832 ] } },
{ "type": "Feature", "properties": { "内容": "訪問看護リハビリステーション仙台敬寿園【訪問看護】宮城県仙台市青葉区錦が丘７丁目１－３錦グループ第６ビル２階B室", "url2": "https://www.kaigokensaku.mhlw.go.jp/04/index.php?action_kouhyou_detail_004_kani=true&JigyosyoCd=0465190429-00&ServiceCd=130&Type=search" }, "geometry": { "type": "Point", "coordinates": [ 140.762898408427617, 38.258122096762463 ] } },
{ "type": "Feature", "properties": { "内容": "上杉訪問看護ステーション【訪問看護】仙台市青葉区上杉2-3-17-2F", "url2": "https://www.kaigokensaku.mhlw.go.jp/04/index.php?action_kouhyou_detail_004_kani=true&JigyosyoCd=0465190049-00&ServiceCd=130&Type=search" }, "geometry": { "type": "Point", "coordinates": [ 140.869202964942929, 38.272757611448966 ] } },
{ "type": "Feature", "properties": { "内容": "医療法人社団東北福祉会せんだんの丘訪問看護ステーション【訪問看護】宮城県仙台市青葉区国見ヶ丘6-126-51", "url2": "https://www.kaigokensaku.mhlw.go.jp/04/index.php?action_kouhyou_detail_004_kani=true&JigyosyoCd=0465190098-00&ServiceCd=130&Type=search" }, "geometry": { "type": "Point", "coordinates": [ 140.8344442, 38.2840815 ] } },
{ "type": "Feature", "properties": { "内容": "看護クラーク仙台青葉【訪問看護】宮城県仙台市青葉区八幡3-10-8フォルス八幡101", "url2": "https://www.kaigokensaku.mhlw.go.jp/04/index.php?action_kouhyou_detail_004_kani=true&JigyosyoCd=0465190478-00&ServiceCd=130&Type=search" }, "geometry": { "type": "Point", "coordinates": [ 140.850018799999987, 38.2678689 ] } },
{ "type": "Feature", "properties": { "内容": "イーライフ訪問看護ステーション【訪問看護】宮城県仙台市青葉区小田原5丁目1-53-104", "url2": "https://www.kaigokensaku.mhlw.go.jp/04/index.php?action_kouhyou_detail_004_kani=true&JigyosyoCd=0465190122-00&ServiceCd=130&Type=search" }, "geometry": { "type": "Point", "coordinates": [ 140.887048700000037, 38.2668101 ] } },
{ "type": "Feature", "properties": { "内容": "訪問看護ステーションゆう【訪問看護】宮城県仙台市青葉区落合1丁目12-11", "url2": "https://www.kaigokensaku.mhlw.go.jp/04/index.php?action_kouhyou_detail_004_kani=true&JigyosyoCd=0465190569-00&ServiceCd=130&Type=search" }, "geometry": { "type": "Point", "coordinates": [ 140.795121100000017, 38.270739 ] } },
{ "type": "Feature", "properties": { "内容": "あおいくま訪問看護リハビリステーション仙台【訪問看護】宮城県仙台市青葉区国分町3-4-10ヒルトップ晩翠4F", "url2": "https://www.kaigokensaku.mhlw.go.jp/04/index.php?action_kouhyou_detail_004_kani=true&JigyosyoCd=0465190379-00&ServiceCd=130&Type=search" }, "geometry": { "type": "Point", "coordinates": [ 140.866814500000032, 38.2660874 ] } },
{ "type": "Feature", "properties": { "内容": "訪問看護ステーションひろせ【訪問看護】宮城県仙台市青葉区郷六字大森4-2", "url2": "https://www.kaigokensaku.mhlw.go.jp/04/index.php?action_kouhyou_detail_004_kani=true&JigyosyoCd=0465190353-00&ServiceCd=130&Type=search" }, "geometry": { "type": "Point", "coordinates": [ 140.811286500000051, 38.2542178 ] } },
{ "type": "Feature", "properties": { "内容": "訪問看護ステーションクオルド仙台【訪問看護】宮城県仙台市青葉区山手町11‐50コアライフ山手403", "url2": "https://www.kaigokensaku.mhlw.go.jp/04/index.php?action_kouhyou_detail_004_kani=true&JigyosyoCd=0465190585-00&ServiceCd=130&Type=search" }, "geometry": { "type": "Point", "coordinates": [ 140.850199828836054, 38.286801542539074 ] } },
{ "type": "Feature", "properties": { "内容": "社会福祉法人こーぷ福祉会　こ～ぷのお家桜ヶ丘訪問看護ステーション【訪問看護】宮城県仙台市青葉区桜ヶ丘2-20-1", "url2": "https://www.kaigokensaku.mhlw.go.jp/04/index.php?action_kouhyou_detail_004_kani=true&JigyosyoCd=0465190080-00&ServiceCd=130&Type=search" }, "geometry": { "type": "Point", "coordinates": [ 140.855047099999979, 38.2975111 ] } },
{ "type": "Feature", "properties": { "内容": "エムツー訪問看護ステーション青葉【訪問看護】宮城県仙台市青葉区八幡1-4-22裳榮ハイツ201", "url2": "https://www.kaigokensaku.mhlw.go.jp/04/index.php?action_kouhyou_detail_004_kani=true&JigyosyoCd=0465190536-00&ServiceCd=130&Type=search" }, "geometry": { "type": "Point", "coordinates": [ 140.8521354, 38.269705 ] } },
{ "type": "Feature", "properties": { "内容": "訪問看護ステーション　デューン宮城野【訪問看護】宮城県仙台市宮城野区新田東５丁目6-1新田東貸事務所B", "url2": "https://www.kaigokensaku.mhlw.go.jp/04/index.php?action_kouhyou_detail_004_kani=true&JigyosyoCd=0465290252-00&ServiceCd=130&Type=search" }, "geometry": { "type": "Point", "coordinates": [ 140.9302883, 38.2806736 ] } },
{ "type": "Feature", "properties": { "内容": "訪問看護ステーション　ベルカナ【訪問看護】宮城県仙台市宮城野区幸町2-11-16", "url2": "https://www.kaigokensaku.mhlw.go.jp/04/index.php?action_kouhyou_detail_004_kani=true&JigyosyoCd=0465290229-00&ServiceCd=130&Type=search" }, "geometry": { "type": "Point", "coordinates": [ 140.8967619, 38.2737828 ] } },
{ "type": "Feature", "properties": { "内容": "エムツー訪問看護ステーション宮城野【訪問看護】宮城県仙台市宮城野区中野字出花西45山慶ビル101", "url2": "https://www.kaigokensaku.mhlw.go.jp/04/index.php?action_kouhyou_detail_004_kani=true&JigyosyoCd=0465290245-00&ServiceCd=130&Type=search" }, "geometry": { "type": "Point", "coordinates": [ 140.984345499999989, 38.2800222 ] } },
{ "type": "Feature", "properties": { "内容": "セントケア訪問看護ステーション仙台宮城野【訪問看護】福田町三丁目７番１号コーポ・サンライズ１F", "url2": "https://www.kaigokensaku.mhlw.go.jp/04/index.php?action_kouhyou_detail_004_kani=true&JigyosyoCd=0465290328-00&ServiceCd=130&Type=search" }, "geometry": { "type": "Point", "coordinates": [ 140.9622678, 38.2617576 ] } },
{ "type": "Feature", "properties": { "内容": "グッドタイム訪問看護ステーション・東仙台【訪問看護】東仙台2丁目14番22号オフィスＭＡ1階1号室", "url2": "https://www.kaigokensaku.mhlw.go.jp/04/index.php?action_kouhyou_detail_004_kani=true&JigyosyoCd=0465290211-00&ServiceCd=130&Type=search" }, "geometry": { "type": "Point", "coordinates": [ 140.9185741, 38.2766455 ] } },
{ "type": "Feature", "properties": { "内容": "ゆんたく訪問看護ステーション【訪問看護】仙台市宮城野区鶴巻1-7-38オレンジフラットW13", "url2": "https://www.kaigokensaku.mhlw.go.jp/04/index.php?action_kouhyou_detail_004_kani=true&JigyosyoCd=0465290260-00&ServiceCd=130&Type=search" }, "geometry": { "type": "Point", "coordinates": [ 140.96625130000001, 38.2643887 ] } },
{ "type": "Feature", "properties": { "内容": "オール訪問看護リハビリステーション仙台【訪問看護】宮城県仙台市宮城野区原町2-3-58K-BLD.503", "url2": "https://www.kaigokensaku.mhlw.go.jp/04/index.php?action_kouhyou_detail_004_kani=true&JigyosyoCd=0465290336-00&ServiceCd=130&Type=search" }, "geometry": { "type": "Point", "coordinates": [ 140.9026709, 38.264657 ] } },
{ "type": "Feature", "properties": { "内容": "訪問看護ステーションここさいむら小田原【訪問看護】宮城県仙台市宮城野区小田原3丁目4－55", "url2": "https://www.kaigokensaku.mhlw.go.jp/04/index.php?action_kouhyou_detail_004_kani=true&JigyosyoCd=0465290294-00&ServiceCd=130&Type=search" }, "geometry": { "type": "Point", "coordinates": [ 140.894515, 38.268298 ] } },
{ "type": "Feature", "properties": { "内容": "セントケア訪問看護ステーション仙台東【訪問看護】宮城県仙台市宮城野区東仙台2-17-5ロックスビル2F", "url2": "https://www.kaigokensaku.mhlw.go.jp/04/index.php?action_kouhyou_detail_004_kani=true&JigyosyoCd=0465290179-00&ServiceCd=130&Type=search" }, "geometry": { "type": "Point", "coordinates": [ 140.916646065359487, 38.277679214959129 ] } },
{ "type": "Feature", "properties": { "内容": "鶴ヶ谷訪問看護ステーション【訪問看護】宮城県仙台市宮城野区鶴ヶ谷字館下35番地の1", "url2": "https://www.kaigokensaku.mhlw.go.jp/04/index.php?action_kouhyou_detail_004_kani=true&JigyosyoCd=0465290195-00&ServiceCd=130&Type=search" }, "geometry": { "type": "Point", "coordinates": [ 140.919918, 38.2969492 ] } },
{ "type": "Feature", "properties": { "内容": "うちケア訪問看護リハビリステーション【訪問看護】宮城県仙台市宮城野区鶴ケ谷1丁目36-22SKIPSSS103", "url2": "https://www.kaigokensaku.mhlw.go.jp/04/index.php?action_kouhyou_detail_004_kani=true&JigyosyoCd=0465290278-00&ServiceCd=130&Type=search" }, "geometry": { "type": "Point", "coordinates": [ 140.9054735, 38.2896712 ] } },
{ "type": "Feature", "properties": { "内容": "ケアーズ訪問看護リハビリステーション仙台東【訪問看護】宮城県仙台市宮城野区原町2-4-20イーストキャッスル仙台201", "url2": "https://www.kaigokensaku.mhlw.go.jp/04/index.php?action_kouhyou_detail_004_kani=true&JigyosyoCd=0465290146-00&ServiceCd=130&Type=search" }, "geometry": { "type": "Point", "coordinates": [ 140.905772692932601, 38.265533552067126 ] } },
{ "type": "Feature", "properties": { "内容": "わかな訪問看護リハビリステーション【訪問看護】宮城県仙台市宮城野区福室5-20-5福室アヴェニュー305", "url2": "https://www.kaigokensaku.mhlw.go.jp/04/index.php?action_kouhyou_detail_004_kani=true&JigyosyoCd=0465290187-00&ServiceCd=130&Type=search" }, "geometry": { "type": "Point", "coordinates": [ 140.972681100000017, 38.280161700000015 ] } },
{ "type": "Feature", "properties": { "内容": "新田東クリニック【訪問看護】仙台市宮城野区新田東2-10-4", "url2": "https://www.kaigokensaku.mhlw.go.jp/04/index.php?action_kouhyou_detail_004_kani=true&JigyosyoCd=0415212810-00&ServiceCd=130&Type=search" }, "geometry": { "type": "Point", "coordinates": [ 140.9347324, 38.2746633 ] } },
{ "type": "Feature", "properties": { "内容": "仙台東部訪問看護ステーション【訪問看護】仙台市宮城野区東仙台4-1-20", "url2": "https://www.kaigokensaku.mhlw.go.jp/04/index.php?action_kouhyou_detail_004_kani=true&JigyosyoCd=0465290039-00&ServiceCd=130&Type=search" }, "geometry": { "type": "Point", "coordinates": [ 140.912620394303872, 38.275985025532691 ] } },
{ "type": "Feature", "properties": { "内容": "ウィル訪問看護ステーション仙台【訪問看護】宮城県仙台市宮城野区岩切３丁目1-1カネカビル201", "url2": "https://www.kaigokensaku.mhlw.go.jp/04/index.php?action_kouhyou_detail_004_kani=true&JigyosyoCd=0465290286-00&ServiceCd=130&Type=search" }, "geometry": { "type": "Point", "coordinates": [ 140.931858299999988, 38.293988400000018 ] } },
{ "type": "Feature", "properties": { "内容": "訪問看護ステーション　とまと【訪問看護】宮城県仙台市宮城野区岩切字稲荷41-2岩切病院　南棟３F", "url2": "https://www.kaigokensaku.mhlw.go.jp/04/index.php?action_kouhyou_detail_004_kani=true&JigyosyoCd=0465290047-00&ServiceCd=130&Type=search" }, "geometry": { "type": "Point", "coordinates": [ 140.938329339733826, 38.300226057417881 ] } },
{ "type": "Feature", "properties": { "内容": "フォーレスト訪問看護ステーション【訪問看護】宮城県仙台市宮城野区岩切字谷地15-1", "url2": "https://www.kaigokensaku.mhlw.go.jp/04/index.php?action_kouhyou_detail_004_kani=true&JigyosyoCd=0465290070-00&ServiceCd=130&Type=search" }, "geometry": { "type": "Point", "coordinates": [ 140.930438500000037, 38.3100787 ] } },
{ "type": "Feature", "properties": { "内容": "ゆうナースステーション【訪問看護】宮城県仙台市宮城野区宮千代2-1-2アイランドビル301", "url2": "https://www.kaigokensaku.mhlw.go.jp/04/index.php?action_kouhyou_detail_004_kani=true&JigyosyoCd=0465290302-00&ServiceCd=130&Type=search" }, "geometry": { "type": "Point", "coordinates": [ 140.9112528, 38.2522925 ] } },
{ "type": "Feature", "properties": { "内容": "ここあい訪問看護ステーション仙台【訪問看護】宮城県仙台市宮城野区宮千代三丁目５番地１３アサダビジネス３０３号室", "url2": "https://www.kaigokensaku.mhlw.go.jp/04/index.php?action_kouhyou_detail_004_kani=true&JigyosyoCd=0465290310-00&ServiceCd=130&Type=search" }, "geometry": { "type": "Point", "coordinates": [ 140.916152399999987, 38.2541453 ] } },
{ "type": "Feature", "properties": { "内容": "訪問看護ステーション　まそら【訪問看護】宮城県仙台市宮城野区二の森１６－３２", "url2": "https://www.kaigokensaku.mhlw.go.jp/04/index.php?action_kouhyou_detail_004_kani=true&JigyosyoCd=0465290237-00&ServiceCd=130&Type=search" }, "geometry": { "type": "Point", "coordinates": [ 140.90088990000001, 38.2792628 ] } },
{ "type": "Feature", "properties": { "内容": "セコム仙台東訪問看護ステーション【訪問看護】宮城県仙台市宮城野区苦竹1-5-1　　202号", "url2": "https://www.kaigokensaku.mhlw.go.jp/04/index.php?action_kouhyou_detail_004_kani=true&JigyosyoCd=0465290088-00&ServiceCd=130&Type=search" }, "geometry": { "type": "Point", "coordinates": [ 140.914264900000035, 38.2681025 ] } },
{ "type": "Feature", "properties": { "内容": "医療法人社団　健育会　仙台ひまわり訪問看護ステーション【訪問看護】宮城県仙台市宮城野区福室6丁目8-29", "url2": "https://www.kaigokensaku.mhlw.go.jp/04/index.php?action_kouhyou_detail_004_kani=true&JigyosyoCd=0465290203-00&ServiceCd=130&Type=search" }, "geometry": { "type": "Point", "coordinates": [ 140.969376600000032, 38.2818067 ] } },
{ "type": "Feature", "properties": { "内容": "きらり小児訪問看護ステーション【訪問看護】宮城県仙台市宮城野区宮千代三丁目6-7グランティック卸町102", "url2": "https://www.kaigokensaku.mhlw.go.jp/04/index.php?action_kouhyou_detail_004_kani=true&JigyosyoCd=0465290344-00&ServiceCd=130&Type=search" }, "geometry": { "type": "Point", "coordinates": [ 140.9159371, 38.2547582 ] } },
{ "type": "Feature", "properties": { "内容": "看護クラーク仙台若林【訪問看護】宮城県仙台市若林区遠見塚東1番13号", "url2": "https://www.kaigokensaku.mhlw.go.jp/04/index.php?action_kouhyou_detail_004_kani=true&JigyosyoCd=0465390284-00&ServiceCd=130&Type=search" }, "geometry": { "type": "Point", "coordinates": [ 140.9186565, 38.2398745 ] } },
{ "type": "Feature", "properties": { "内容": "訪問看護ステーションそれいゆ【訪問看護】宮城県仙台市若林区舟丁３番地", "url2": "https://www.kaigokensaku.mhlw.go.jp/04/index.php?action_kouhyou_detail_004_kani=true&JigyosyoCd=0465390177-00&ServiceCd=130&Type=search" }, "geometry": { "type": "Point", "coordinates": [ 140.887757800000031, 38.2416235 ] } },
{ "type": "Feature", "properties": { "内容": "セコム仙台若林訪問看護ステーション【訪問看護】宮城県仙台市若林区河原町1－1－23イガスト・ゲート河原町202", "url2": "https://www.kaigokensaku.mhlw.go.jp/04/index.php?action_kouhyou_detail_004_kani=true&JigyosyoCd=0465390144-00&ServiceCd=130&Type=search" }, "geometry": { "type": "Point", "coordinates": [ 140.888835500000027, 38.2399459 ] } },
{ "type": "Feature", "properties": { "内容": "医療法人モクシン　HOC訪問看護ステーション【訪問看護】宮城県仙台市若林区なないろの里1-19-2", "url2": "https://www.kaigokensaku.mhlw.go.jp/04/index.php?action_kouhyou_detail_004_kani=true&JigyosyoCd=0465390185-00&ServiceCd=130&Type=search" }, "geometry": { "type": "Point", "coordinates": [ 140.927260499999988, 38.2389791 ] } },
{ "type": "Feature", "properties": { "内容": "医療法人松田会仙台大和町訪問看護ステーション【訪問看護】宮城県仙台市若林区大和町三丁目1番1号", "url2": "https://www.kaigokensaku.mhlw.go.jp/04/index.php?action_kouhyou_detail_004_kani=true&JigyosyoCd=0465390235-00&ServiceCd=130&Type=search" }, "geometry": { "type": "Point", "coordinates": [ 140.916594800000013, 38.2485373 ] } },
{ "type": "Feature", "properties": { "内容": "セントケア訪問看護ステーション若林【訪問看護】宮城県仙台市若林区若林７－１－２", "url2": "https://www.kaigokensaku.mhlw.go.jp/04/index.php?action_kouhyou_detail_004_kani=true&JigyosyoCd=0465390151-00&ServiceCd=130&Type=search" }, "geometry": { "type": "Point", "coordinates": [ 140.904092900000023, 38.2278286 ] } },
{ "type": "Feature", "properties": { "内容": "訪問看護ココ・ステーション仙台中央【訪問看護】宮城県仙台市若林区東七番丁17エックスビル3階", "url2": "https://www.kaigokensaku.mhlw.go.jp/04/index.php?action_kouhyou_detail_004_kani=true&JigyosyoCd=0465390110-00&ServiceCd=130&Type=search" }, "geometry": { "type": "Point", "coordinates": [ 140.882877300000018, 38.2514142 ] } },
{ "type": "Feature", "properties": { "内容": "すだち訪問看護リハビリステーション【訪問看護】宮城県仙台市若林区沖野7-6-30", "url2": "https://www.kaigokensaku.mhlw.go.jp/04/index.php?action_kouhyou_detail_004_kani=true&JigyosyoCd=0465390193-00&ServiceCd=130&Type=search" }, "geometry": { "type": "Point", "coordinates": [ 140.919050500000054, 38.2294735 ] } },
{ "type": "Feature", "properties": { "内容": "公益社団法人　宮城県看護協会　若林訪問看護ステーション【訪問看護】宮城県仙台市若林区荒井八丁目７番地の４", "url2": "https://www.kaigokensaku.mhlw.go.jp/04/index.php?action_kouhyou_detail_004_kani=true&JigyosyoCd=0465390011-00&ServiceCd=130&Type=search" }, "geometry": { "type": "Point", "coordinates": [ 140.948626773432949, 38.235524585858762 ] } },
{ "type": "Feature", "properties": { "内容": "メディカルライブラリ仙台東訪問看護事業所【訪問看護】宮城県仙台市若林区六丁の目中町1-80", "url2": "https://www.kaigokensaku.mhlw.go.jp/04/index.php?action_kouhyou_detail_004_kani=true&JigyosyoCd=0465390300-00&ServiceCd=130&Type=search" }, "geometry": { "type": "Point", "coordinates": [ 140.9368029, 38.2517267 ] } },
{ "type": "Feature", "properties": { "内容": "ひなた訪問看護ステーション【訪問看護】宮城県仙台市若林区沖野1丁目10-15パルクロゼット7番館101", "url2": "https://www.kaigokensaku.mhlw.go.jp/04/index.php?action_kouhyou_detail_004_kani=true&JigyosyoCd=0475302907-00&ServiceCd=130&Type=search" }, "geometry": { "type": "Point", "coordinates": [ 140.914035, 38.2325544 ] } },
{ "type": "Feature", "properties": { "内容": "訪問看護ステーション　リヤンド仙台【訪問看護】宮城県仙台市太白区四郎丸字落合20－8リヤンド-絆-　仙台太白", "url2": "https://www.kaigokensaku.mhlw.go.jp/04/index.php?action_kouhyou_detail_004_kani=true&JigyosyoCd=0465490431-00&ServiceCd=130&Type=search" }, "geometry": { "type": "Point", "coordinates": [ 140.922153900000012, 38.1966479 ] } },
{ "type": "Feature", "properties": { "内容": "ケヤキ訪問看護ステーション【訪問看護】宮城県仙台市太白区柳生2丁目２６－１９", "url2": "https://www.kaigokensaku.mhlw.go.jp/04/index.php?action_kouhyou_detail_004_kani=true&JigyosyoCd=0465490282-00&ServiceCd=130&Type=search" }, "geometry": { "type": "Point", "coordinates": [ 140.8724231, 38.1959378 ] } },
{ "type": "Feature", "properties": { "内容": "訪問看護ステーション　ゆうえん【訪問看護】宮城県仙台市太白区柳生4丁目2-2佐藤ハイツ201", "url2": "https://www.kaigokensaku.mhlw.go.jp/04/index.php?action_kouhyou_detail_004_kani=true&JigyosyoCd=0465490217-00&ServiceCd=130&Type=search" }, "geometry": { "type": "Point", "coordinates": [ 140.869872, 38.1961169 ] } },
{ "type": "Feature", "properties": { "内容": "訪問看護ステーションあやめ仙台太白【訪問看護】宮城県仙台市太白区上野山１丁目2番1号メゾン望洋　101号室", "url2": "https://www.kaigokensaku.mhlw.go.jp/04/index.php?action_kouhyou_detail_004_kani=true&JigyosyoCd=0465490480-00&ServiceCd=130&Type=search" }, "geometry": { "type": "Point", "coordinates": [ 140.833066699999989, 38.223364 ] } },
{ "type": "Feature", "properties": { "内容": "とこはな訪問看護ステーション【訪問看護】宮城県仙台市太白区柳生3丁目3-6-1", "url2": "https://www.kaigokensaku.mhlw.go.jp/04/index.php?action_kouhyou_detail_004_kani=true&JigyosyoCd=0465490415-00&ServiceCd=130&Type=search" }, "geometry": { "type": "Point", "coordinates": [ 140.872495039286775, 38.190752024630463 ] } },
{ "type": "Feature", "properties": { "内容": "こころサポート太白訪問看護ステーション【訪問看護】宮城県仙台市太白区大野田四丁目６番地の１リバーサイド三樹1号館204号", "url2": "https://www.kaigokensaku.mhlw.go.jp/04/index.php?action_kouhyou_detail_004_kani=true&JigyosyoCd=0465490134-00&ServiceCd=130&Type=search" }, "geometry": { "type": "Point", "coordinates": [ 140.876952291550765, 38.212658956083757 ] } },
{ "type": "Feature", "properties": { "内容": "訪問看護ステーション　ポラーノの椅子【訪問看護】宮城県仙台市太白区山田北前町44-12", "url2": "https://www.kaigokensaku.mhlw.go.jp/04/index.php?action_kouhyou_detail_004_kani=true&JigyosyoCd=0465490464-00&ServiceCd=130&Type=search" }, "geometry": { "type": "Point", "coordinates": [ 140.8258755, 38.222551 ] } },
{ "type": "Feature", "properties": { "内容": "JCI訪問看護ステーション【訪問看護】宮城県仙台市太白区郡山8丁目2-24カラーパレットⅡ", "url2": "https://www.kaigokensaku.mhlw.go.jp/04/index.php?action_kouhyou_detail_004_kani=true&JigyosyoCd=0465490126-00&ServiceCd=130&Type=search" }, "geometry": { "type": "Point", "coordinates": [ 140.887619699999959, 38.2134406 ] } },
{ "type": "Feature", "properties": { "内容": "訪問看護ステーションわざケア【訪問看護】宮城県仙台市太白区富田字上野西16-6小島興産事務所　2階", "url2": "https://www.kaigokensaku.mhlw.go.jp/04/index.php?action_kouhyou_detail_004_kani=true&JigyosyoCd=0465490142-00&ServiceCd=130&Type=search" }, "geometry": { "type": "Point", "coordinates": [ 140.845835378573582, 38.213898906840392 ] } },
{ "type": "Feature", "properties": { "内容": "西中田訪問看護ステーション【訪問看護】宮城県仙台市太白区西中田２丁目１９－５", "url2": "https://www.kaigokensaku.mhlw.go.jp/04/index.php?action_kouhyou_detail_004_kani=true&JigyosyoCd=0465490019-00&ServiceCd=130&Type=search" }, "geometry": { "type": "Point", "coordinates": [ 140.8785236, 38.2028833 ] } },
{ "type": "Feature", "properties": { "内容": "エムツー訪問看護ステーション仙台長町【訪問看護】宮城県仙台市太白区泉崎1-33-20", "url2": "https://www.kaigokensaku.mhlw.go.jp/04/index.php?action_kouhyou_detail_004_kani=true&JigyosyoCd=0465490233-00&ServiceCd=130&Type=search" }, "geometry": { "type": "Point", "coordinates": [ 140.867797225725184, 38.219427932255321 ] } },
{ "type": "Feature", "properties": { "内容": "ツクイ仙台訪問看護ステーション【訪問看護】宮城県仙台市太白区泉崎二丁目25番15号早川ビル205号室", "url2": "https://www.kaigokensaku.mhlw.go.jp/04/index.php?action_kouhyou_detail_004_kani=true&JigyosyoCd=0465490407-00&ServiceCd=130&Type=search" }, "geometry": { "type": "Point", "coordinates": [ 140.869978881387169, 38.219757040377985 ] } },
{ "type": "Feature", "properties": { "内容": "ないとうクリニック訪問看護ステーション【訪問看護】宮城県仙台市太白区茂庭台3丁目30番30号ないとうクリニック複合サービスセンター", "url2": "https://www.kaigokensaku.mhlw.go.jp/04/index.php?action_kouhyou_detail_004_kani=true&JigyosyoCd=0465490225-00&ServiceCd=130&Type=search" }, "geometry": { "type": "Point", "coordinates": [ 140.789892347360279, 38.239528474601634 ] } },
{ "type": "Feature", "properties": { "内容": "めぐみケア訪問看護リハビリステーション【訪問看護】宮城県仙台市太白区長町南3-15-7グローリーハイツNO.3　202", "url2": "https://www.kaigokensaku.mhlw.go.jp/04/index.php?action_kouhyou_detail_004_kani=true&JigyosyoCd=0465490258-00&ServiceCd=130&Type=search" }, "geometry": { "type": "Point", "coordinates": [ 140.878094430827332, 38.221700899847377 ] } },
{ "type": "Feature", "properties": { "内容": "医療法人松田会　八木山訪問看護ステーション【訪問看護】宮城県仙台市太白区向山2丁目11-36　1階", "url2": "https://www.kaigokensaku.mhlw.go.jp/04/index.php?action_kouhyou_detail_004_kani=true&JigyosyoCd=0465490316-00&ServiceCd=130&Type=search" }, "geometry": { "type": "Point", "coordinates": [ 140.865512399999943, 38.245909 ] } },
{ "type": "Feature", "properties": { "内容": "公益財団法人宮城厚生協会ケアステーションながまち【訪問看護】宮城県仙台市太白区長町3丁目7-26長町病院北棟２階", "url2": "https://www.kaigokensaku.mhlw.go.jp/04/index.php?action_kouhyou_detail_004_kani=true&JigyosyoCd=0465490043-00&ServiceCd=130&Type=search" }, "geometry": { "type": "Point", "coordinates": [ 140.883889669836435, 38.229728606806447 ] } },
{ "type": "Feature", "properties": { "内容": "公益財団法人　宮城厚生協会　ケアステーション郡山【訪問看護】宮城県仙台市太白区郡山７丁目16-8", "url2": "https://www.kaigokensaku.mhlw.go.jp/04/index.php?action_kouhyou_detail_004_kani=true&JigyosyoCd=0465490027-00&ServiceCd=130&Type=search" }, "geometry": { "type": "Point", "coordinates": [ 140.889439, 38.2142072 ] } },
{ "type": "Feature", "properties": { "内容": "訪問看護ステーション　ノテ富沢【訪問看護】宮城県仙台市太白区富沢西3丁目10番地の1", "url2": "https://www.kaigokensaku.mhlw.go.jp/04/index.php?action_kouhyou_detail_004_kani=true&JigyosyoCd=0465490332-00&ServiceCd=130&Type=search" }, "geometry": { "type": "Point", "coordinates": [ 140.855389516007989, 38.209321683600031 ] } },
{ "type": "Feature", "properties": { "内容": "ナースウェル仙台訪問看護【訪問看護】宮城県仙台市太白区中田字東60-25サービス付き高齢者向け賃貸住宅　ココロハウス仙台中田", "url2": "https://www.kaigokensaku.mhlw.go.jp/04/index.php?action_kouhyou_detail_004_kani=true&JigyosyoCd=0465490357-00&ServiceCd=130&Type=search" }, "geometry": { "type": "Point", "coordinates": [ 140.901918853303528, 38.191654440028358 ] } },
{ "type": "Feature", "properties": { "内容": "訪問看護ステーションカモミール【訪問看護】仙台市太白区長町南2-6-5-301ヴァンヴェール長町南　301号", "url2": "https://www.kaigokensaku.mhlw.go.jp/04/index.php?action_kouhyou_detail_004_kani=true&JigyosyoCd=0465490209-00&ServiceCd=130&Type=search" }, "geometry": { "type": "Point", "coordinates": [ 140.874854539858262, 38.213821571358793 ] } },
{ "type": "Feature", "properties": { "内容": "訪問看護ステーション　葵会仙台【訪問看護】宮城県仙台市太白区柳生字台５７番地の1介護老人保健施設　葵の園・柳生", "url2": "https://www.kaigokensaku.mhlw.go.jp/04/index.php?action_kouhyou_detail_004_kani=true&JigyosyoCd=0465490183-00&ServiceCd=130&Type=search" }, "geometry": { "type": "Point", "coordinates": [ 140.874579600000061, 38.2012666 ] } },
{ "type": "Feature", "properties": { "内容": "こ～ぷのお家緑ヶ丘訪問看護ステーション【訪問看護】宮城県仙台市太白区大塒町3-1こ～ぷのお家緑ヶ丘", "url2": "https://www.kaigokensaku.mhlw.go.jp/04/index.php?action_kouhyou_detail_004_kani=true&JigyosyoCd=0465490175-00&ServiceCd=130&Type=search" }, "geometry": { "type": "Point", "coordinates": [ 140.861224200000038, 38.234563 ] } },
{ "type": "Feature", "properties": { "内容": "ＳＯＭＰＯケア　愛宕　訪問看護【訪問看護】越路9番15号", "url2": "https://www.kaigokensaku.mhlw.go.jp/04/index.php?action_kouhyou_detail_004_kani=true&JigyosyoCd=0465490472-00&ServiceCd=130&Type=search" }, "geometry": { "type": "Point", "coordinates": [ 140.878584499999988, 38.2451732 ] } },
{ "type": "Feature", "properties": { "内容": "在宅リハビリ看護ステーションつばさ南仙台【訪問看護】宮城県仙台市太白区柳生4丁目15-9", "url2": "https://www.kaigokensaku.mhlw.go.jp/04/index.php?action_kouhyou_detail_004_kani=true&JigyosyoCd=0465490340-00&ServiceCd=130&Type=search" }, "geometry": { "type": "Point", "coordinates": [ 140.8651615, 38.1943364 ] } },
{ "type": "Feature", "properties": { "内容": "セントケア訪問看護ステーション仙台太白【訪問看護】宮城県仙台市太白区山田新町72番地", "url2": "https://www.kaigokensaku.mhlw.go.jp/04/index.php?action_kouhyou_detail_004_kani=true&JigyosyoCd=0465490324-00&ServiceCd=130&Type=search" }, "geometry": { "type": "Point", "coordinates": [ 140.8345938, 38.2177337 ] } },
{ "type": "Feature", "properties": { "内容": "訪問看護ステーションABCリビング仙台【訪問看護】宮城県仙台市太白区長町七丁目13番17号クレスト長町南102号室", "url2": "https://www.kaigokensaku.mhlw.go.jp/04/index.php?action_kouhyou_detail_004_kani=true&JigyosyoCd=0465490522-00&ServiceCd=130&Type=search" }, "geometry": { "type": "Point", "coordinates": [ 140.879656400000016, 38.2259072 ] } },
{ "type": "Feature", "properties": { "内容": "ハーモニー訪問看護リハビリステーション【訪問看護】宮城県仙台市太白区長町南3-13-19パーシモン長町202", "url2": "https://www.kaigokensaku.mhlw.go.jp/04/index.php?action_kouhyou_detail_004_kani=true&JigyosyoCd=0465490506-00&ServiceCd=130&Type=search" }, "geometry": { "type": "Point", "coordinates": [ 140.874913, 38.2216736 ] } },
{ "type": "Feature", "properties": { "内容": "グリーンライフ仙台　訪問看護ステーション【訪問看護】宮城県仙台市太白区あすと長町1-3-1ＳＨＩＰ仙台ビル2階", "url2": "https://www.kaigokensaku.mhlw.go.jp/04/index.php?action_kouhyou_detail_004_kani=true&JigyosyoCd=0465490498-00&ServiceCd=130&Type=search" }, "geometry": { "type": "Point", "coordinates": [ 140.8892167, 38.230518 ] } },
{ "type": "Feature", "properties": { "内容": "はるかぜ訪問看護ステーション【訪問看護】宮城県仙台市太白区八木山香澄町25", "url2": "https://www.kaigokensaku.mhlw.go.jp/04/index.php?action_kouhyou_detail_004_kani=true&JigyosyoCd=0465490514-00&ServiceCd=130&Type=search" }, "geometry": { "type": "Point", "coordinates": [ 140.8571335, 38.2459515 ] } },
{ "type": "Feature", "properties": { "内容": "訪問看護ステーション夢眠せんだいにし２【訪問看護】宮城県仙台市太白区青山二丁目33番23号", "url2": "https://www.kaigokensaku.mhlw.go.jp/04/index.php?action_kouhyou_detail_004_kani=true&JigyosyoCd=0465490530-00&ServiceCd=130&Type=search" }, "geometry": { "type": "Point", "coordinates": [ 140.8609385, 38.239516400000035 ] } },
{ "type": "Feature", "properties": { "内容": "独立行政法人地域医療機能推進機構仙台南病院附属訪問看護ステーション【訪問看護】宮城県仙台市太白区中田町字前沖143番地独立行政法人地域医療機能推進機構仙台南病院附属介護老人保健施設内", "url2": "https://www.kaigokensaku.mhlw.go.jp/04/index.php?action_kouhyou_detail_004_kani=true&JigyosyoCd=0465490449-00&ServiceCd=130&Type=search" }, "geometry": { "type": "Point", "coordinates": [ 140.898883957533286, 38.19059793562775 ] } },
{ "type": "Feature", "properties": { "内容": "袋原訪問看護ステーション【訪問看護】宮城県仙台市太白区袋原3-1-31", "url2": "https://www.kaigokensaku.mhlw.go.jp/04/index.php?action_kouhyou_detail_004_kani=true&JigyosyoCd=0465490118-00&ServiceCd=130&Type=search" }, "geometry": { "type": "Point", "coordinates": [ 140.908926178380682, 38.203714663737841 ] } },
{ "type": "Feature", "properties": { "内容": "ふたば訪問看護ステーション【訪問看護】泉中央3丁目9-2グランディア泉中央303", "url2": "https://www.kaigokensaku.mhlw.go.jp/04/index.php?action_kouhyou_detail_004_kani=true&JigyosyoCd=0475504478-00&ServiceCd=130&Type=search" }, "geometry": { "type": "Point", "coordinates": [ 140.8838302, 38.3252334 ] } },
{ "type": "Feature", "properties": { "内容": "訪問看護ステーションいずみの杜【訪問看護】宮城県仙台市泉区松森字下町８番地の１", "url2": "https://www.kaigokensaku.mhlw.go.jp/04/index.php?action_kouhyou_detail_004_kani=true&JigyosyoCd=0465590370-00&ServiceCd=130&Type=search" }, "geometry": { "type": "Point", "coordinates": [ 140.914474122719184, 38.316515475743678 ] } },
{ "type": "Feature", "properties": { "内容": "医療法人松田会泉訪問看護ステーション【訪問看護】宮城県仙台市泉区泉中央1-39-1", "url2": "https://www.kaigokensaku.mhlw.go.jp/04/index.php?action_kouhyou_detail_004_kani=true&JigyosyoCd=0465590420-00&ServiceCd=130&Type=search" }, "geometry": { "type": "Point", "coordinates": [ 140.874783900000011, 38.3243329 ] } },
{ "type": "Feature", "properties": { "内容": "オープン訪問看護ステーション【訪問看護】宮城県仙台市泉区南光台２丁目１４－４４", "url2": "https://www.kaigokensaku.mhlw.go.jp/04/index.php?action_kouhyou_detail_004_kani=true&JigyosyoCd=0465590354-00&ServiceCd=130&Type=search" }, "geometry": { "type": "Point", "coordinates": [ 140.8939599, 38.2941881 ] } },
{ "type": "Feature", "properties": { "内容": "訪問看護ステーションもりのとびら【訪問看護】宮城県仙台市泉区南光台東1丁目2-26南光台ビル201", "url2": "https://www.kaigokensaku.mhlw.go.jp/04/index.php?action_kouhyou_detail_004_kani=true&JigyosyoCd=0465590271-00&ServiceCd=130&Type=search" }, "geometry": { "type": "Point", "coordinates": [ 140.904669, 38.2973828 ] } },
{ "type": "Feature", "properties": { "内容": "SOMPOケア　仙台泉【訪問看護】宮城県仙台市泉区松森字鹿島53-9", "url2": "https://www.kaigokensaku.mhlw.go.jp/04/index.php?action_kouhyou_detail_004_kani=true&JigyosyoCd=0465590263-00&ServiceCd=130&Type=search" }, "geometry": { "type": "Point", "coordinates": [ 140.909337300000061, 38.3181911 ] } },
{ "type": "Feature", "properties": { "内容": "医療法人　松田会　松田訪問看護ステーション【訪問看護】宮城県仙台市泉区実沢立田屋敷17-1", "url2": "https://www.kaigokensaku.mhlw.go.jp/04/index.php?action_kouhyou_detail_004_kani=true&JigyosyoCd=0465590024-00&ServiceCd=130&Type=search" }, "geometry": { "type": "Point", "coordinates": [ 140.838643645806769, 38.334226971279016 ] } },
{ "type": "Feature", "properties": { "内容": "医療法人　松田会　寺岡訪問看護ステーション【訪問看護】宮城県仙台市泉区寺岡5丁目8-2寺岡クリニック", "url2": "https://www.kaigokensaku.mhlw.go.jp/04/index.php?action_kouhyou_detail_004_kani=true&JigyosyoCd=0465590255-00&ServiceCd=130&Type=search" }, "geometry": { "type": "Point", "coordinates": [ 140.827202599999964, 38.3435103 ] } },
{ "type": "Feature", "properties": { "内容": "ナーシングホームいずみ訪問看護ステーション【訪問看護】宮城県仙台市泉区西田中萱場中31", "url2": "https://www.kaigokensaku.mhlw.go.jp/04/index.php?action_kouhyou_detail_004_kani=true&JigyosyoCd=0465590347-00&ServiceCd=130&Type=search" }, "geometry": { "type": "Point", "coordinates": [ 140.787831372700026, 38.324459644340969 ] } },
{ "type": "Feature", "properties": { "内容": "セントケア訪問看護ステーション南中山【訪問看護】宮城県仙台市泉区南中山2-25-22F", "url2": "https://www.kaigokensaku.mhlw.go.jp/04/index.php?action_kouhyou_detail_004_kani=true&JigyosyoCd=0465590313-00&ServiceCd=130&Type=search" }, "geometry": { "type": "Point", "coordinates": [ 140.826038099999977, 38.3077883 ] } },
{ "type": "Feature", "properties": { "内容": "セントケア訪問看護ステーション仙台【訪問看護】宮城県仙台市泉区みずほ台10-4ロ-ジェみずほ台107号", "url2": "https://www.kaigokensaku.mhlw.go.jp/04/index.php?action_kouhyou_detail_004_kani=true&JigyosyoCd=0465590115-00&ServiceCd=130&Type=search" }, "geometry": { "type": "Point", "coordinates": [ 140.877776400000016, 38.3123522 ] } },
{ "type": "Feature", "properties": { "内容": "SOMPOケア泉中央訪問看護【訪問看護】宮城県仙台市泉区泉中央4丁目14番地の5", "url2": "https://www.kaigokensaku.mhlw.go.jp/04/index.php?action_kouhyou_detail_004_kani=true&JigyosyoCd=0465590404-00&ServiceCd=130&Type=search" }, "geometry": { "type": "Point", "coordinates": [ 140.883994, 38.3200156 ] } },
{ "type": "Feature", "properties": { "内容": "ポンテ訪問看護ステーション【訪問看護】宮城県仙台市泉区加茂１丁目２８−２", "url2": "https://www.kaigokensaku.mhlw.go.jp/04/index.php?action_kouhyou_detail_004_kani=true&JigyosyoCd=0465590362-00&ServiceCd=130&Type=search" }, "geometry": { "type": "Point", "coordinates": [ 140.862487499999986, 38.3116613 ] } },
{ "type": "Feature", "properties": { "内容": "公益財団法人宮城厚生協会　ケアステーションいずみ【訪問看護】宮城県仙台市泉区加茂五丁目３２番地の４", "url2": "https://www.kaigokensaku.mhlw.go.jp/04/index.php?action_kouhyou_detail_004_kani=true&JigyosyoCd=0465590016-00&ServiceCd=130&Type=search" }, "geometry": { "type": "Point", "coordinates": [ 140.846060452671679, 38.319808874442025 ] } },
{ "type": "Feature", "properties": { "内容": "きらら訪問看護リハビリステーション【訪問看護】仙台市泉区七北田字朴木沢93-3ヴィラIZUMIセントラル602", "url2": "https://www.kaigokensaku.mhlw.go.jp/04/index.php?action_kouhyou_detail_004_kani=true&JigyosyoCd=0465590289-00&ServiceCd=130&Type=search" }, "geometry": { "type": "Point", "coordinates": [ 140.876099422615056, 38.32494153821235 ] } },
{ "type": "Feature", "properties": { "内容": "コトノハ訪問看護ステーション【訪問看護】宮城県仙台市泉区松陵3丁目40-4", "url2": "https://www.kaigokensaku.mhlw.go.jp/04/index.php?action_kouhyou_detail_004_kani=true&JigyosyoCd=0465590297-00&ServiceCd=130&Type=search" }, "geometry": { "type": "Point", "coordinates": [ 140.9064184, 38.3317639 ] } },
{ "type": "Feature", "properties": { "内容": "株式会社絆訪問看護ステーション【訪問看護】宮城県仙台市泉区上谷刈3丁目7-14カヤバプラザＡ館102", "url2": "https://www.kaigokensaku.mhlw.go.jp/04/index.php?action_kouhyou_detail_004_kani=true&JigyosyoCd=0465590198-00&ServiceCd=130&Type=search" }, "geometry": { "type": "Point", "coordinates": [ 140.869545703944596, 38.319081112823376 ] } },
{ "type": "Feature", "properties": { "内容": "訪問看護・リハビリステーション虹【訪問看護】宮城県仙台市泉区上谷刈3-2-1ﾋﾞｭｰｼﾃｨ泉Ⅰ101", "url2": "https://www.kaigokensaku.mhlw.go.jp/04/index.php?action_kouhyou_detail_004_kani=true&JigyosyoCd=0465590206-00&ServiceCd=130&Type=search" }, "geometry": { "type": "Point", "coordinates": [ 140.870152500000017, 38.3170592 ] } },
{ "type": "Feature", "properties": { "内容": "医療法人徳洲会　訪問看護ステーションひなた【訪問看護】宮城県仙台市泉区高玉町9-8", "url2": "https://www.kaigokensaku.mhlw.go.jp/04/index.php?action_kouhyou_detail_004_kani=true&JigyosyoCd=0465590230-00&ServiceCd=130&Type=search" }, "geometry": { "type": "Point", "coordinates": [ 140.8949054, 38.316393300000016 ] } },
{ "type": "Feature", "properties": { "内容": "訪問看護ステーション和来せんだい【訪問看護】宮城県仙台市泉区南中山2丁目25−1156南中山マンション103号", "url2": "https://www.kaigokensaku.mhlw.go.jp/04/index.php?action_kouhyou_detail_004_kani=true&JigyosyoCd=0465590438-00&ServiceCd=130&Type=search" }, "geometry": { "type": "Point", "coordinates": [ 140.8259942, 38.3079809 ] } },
{ "type": "Feature", "properties": { "内容": "エムツー訪問看護ステーション泉【訪問看護】宮城県仙台市泉区市名坂字町34番６Mステイブル", "url2": "https://www.kaigokensaku.mhlw.go.jp/04/index.php?action_kouhyou_detail_004_kani=true&JigyosyoCd=0465590248-00&ServiceCd=130&Type=search" }, "geometry": { "type": "Point", "coordinates": [ 140.88468720000003, 38.3144627 ] } },
{ "type": "Feature", "properties": { "内容": "さんすい訪問看護ステーション泉【訪問看護】仙台市泉区南光台南１丁目２５－１Blessing高盛２０２", "url2": "https://www.kaigokensaku.mhlw.go.jp/04/index.php?action_kouhyou_detail_004_kani=true&JigyosyoCd=0465590412-00&ServiceCd=130&Type=search" }, "geometry": { "type": "Point", "coordinates": [ 140.899133363788991, 38.295101823613685 ] } },
{ "type": "Feature", "properties": { "内容": "齋藤病院【訪問看護】宮城県石巻市山下町1丁目7-24", "url2": "https://www.kaigokensaku.mhlw.go.jp/04/index.php?action_kouhyou_detail_004_kani=true&JigyosyoCd=0410211320-00&ServiceCd=130&Type=search" }, "geometry": { "type": "Point", "coordinates": [ 141.2936426, 38.4327134 ] } },
{ "type": "Feature", "properties": { "内容": "セントケア訪問看護ステーション石巻あけぼの【訪問看護】宮城県石巻市茜平二丁目1番地7", "url2": "https://www.kaigokensaku.mhlw.go.jp/04/index.php?action_kouhyou_detail_004_kani=true&JigyosyoCd=0460290174-00&ServiceCd=130&Type=search" }, "geometry": { "type": "Point", "coordinates": [ 141.266443799999934, 38.4513328 ] } },
{ "type": "Feature", "properties": { "内容": "医療法人社団　健育会　ひまわり訪問看護ステーション【訪問看護】宮城県石巻市大街道西3丁目1-28", "url2": "https://www.kaigokensaku.mhlw.go.jp/04/index.php?action_kouhyou_detail_004_kani=true&JigyosyoCd=0460290026-00&ServiceCd=130&Type=search" }, "geometry": { "type": "Point", "coordinates": [ 141.27134908703303, 38.430609886333677 ] } },
{ "type": "Feature", "properties": { "内容": "ぷりけあ訪問看護ステーション【訪問看護】宮城県石巻市蛇田字南久林１４－３ユニバーサルⅠー１０２", "url2": "https://www.kaigokensaku.mhlw.go.jp/04/index.php?action_kouhyou_detail_004_kani=true&JigyosyoCd=0460290166-00&ServiceCd=130&Type=search" }, "geometry": { "type": "Point", "coordinates": [ 141.261110199999962, 38.4546563 ] } },
{ "type": "Feature", "properties": { "内容": "祐訪問看護ステーション石巻【訪問看護】宮城県石巻市大橋三丁目10番地4", "url2": "https://www.kaigokensaku.mhlw.go.jp/04/index.php?action_kouhyou_detail_004_kani=true&JigyosyoCd=0460290216-00&ServiceCd=130&Type=search" }, "geometry": { "type": "Point", "coordinates": [ 141.310946, 38.443018 ] } },
{ "type": "Feature", "properties": { "内容": "訪問看護ステーション「愛さんさん　石巻」【訪問看護】宮城県石巻市立町2丁目6番12号", "url2": "https://www.kaigokensaku.mhlw.go.jp/04/index.php?action_kouhyou_detail_004_kani=true&JigyosyoCd=0470203126-00&ServiceCd=130&Type=search" }, "geometry": { "type": "Point", "coordinates": [ 141.303622599999983, 38.4326012 ] } },
{ "type": "Feature", "properties": { "内容": "仁明会訪問看護ステーション青葉【訪問看護】宮城県石巻市門脇字一番谷地５７－１8", "url2": "https://www.kaigokensaku.mhlw.go.jp/04/index.php?action_kouhyou_detail_004_kani=true&JigyosyoCd=0460290059-00&ServiceCd=130&Type=search" }, "geometry": { "type": "Point", "coordinates": [ 141.263246625795006, 38.433630779617545 ] } },
{ "type": "Feature", "properties": { "内容": "医療法人　啓仁会　訪問看護ステーションふかや【訪問看護】宮城県石巻市広渕字焼巻２番地", "url2": "https://www.kaigokensaku.mhlw.go.jp/04/index.php?action_kouhyou_detail_004_kani=true&JigyosyoCd=0460290109-00&ServiceCd=130&Type=search" }, "geometry": { "type": "Point", "coordinates": [ 141.213597971163949, 38.47129500532975 ] } },
{ "type": "Feature", "properties": { "内容": "訪問看護ステーションこだま【訪問看護】宮城県石巻市泉町三丁目１０番４０号", "url2": "https://www.kaigokensaku.mhlw.go.jp/04/index.php?action_kouhyou_detail_004_kani=true&JigyosyoCd=0460290091-00&ServiceCd=130&Type=search" }, "geometry": { "type": "Point", "coordinates": [ 141.292903900000027, 38.4291442 ] } },
{ "type": "Feature", "properties": { "内容": "訪問看護ステーション　火の鳥【訪問看護】宮城県石巻市小船越字堤下66番地", "url2": "https://www.kaigokensaku.mhlw.go.jp/04/index.php?action_kouhyou_detail_004_kani=true&JigyosyoCd=0470203118-00&ServiceCd=130&Type=search" }, "geometry": { "type": "Point", "coordinates": [ 141.2822765, 38.4933316 ] } },
{ "type": "Feature", "properties": { "内容": "公益財団法人宮城厚生協会ケアステーションしおかぜ【訪問看護】塩釜市字庚塚1-3", "url2": "https://www.kaigokensaku.mhlw.go.jp/04/index.php?action_kouhyou_detail_004_kani=true&JigyosyoCd=0460390016-00&ServiceCd=130&Type=search" }, "geometry": { "type": "Point", "coordinates": [ 141.017060099999981, 38.3298381 ] } },
{ "type": "Feature", "properties": { "内容": "塩釜医師会訪問看護ステーション【訪問看護】宮城県塩釜市錦町7番10号", "url2": "https://www.kaigokensaku.mhlw.go.jp/04/index.php?action_kouhyou_detail_004_kani=true&JigyosyoCd=0460390024-00&ServiceCd=130&Type=search" }, "geometry": { "type": "Point", "coordinates": [ 141.018861199999947, 38.3091184 ] } },
{ "type": "Feature", "properties": { "内容": "塩竈市立病院【訪問看護】宮城県塩竈市香津町7-1", "url2": "https://www.kaigokensaku.mhlw.go.jp/04/index.php?action_kouhyou_detail_004_kani=true&JigyosyoCd=0410310023-00&ServiceCd=130&Type=search" }, "geometry": { "type": "Point", "coordinates": [ 141.014756, 38.3112152 ] } },
{ "type": "Feature", "properties": { "内容": "ひばり訪問看護ステーション塩釜【訪問看護】字伊保石2-441シャーメゾンヴューコーストD201", "url2": "https://www.kaigokensaku.mhlw.go.jp/04/index.php?action_kouhyou_detail_004_kani=true&JigyosyoCd=0460390065-00&ServiceCd=130&Type=search" }, "geometry": { "type": "Point", "coordinates": [ 141.0177827, 38.3383475 ] } },
{ "type": "Feature", "properties": { "内容": "ｹｱﾋﾞﾚｯｼﾞ塩竈ｹｱｻﾋﾞｽｽﾃｰｼｮﾝ訪問看護事業所【訪問看護】宮城県塩竈市清水沢4丁目39－1ｻｰﾋﾞｽ付き高齢者向け住宅　リツワしおがま", "url2": "https://www.kaigokensaku.mhlw.go.jp/04/index.php?action_kouhyou_detail_004_kani=true&JigyosyoCd=0460390057-00&ServiceCd=130&Type=search" }, "geometry": { "type": "Point", "coordinates": [ 141.007182899999947, 38.3346011 ] } },
{ "type": "Feature", "properties": { "内容": "悠泉訪問看護事業所【訪問看護】宮城県塩竈市新浜町2丁目1番3号悠泉の郷", "url2": "https://www.kaigokensaku.mhlw.go.jp/04/index.php?action_kouhyou_detail_004_kani=true&JigyosyoCd=0460390032-00&ServiceCd=130&Type=search" }, "geometry": { "type": "Point", "coordinates": [ 141.036341799999946, 38.3280334 ] } },
{ "type": "Feature", "properties": { "内容": "気仙沼訪問看護ステーション【訪問看護】宮城県気仙沼市赤岩港321-1", "url2": "https://www.kaigokensaku.mhlw.go.jp/04/index.php?action_kouhyou_detail_004_kani=true&JigyosyoCd=0460590052-00&ServiceCd=130&Type=search" }, "geometry": { "type": "Point", "coordinates": [ 141.577941073016348, 38.88550271081224 ] } },
{ "type": "Feature", "properties": { "内容": "気仙沼市立病院附属本吉医院【訪問看護】宮城県気仙沼市本吉町津谷明戸222番地2", "url2": "https://www.kaigokensaku.mhlw.go.jp/04/index.php?action_kouhyou_detail_004_kani=true&JigyosyoCd=0410511083-00&ServiceCd=130&Type=search" }, "geometry": { "type": "Point", "coordinates": [ 141.5019807, 38.7880064 ] } },
{ "type": "Feature", "properties": { "内容": "訪問看護ステーション春圃【訪問看護】宮城県気仙沼市舘山一丁目1番43号-", "url2": "https://www.kaigokensaku.mhlw.go.jp/04/index.php?action_kouhyou_detail_004_kani=true&JigyosyoCd=0460590037-00&ServiceCd=130&Type=search" }, "geometry": { "type": "Point", "coordinates": [ 141.55996663342134, 38.902921453450887 ] } },
{ "type": "Feature", "properties": { "内容": "リハ特化型訪問看護ステーションさんぽ気仙沼【訪問看護】宮城県気仙沼市四反田23番11", "url2": "https://www.kaigokensaku.mhlw.go.jp/04/index.php?action_kouhyou_detail_004_kani=true&JigyosyoCd=0460590060-00&ServiceCd=130&Type=search" }, "geometry": { "type": "Point", "coordinates": [ 141.5549122, 38.9010154 ] } },
{ "type": "Feature", "properties": { "内容": "プラチナ訪問看護ステーション【訪問看護】宮城県白石市旭町１丁目８ー４０－３", "url2": "https://www.kaigokensaku.mhlw.go.jp/04/index.php?action_kouhyou_detail_004_kani=true&JigyosyoCd=0460690035-00&ServiceCd=130&Type=search" }, "geometry": { "type": "Point", "coordinates": [ 140.6314243, 37.9939996 ] } },
{ "type": "Feature", "properties": { "内容": "訪問看護ステーションリズム白石蔵王【訪問看護】宮城県白石市鷹巣三丁目８番１号", "url2": "https://www.kaigokensaku.mhlw.go.jp/04/index.php?action_kouhyou_detail_004_kani=true&JigyosyoCd=0470600586-00&ServiceCd=130&Type=search" }, "geometry": { "type": "Point", "coordinates": [ 140.639687399999957, 37.9971652 ] } },
{ "type": "Feature", "properties": { "内容": "訪問看護ステーションしろいし【訪問看護】宮城県白石市郡山字観音崎48番地13", "url2": "https://www.kaigokensaku.mhlw.go.jp/04/index.php?action_kouhyou_detail_004_kani=true&JigyosyoCd=0460690043-00&ServiceCd=130&Type=search" }, "geometry": { "type": "Point", "coordinates": [ 140.634434542327853, 38.009749420029962 ] } },
{ "type": "Feature", "properties": { "内容": "あすなろ訪問看護ステーション【訪問看護】宮城県名取市増田字柳田8－3", "url2": "https://www.kaigokensaku.mhlw.go.jp/04/index.php?action_kouhyou_detail_004_kani=true&JigyosyoCd=0460790025-00&ServiceCd=130&Type=search" }, "geometry": { "type": "Point", "coordinates": [ 140.8936519, 38.1725922 ] } },
{ "type": "Feature", "properties": { "内容": "エムツー訪問看護ステーションらふる名取【訪問看護】宮城県名取市増田7丁目3-23マイタウン名取A12-1", "url2": "https://www.kaigokensaku.mhlw.go.jp/04/index.php?action_kouhyou_detail_004_kani=true&JigyosyoCd=0460790132-00&ServiceCd=130&Type=search" }, "geometry": { "type": "Point", "coordinates": [ 140.8871232, 38.1794736 ] } },
{ "type": "Feature", "properties": { "内容": "訪問看護ステーションあかり【訪問看護】宮城県名取市手倉田字堰根356", "url2": "https://www.kaigokensaku.mhlw.go.jp/04/index.php?action_kouhyou_detail_004_kani=true&JigyosyoCd=0460790124-00&ServiceCd=130&Type=search" }, "geometry": { "type": "Point", "coordinates": [ 140.873325599999987, 38.1728751 ] } },
{ "type": "Feature", "properties": { "内容": "リニエ訪問看護ステーション名取【訪問看護】宮城県名取市手倉田字八幡152番地の1セジュール八幡Ⅲ102", "url2": "https://www.kaigokensaku.mhlw.go.jp/04/index.php?action_kouhyou_detail_004_kani=true&JigyosyoCd=0460790165-00&ServiceCd=130&Type=search" }, "geometry": { "type": "Point", "coordinates": [ 140.879498399999989, 38.1720146 ] } },
{ "type": "Feature", "properties": { "内容": "医療法人金上仁友会　訪問看護ステーション金上【訪問看護】宮城県角田市角田字中島上183番地住宅型有料老人ホームタンポポ　看護小規模多機能居宅介護金上", "url2": "https://www.kaigokensaku.mhlw.go.jp/04/index.php?action_kouhyou_detail_004_kani=true&JigyosyoCd=0460890023-00&ServiceCd=130&Type=search" }, "geometry": { "type": "Point", "coordinates": [ 140.7875338, 37.9721027 ] } },
{ "type": "Feature", "properties": { "内容": "訪問看護ステーションあやめ多賀城【訪問看護】宮城県多賀城市伝上山4丁目3番20号ファミールかんのA　103号室", "url2": "https://www.kaigokensaku.mhlw.go.jp/04/index.php?action_kouhyou_detail_004_kani=true&JigyosyoCd=0460990062-00&ServiceCd=130&Type=search" }, "geometry": { "type": "Point", "coordinates": [ 141.0111143, 38.3037354 ] } },
{ "type": "Feature", "properties": { "内容": "公益財団法人　宮城厚生協会　ケアステーションつくし【訪問看護】宮城県多賀城市笠神1丁目8-28", "url2": "https://www.kaigokensaku.mhlw.go.jp/04/index.php?action_kouhyou_detail_004_kani=true&JigyosyoCd=0460990013-00&ServiceCd=130&Type=search" }, "geometry": { "type": "Point", "coordinates": [ 141.026985700000068, 38.3050359 ] } },
{ "type": "Feature", "properties": { "内容": "仙塩訪問看護ステーション【訪問看護】宮城県多賀城市桜木2丁目１－１仙塩総合病院内２階管理棟", "url2": "https://www.kaigokensaku.mhlw.go.jp/04/index.php?action_kouhyou_detail_004_kani=true&JigyosyoCd=0460990021-00&ServiceCd=130&Type=search" }, "geometry": { "type": "Point", "coordinates": [ 141.015104400000041, 38.2913704 ] } },
{ "type": "Feature", "properties": { "内容": "ナースステーションまるこ【訪問看護】東田中2丁目40-32多賀城ロジュマンG棟1104", "url2": "https://www.kaigokensaku.mhlw.go.jp/04/index.php?action_kouhyou_detail_004_kani=true&JigyosyoCd=0470901067-00&ServiceCd=130&Type=search" }, "geometry": { "type": "Point", "coordinates": [ 141.002035799999987, 38.2908094 ] } },
{ "type": "Feature", "properties": { "内容": "訪問看護ステーションナースケア岩沼【訪問看護】宮城県岩沼市中央二丁目5-12", "url2": "https://www.kaigokensaku.mhlw.go.jp/04/index.php?action_kouhyou_detail_004_kani=true&JigyosyoCd=0471100933-00&ServiceCd=130&Type=search" }, "geometry": { "type": "Point", "coordinates": [ 140.867645504893488, 38.108354245191705 ] } },
{ "type": "Feature", "properties": { "内容": "セントケア訪問看護ステーション岩沼【訪問看護】宮城県岩沼市大手町8-15", "url2": "https://www.kaigokensaku.mhlw.go.jp/04/index.php?action_kouhyou_detail_004_kani=true&JigyosyoCd=0461190035-00&ServiceCd=130&Type=search" }, "geometry": { "type": "Point", "coordinates": [ 140.866334299999977, 38.1076192 ] } },
{ "type": "Feature", "properties": { "内容": "ナーシングホームいわぬま訪問看護ステーション【訪問看護】宮城県岩沼市藤浪1丁目3-55", "url2": "https://www.kaigokensaku.mhlw.go.jp/04/index.php?action_kouhyou_detail_004_kani=true&JigyosyoCd=0461190043-00&ServiceCd=130&Type=search" }, "geometry": { "type": "Point", "coordinates": [ 140.8674837, 38.1020032 ] } },
{ "type": "Feature", "properties": { "内容": "南東北訪問看護ステーション【訪問看護】宮城県岩沼市里の杜一丁目2番6号", "url2": "https://www.kaigokensaku.mhlw.go.jp/04/index.php?action_kouhyou_detail_004_kani=true&JigyosyoCd=0461190019-00&ServiceCd=130&Type=search" }, "geometry": { "type": "Point", "coordinates": [ 140.876651094442764, 38.108840104887278 ] } },
{ "type": "Feature", "properties": { "内容": "いぶき看護部【訪問看護】宮城県岩沼市中央1丁目4-14", "url2": "https://www.kaigokensaku.mhlw.go.jp/04/index.php?action_kouhyou_detail_004_kani=true&JigyosyoCd=0461190068-00&ServiceCd=130&Type=search" }, "geometry": { "type": "Point", "coordinates": [ 140.86709713121337, 38.106145464113069 ] } },
{ "type": "Feature", "properties": { "内容": "やまと訪問看護ステーション【訪問看護】宮城県登米市迫町佐沼字錦170番地", "url2": "https://www.kaigokensaku.mhlw.go.jp/04/index.php?action_kouhyou_detail_004_kani=true&JigyosyoCd=0461290074-00&ServiceCd=130&Type=search" }, "geometry": { "type": "Point", "coordinates": [ 141.201678562287128, 38.690642687805045 ] } },
{ "type": "Feature", "properties": { "内容": "訪問看護ステーション　ふれあいなかだ【訪問看護】宮城県登米市中田町浅水字上川面65-1", "url2": "https://www.kaigokensaku.mhlw.go.jp/04/index.php?action_kouhyou_detail_004_kani=true&JigyosyoCd=0461290058-00&ServiceCd=130&Type=search" }, "geometry": { "type": "Point", "coordinates": [ 141.2619939, 38.7155727 ] } },
{ "type": "Feature", "properties": { "内容": "医療法人社団　健育会　登米ひまわり訪問看護ステーション【訪問看護】宮城県登米市迫町佐沼字八幡1丁目8-3", "url2": "https://www.kaigokensaku.mhlw.go.jp/04/index.php?action_kouhyou_detail_004_kani=true&JigyosyoCd=0461290066-00&ServiceCd=130&Type=search" }, "geometry": { "type": "Point", "coordinates": [ 141.200708100000043, 38.6965217 ] } },
{ "type": "Feature", "properties": { "内容": "登米市訪問看護ステーション豊里【訪問看護】宮城県登米市豊里町土手下67番地1", "url2": "https://www.kaigokensaku.mhlw.go.jp/04/index.php?action_kouhyou_detail_004_kani=true&JigyosyoCd=0461290041-00&ServiceCd=130&Type=search" }, "geometry": { "type": "Point", "coordinates": [ 141.253734900000012, 38.586552300000015 ] } },
{ "type": "Feature", "properties": { "内容": "登米市訪問看護ステーション米谷【訪問看護】宮城県登米市東和町米谷字元町200番地", "url2": "https://www.kaigokensaku.mhlw.go.jp/04/index.php?action_kouhyou_detail_004_kani=true&JigyosyoCd=0471201855-00&ServiceCd=130&Type=search" }, "geometry": { "type": "Point", "coordinates": [ 141.289402599999988, 38.7035064 ] } },
{ "type": "Feature", "properties": { "内容": "公益社団法人　宮城県看護協会　栗原訪問看護ステーション【訪問看護】宮城県栗原市築館伊豆二丁目７-１７", "url2": "https://www.kaigokensaku.mhlw.go.jp/04/index.php?action_kouhyou_detail_004_kani=true&JigyosyoCd=0461390015-00&ServiceCd=130&Type=search" }, "geometry": { "type": "Point", "coordinates": [ 141.028274036245762, 38.733322761436526 ] } },
{ "type": "Feature", "properties": { "内容": "ピース訪問看護ステーション【訪問看護】宮城県栗原市一迫真坂字清水町田2-14", "url2": "https://www.kaigokensaku.mhlw.go.jp/04/index.php?action_kouhyou_detail_004_kani=true&JigyosyoCd=0461390072-00&ServiceCd=130&Type=search" }, "geometry": { "type": "Point", "coordinates": [ 140.948625009123219, 38.738737257503765 ] } },
{ "type": "Feature", "properties": { "内容": "栗原市立若柳病院【訪問看護】宮城県栗原市若柳字川北原畑２３－４", "url2": "https://www.kaigokensaku.mhlw.go.jp/04/index.php?action_kouhyou_detail_004_kani=true&JigyosyoCd=0411310436-00&ServiceCd=130&Type=search" }, "geometry": { "type": "Point", "coordinates": [ 141.1381192, 38.770101 ] } },
{ "type": "Feature", "properties": { "内容": "ケアビレッジ栗原ケアサービスステーション　訪問看護事業所【訪問看護】宮城県栗原市築館伊豆2丁目11-26", "url2": "https://www.kaigokensaku.mhlw.go.jp/04/index.php?action_kouhyou_detail_004_kani=true&JigyosyoCd=0461390064-00&ServiceCd=130&Type=search" }, "geometry": { "type": "Point", "coordinates": [ 141.028528180803619, 38.734147528795226 ] } },
{ "type": "Feature", "properties": { "内容": "桜樹訪問看護ステーション【訪問看護】宮城県栗原市若柳字川北元町裏114", "url2": "https://www.kaigokensaku.mhlw.go.jp/04/index.php?action_kouhyou_detail_004_kani=true&JigyosyoCd=0461390056-00&ServiceCd=130&Type=search" }, "geometry": { "type": "Point", "coordinates": [ 141.13485, 38.7746394 ] } },
{ "type": "Feature", "properties": { "内容": "ルビス訪問看護ステーション【訪問看護】築館伊豆２丁目５番３８号ナーシングホーム　ルビス", "url2": "https://www.kaigokensaku.mhlw.go.jp/04/index.php?action_kouhyou_detail_004_kani=true&JigyosyoCd=0471302398-00&ServiceCd=130&Type=search" }, "geometry": { "type": "Point", "coordinates": [ 141.0267963, 38.7321167 ] } },
{ "type": "Feature", "properties": { "内容": "医療法人　医徳会　訪問看護ステーションあおい【訪問看護】宮城県東松島市矢本字鹿石前107番地1", "url2": "https://www.kaigokensaku.mhlw.go.jp/04/index.php?action_kouhyou_detail_004_kani=true&JigyosyoCd=0461490039-00&ServiceCd=130&Type=search" }, "geometry": { "type": "Point", "coordinates": [ 141.188489945368957, 38.402991653457299 ] } },
{ "type": "Feature", "properties": { "内容": "石垣クリニック内科循環器科【訪問看護】宮城県東松島市矢本字大林14番地", "url2": "https://www.kaigokensaku.mhlw.go.jp/04/index.php?action_kouhyou_detail_004_kani=true&JigyosyoCd=0411410087-00&ServiceCd=130&Type=search" }, "geometry": { "type": "Point", "coordinates": [ 141.2194513, 38.4214722 ] } },
{ "type": "Feature", "properties": { "内容": "ケアビレッジ大崎ケアサービスステーション訪問看護事業所【訪問看護】宮城県大崎市古川稲葉１丁目７－３０", "url2": "https://www.kaigokensaku.mhlw.go.jp/04/index.php?action_kouhyou_detail_004_kani=true&JigyosyoCd=0471502831-00&ServiceCd=130&Type=search" }, "geometry": { "type": "Point", "coordinates": [ 140.950489, 38.5595666 ] } },
{ "type": "Feature", "properties": { "内容": "訪問看護ステーション　共生【訪問看護】宮城県大崎市三本木しらとり9番2", "url2": "https://www.kaigokensaku.mhlw.go.jp/04/index.php?action_kouhyou_detail_004_kani=true&JigyosyoCd=0461590176-00&ServiceCd=130&Type=search" }, "geometry": { "type": "Point", "coordinates": [ 140.9447486, 38.5290756 ] } },
{ "type": "Feature", "properties": { "内容": "大崎田尻訪問看護ステーション【訪問看護】宮城県大崎市田尻字御蔵11番地1", "url2": "https://www.kaigokensaku.mhlw.go.jp/04/index.php?action_kouhyou_detail_004_kani=true&JigyosyoCd=0471502914-00&ServiceCd=130&Type=search" }, "geometry": { "type": "Point", "coordinates": [ 141.0246296, 38.5965122 ] } },
{ "type": "Feature", "properties": { "内容": "一般財団法人　佐藤病院【訪問看護】宮城県大崎市古川中里一丁目３番１８号", "url2": "https://www.kaigokensaku.mhlw.go.jp/04/index.php?action_kouhyou_detail_004_kani=true&JigyosyoCd=0411510076-00&ServiceCd=130&Type=search" }, "geometry": { "type": "Point", "coordinates": [ 140.960785200000032, 38.574102500000016 ] } },
{ "type": "Feature", "properties": { "内容": "看護クラーク大崎古川【訪問看護】古川栄町3番10号", "url2": "https://www.kaigokensaku.mhlw.go.jp/04/index.php?action_kouhyou_detail_004_kani=true&JigyosyoCd=0461590192-00&ServiceCd=130&Type=search" }, "geometry": { "type": "Point", "coordinates": [ 140.950411, 38.5685996 ] } },
{ "type": "Feature", "properties": { "内容": "公益社団法人宮城県看護協会　大崎訪問看護ステーション【訪問看護】宮城県大崎市三本木字善並田156番地", "url2": "https://www.kaigokensaku.mhlw.go.jp/04/index.php?action_kouhyou_detail_004_kani=true&JigyosyoCd=0461590044-00&ServiceCd=130&Type=search" }, "geometry": { "type": "Point", "coordinates": [ 140.945546046165418, 38.533471646340317 ] } },
{ "type": "Feature", "properties": { "内容": "医療法人社団　健育会　大崎ひまわり訪問看護ステーション【訪問看護】宮城県大崎市古川三日町2丁目3-43", "url2": "https://www.kaigokensaku.mhlw.go.jp/04/index.php?action_kouhyou_detail_004_kani=true&JigyosyoCd=0461590085-00&ServiceCd=130&Type=search" }, "geometry": { "type": "Point", "coordinates": [ 140.955177299548211, 38.572807526317241 ] } },
{ "type": "Feature", "properties": { "内容": "公益財団法人　宮城厚生協会　ケアステーションあゆみ【訪問看護】宮城県大崎市古川駅東二丁目12－18", "url2": "https://www.kaigokensaku.mhlw.go.jp/04/index.php?action_kouhyou_detail_004_kani=true&JigyosyoCd=0461590010-00&ServiceCd=130&Type=search" }, "geometry": { "type": "Point", "coordinates": [ 140.974453400000016, 38.5736085 ] } },
{ "type": "Feature", "properties": { "内容": "訪問看護ステーション和み【訪問看護】宮城県大崎市古川大幡字月蔵19-1コーポあいやG棟17号室", "url2": "https://www.kaigokensaku.mhlw.go.jp/04/index.php?action_kouhyou_detail_004_kani=true&JigyosyoCd=0461590143-00&ServiceCd=130&Type=search" }, "geometry": { "type": "Point", "coordinates": [ 140.966721799999988, 38.5648828 ] } },
{ "type": "Feature", "properties": { "内容": "ひばり訪問看護ステーション大崎【訪問看護】宮城県大崎市古川台町2-23", "url2": "https://www.kaigokensaku.mhlw.go.jp/04/index.php?action_kouhyou_detail_004_kani=true&JigyosyoCd=0461590150-00&ServiceCd=130&Type=search" }, "geometry": { "type": "Point", "coordinates": [ 140.961229300000014, 38.5747428 ] } },
{ "type": "Feature", "properties": { "内容": "セントケア訪問看護ステーション大崎【訪問看護】宮城県大崎市古川大宮二丁目1番23号", "url2": "https://www.kaigokensaku.mhlw.go.jp/04/index.php?action_kouhyou_detail_004_kani=true&JigyosyoCd=0461590101-00&ServiceCd=130&Type=search" }, "geometry": { "type": "Point", "coordinates": [ 140.953746242313201, 38.583761340325459 ] } },
{ "type": "Feature", "properties": { "内容": "訪問看護ステーションみやび【訪問看護】宮城県大崎市古川北町二丁目４番２２号", "url2": "https://www.kaigokensaku.mhlw.go.jp/04/index.php?action_kouhyou_detail_004_kani=true&JigyosyoCd=0461590135-00&ServiceCd=130&Type=search" }, "geometry": { "type": "Point", "coordinates": [ 140.96380670105242, 38.579640439615169 ] } },
{ "type": "Feature", "properties": { "内容": "介護老人保健施設ヒューマンシティ松山訪問看護ステーション【訪問看護】宮城県大崎市松山金谷字中田76-1大﨑ミッドタウン総合メディケアセンター内", "url2": "https://www.kaigokensaku.mhlw.go.jp/04/index.php?action_kouhyou_detail_004_kani=true&JigyosyoCd=0461590051-00&ServiceCd=130&Type=search" }, "geometry": { "type": "Point", "coordinates": [ 141.061818226042163, 38.514514481237448 ] } },
{ "type": "Feature", "properties": { "内容": "まぅるる訪問看護ステーション【訪問看護】宮城県大崎市古川休塚字中谷地３番１", "url2": "https://www.kaigokensaku.mhlw.go.jp/04/index.php?action_kouhyou_detail_004_kani=true&JigyosyoCd=0461590168-00&ServiceCd=130&Type=search" }, "geometry": { "type": "Point", "coordinates": [ 140.974206264418029, 38.594825797890216 ] } },
{ "type": "Feature", "properties": { "内容": "たつみの風訪問看護ステーション【訪問看護】宮城県大崎市古川江合寿町一丁目5番地12", "url2": "https://www.kaigokensaku.mhlw.go.jp/04/index.php?action_kouhyou_detail_004_kani=true&JigyosyoCd=0461590127-00&ServiceCd=130&Type=search" }, "geometry": { "type": "Point", "coordinates": [ 140.965693699999946, 38.585247700000011 ] } },
{ "type": "Feature", "properties": { "内容": "大崎市民病院鳴子温泉分院【訪問看護】宮城県大崎市鳴子温泉字末沢１番地", "url2": "https://www.kaigokensaku.mhlw.go.jp/04/index.php?action_kouhyou_detail_004_kani=true&JigyosyoCd=0411510043-00&ServiceCd=130&Type=search" }, "geometry": { "type": "Point", "coordinates": [ 140.727337300000045, 38.7514336 ] } },
{ "type": "Feature", "properties": { "内容": "訪問看護ステーション　ほのか【訪問看護】宮城県大崎市古川稲葉3丁目13-34", "url2": "https://www.kaigokensaku.mhlw.go.jp/04/index.php?action_kouhyou_detail_004_kani=true&JigyosyoCd=0461590184-00&ServiceCd=130&Type=search" }, "geometry": { "type": "Point", "coordinates": [ 140.950507985150153, 38.560134694311792 ] } },
{ "type": "Feature", "properties": { "内容": "訪問看護ステーション　スプリングフォレスト明石台【訪問看護】明石台7丁目1-7", "url2": "https://www.kaigokensaku.mhlw.go.jp/04/index.php?action_kouhyou_detail_004_kani=true&JigyosyoCd=0461690034-00&ServiceCd=130&Type=search" }, "geometry": { "type": "Point", "coordinates": [ 140.900677162565586, 38.345856556767167 ] } },
{ "type": "Feature", "properties": { "内容": "あおい訪問看護ステーション富谷【訪問看護】宮城県富谷市富谷一枚沖10", "url2": "https://www.kaigokensaku.mhlw.go.jp/04/index.php?action_kouhyou_detail_004_kani=true&JigyosyoCd=0461690026-00&ServiceCd=130&Type=search" }, "geometry": { "type": "Point", "coordinates": [ 140.883897599999955, 38.399184 ] } },
{ "type": "Feature", "properties": { "内容": "社会福祉法人蔵王町社会福祉協議会訪問看護ステーション【訪問看護】宮城県刈田郡蔵王町大字円田字十文字北3番地1", "url2": "https://www.kaigokensaku.mhlw.go.jp/04/index.php?action_kouhyou_detail_004_kani=true&JigyosyoCd=0462190018-00&ServiceCd=130&Type=search" }, "geometry": { "type": "Point", "coordinates": [ 140.642032022229046, 38.104563168108726 ] } },
{ "type": "Feature", "properties": { "内容": "にじいろ訪問看護ステーション【訪問看護】宮城県刈田郡蔵王町宮字篤司95番地5ｵｰﾍﾞﾙｼﾞｭ宮102", "url2": "https://www.kaigokensaku.mhlw.go.jp/04/index.php?action_kouhyou_detail_004_kani=true&JigyosyoCd=0462190059-00&ServiceCd=130&Type=search" }, "geometry": { "type": "Point", "coordinates": [ 140.659829800000011, 38.0462899 ] } },
{ "type": "Feature", "properties": { "内容": "南桜訪問看護ステーション【訪問看護】宮城県柴田郡大河原町南桜町４－１４", "url2": "https://www.kaigokensaku.mhlw.go.jp/04/index.php?action_kouhyou_detail_004_kani=true&JigyosyoCd=0462290032-00&ServiceCd=130&Type=search" }, "geometry": { "type": "Point", "coordinates": [ 140.741761499999939, 38.0576422 ] } },
{ "type": "Feature", "properties": { "内容": "町南診療所【訪問看護】宮城県柴田郡村田町大字村田字町南33-1", "url2": "https://www.kaigokensaku.mhlw.go.jp/04/index.php?action_kouhyou_detail_004_kani=true&JigyosyoCd=0412210924-00&ServiceCd=130&Type=search" }, "geometry": { "type": "Point", "coordinates": [ 140.726823200000013, 38.1122956 ] } },
{ "type": "Feature", "properties": { "内容": "訪問看護ステーション　ありがとう【訪問看護】宮城県柴田郡村田町大字沼辺字森久保１１−１", "url2": "https://www.kaigokensaku.mhlw.go.jp/04/index.php?action_kouhyou_detail_004_kani=true&JigyosyoCd=0462290081-00&ServiceCd=130&Type=search" }, "geometry": { "type": "Point", "coordinates": [ 140.743603, 38.0878013 ] } },
{ "type": "Feature", "properties": { "内容": "みやぎ県南中核病院附属訪問看護ステーション【訪問看護】宮城県柴田郡村田町大字沼辺字赤沼150番地の1", "url2": "https://www.kaigokensaku.mhlw.go.jp/04/index.php?action_kouhyou_detail_004_kani=true&JigyosyoCd=0462290040-00&ServiceCd=130&Type=search" }, "geometry": { "type": "Point", "coordinates": [ 140.732707715428603, 38.08185713316854 ] } },
{ "type": "Feature", "properties": { "内容": "公益社団法人宮城県看護協会　柴田・角田地域訪問看護ステーション【訪問看護】宮城県柴田郡柴田町船岡中央２丁目７番１９号", "url2": "https://www.kaigokensaku.mhlw.go.jp/04/index.php?action_kouhyou_detail_004_kani=true&JigyosyoCd=0462290016-00&ServiceCd=130&Type=search" }, "geometry": { "type": "Point", "coordinates": [ 140.768283823028582, 38.056964792611282 ] } },
{ "type": "Feature", "properties": { "内容": "みやぎ県南医療生活協同組合　訪問看護ステーション柚子【訪問看護】宮城県柴田郡柴田町船岡新栄四丁目4-1", "url2": "https://www.kaigokensaku.mhlw.go.jp/04/index.php?action_kouhyou_detail_004_kani=true&JigyosyoCd=0462290065-00&ServiceCd=130&Type=search" }, "geometry": { "type": "Point", "coordinates": [ 140.783248732540869, 38.051924036662435 ] } },
{ "type": "Feature", "properties": { "内容": "訪問看護ステーションなないろ【訪問看護】宮城県伊具郡丸森町字鳥屋77-3マンションドムハルカ101", "url2": "https://www.kaigokensaku.mhlw.go.jp/04/index.php?action_kouhyou_detail_004_kani=true&JigyosyoCd=0462390014-00&ServiceCd=130&Type=search" }, "geometry": { "type": "Point", "coordinates": [ 140.763047699999987, 37.9121371 ] } },
{ "type": "Feature", "properties": { "内容": "リハビリ訪問看護ステーションつばさ仙南【訪問看護】宮城県亘理郡亘理町逢隈中泉字上谷地264-3", "url2": "https://www.kaigokensaku.mhlw.go.jp/04/index.php?action_kouhyou_detail_004_kani=true&JigyosyoCd=0462490038-00&ServiceCd=130&Type=search" }, "geometry": { "type": "Point", "coordinates": [ 140.877385437387886, 38.085959850002496 ] } },
{ "type": "Feature", "properties": { "内容": "すこやか訪問看護ステーション【訪問看護】宮城県亘理郡亘理町吉田字原247番地19", "url2": "https://www.kaigokensaku.mhlw.go.jp/04/index.php?action_kouhyou_detail_004_kani=true&JigyosyoCd=0462490046-00&ServiceCd=130&Type=search" }, "geometry": { "type": "Point", "coordinates": [ 140.898684600000024, 38.0137027 ] } },
{ "type": "Feature", "properties": { "内容": "医療法人社団　松村クリニック　やまもと訪問看護ステーション【訪問看護】宮城県亘理郡山元町髙瀬字合戦原54番地2在宅ケアセンターさくら内", "url2": "https://www.kaigokensaku.mhlw.go.jp/04/index.php?action_kouhyou_detail_004_kani=true&JigyosyoCd=0462490012-00&ServiceCd=130&Type=search" }, "geometry": { "type": "Point", "coordinates": [ 140.894069185844415, 37.94653362777899 ] } },
{ "type": "Feature", "properties": { "内容": "独立行政法人国立病院機構宮城病院　訪問看護ステーション「かけはし」【訪問看護】宮城県亘理郡山元町高瀬字合戦原１００番地", "url2": "https://www.kaigokensaku.mhlw.go.jp/04/index.php?action_kouhyou_detail_004_kani=true&JigyosyoCd=0462490053-00&ServiceCd=130&Type=search" }, "geometry": { "type": "Point", "coordinates": [ 140.8931968, 37.9440189 ] } },
{ "type": "Feature", "properties": { "内容": "松島医療生活協同組合　訪問看護ステーションまつしま【訪問看護】宮城県宮城郡松島町松島字普賢堂1-4　まつしまの郷松島医療生活協同組合　まつしまの郷", "url2": "https://www.kaigokensaku.mhlw.go.jp/04/index.php?action_kouhyou_detail_004_kani=true&JigyosyoCd=0462690025-00&ServiceCd=130&Type=search" }, "geometry": { "type": "Point", "coordinates": [ 141.063526217756248, 38.371722586688598 ] } },
{ "type": "Feature", "properties": { "内容": "くろかわ訪問看護ステーション【訪問看護】宮城県黒川郡大和町吉岡字西桧木６０番地", "url2": "https://www.kaigokensaku.mhlw.go.jp/04/index.php?action_kouhyou_detail_004_kani=true&JigyosyoCd=0462790023-00&ServiceCd=130&Type=search" }, "geometry": { "type": "Point", "coordinates": [ 140.88931720000005, 38.4374287 ] } },
{ "type": "Feature", "properties": { "内容": "訪問看護ステーションのぞみ杜の丘【訪問看護】宮城県黒川郡大和町杜の丘1丁目14番地2", "url2": "https://www.kaigokensaku.mhlw.go.jp/04/index.php?action_kouhyou_detail_004_kani=true&JigyosyoCd=0462790072-00&ServiceCd=130&Type=search" }, "geometry": { "type": "Point", "coordinates": [ 140.867703478048668, 38.385597395103325 ] } },
{ "type": "Feature", "properties": { "内容": "大郷訪問看護ステーション【訪問看護】宮城県黒川郡大郷町羽生字中ノ町11番1", "url2": "https://www.kaigokensaku.mhlw.go.jp/04/index.php?action_kouhyou_detail_004_kani=true&JigyosyoCd=0462790031-00&ServiceCd=130&Type=search" }, "geometry": { "type": "Point", "coordinates": [ 141.017570849437448, 38.426451562891756 ] } },
{ "type": "Feature", "properties": { "内容": "よこやま医院【訪問看護】宮城県加美郡加美町字西町７８番地１", "url2": "https://www.kaigokensaku.mhlw.go.jp/04/index.php?action_kouhyou_detail_004_kani=true&JigyosyoCd=0412810426-00&ServiceCd=130&Type=search" }, "geometry": { "type": "Point", "coordinates": [ 140.856946594581586, 38.572733848050206 ] } },
{ "type": "Feature", "properties": { "内容": "涌谷町訪問看護ステーション【訪問看護】宮城県遠田郡涌谷町涌谷字中江南２７８番地", "url2": "https://www.kaigokensaku.mhlw.go.jp/04/index.php?action_kouhyou_detail_004_kani=true&JigyosyoCd=0463190017-00&ServiceCd=130&Type=search" }, "geometry": { "type": "Point", "coordinates": [ 141.147699278434743, 38.540216150725634 ] } },
{ "type": "Feature", "properties": { "内容": "公益社団法人　宮城県看護協会　こごた訪問看護ステーション【訪問看護】宮城県遠田郡美里町駅東一丁目２番１", "url2": "https://www.kaigokensaku.mhlw.go.jp/04/index.php?action_kouhyou_detail_004_kani=true&JigyosyoCd=0463190025-00&ServiceCd=130&Type=search" }, "geometry": { "type": "Point", "coordinates": [ 141.066070751563984, 38.541910873977187 ] } },
{ "type": "Feature", "properties": { "内容": "ケアビレッジ美里ケアてらす中埣訪問看護事業所【訪問看護】宮城県遠田郡美里町中埣字丸池29番地", "url2": "https://www.kaigokensaku.mhlw.go.jp/04/index.php?action_kouhyou_detail_004_kani=true&JigyosyoCd=0463190041-00&ServiceCd=130&Type=search" }, "geometry": { "type": "Point", "coordinates": [ 141.0377503, 38.5733375 ] } },
{ "type": "Feature", "properties": { "内容": "合同会社訪問看護ステーションボブ【訪問看護】宮城県遠田郡美里町北浦1丁目5‐3‐102", "url2": "https://www.kaigokensaku.mhlw.go.jp/04/index.php?action_kouhyou_detail_004_kani=true&JigyosyoCd=0473101244-00&ServiceCd=130&Type=search" }, "geometry": { "type": "Point", "coordinates": [ 141.060200178538906, 38.541587194346889 ] } },
{ "type": "Feature", "properties": { "内容": "女川町地域医療センター【訪問看護】宮城県牡鹿郡女川町鷲神浜字堀切山107番地1", "url2": "https://www.kaigokensaku.mhlw.go.jp/04/index.php?action_kouhyou_detail_004_kani=true&JigyosyoCd=0473500189-00&ServiceCd=130&Type=search" }, "geometry": { "type": "Point", "coordinates": [ 141.445232499999946, 38.4434142 ] } },
{ "type": "Feature", "properties": { "内容": "りあす訪問看護ステーション【訪問看護】宮城県南三陸町志津川字沼田14番地3", "url2": "https://www.kaigokensaku.mhlw.go.jp/04/index.php?action_kouhyou_detail_004_kani=true&JigyosyoCd=0463690024-00&ServiceCd=130&Type=search" }, "geometry": { "type": "Point", "coordinates": [ 141.461117, 38.6795658 ] } }
]
}
