{
"type": "FeatureCollection",
"name": "geo_04_定期巡回・随時対応型訪問介護看護",
"crs": { "type": "name", "properties": { "name": "urn:ogc:def:crs:OGC:1.3:CRS84" } },
"features": [
{ "type": "Feature", "properties": { "内容": "アルテイル２４【定期巡回・随時対応型訪問介護看護】宮城県仙台市青葉区荒巻字三居沢1‐16特別養護老人ホーム　アルテイル青葉", "url": "https://www.kaigokensaku.mhlw.go.jp/04/index.php?action_kouhyou_detail_004_kani=true&JigyosyoCd=0495100380-00&ServiceCd=760&Type=search", "url2": "http://www.aofuku.or.jp/" }, "geometry": { "type": "Point", "coordinates": [ 140.838122099999964, 38.2685654 ] } },
{ "type": "Feature", "properties": { "内容": "せんだんの丘定期巡回随時対応型訪問介護看護【定期巡回・随時対応型訪問介護看護】宮城県仙台市青葉区国見ケ丘６－１２６－５１", "url": "https://www.kaigokensaku.mhlw.go.jp/04/index.php?action_kouhyou_detail_004_kani=true&JigyosyoCd=0495100307-00&ServiceCd=760&Type=search", "url2": "http://www.bone-info.org/sendannooka/index.html" }, "geometry": { "type": "Point", "coordinates": [ 140.8344095, 38.2839663 ] } },
{ "type": "Feature", "properties": { "内容": "こ～ぷのお家桜ヶ丘定期巡回ケアステーション【定期巡回・随時対応型訪問介護看護】宮城県仙台市青葉区桜ヶ丘2-20-1", "url": "https://www.kaigokensaku.mhlw.go.jp/04/index.php?action_kouhyou_detail_004_kani=true&JigyosyoCd=0495100315-00&ServiceCd=760&Type=search", "url2": "http://www.coop-fukushikai.jp" }, "geometry": { "type": "Point", "coordinates": [ 140.855047099999979, 38.2975111 ] } },
{ "type": "Feature", "properties": { "内容": "こころ定期巡回・随時対応型訪問介護看護【定期巡回・随時対応型訪問介護看護】宮城県仙台市青葉区米ケ袋２丁目１－３０", "url": "https://www.kaigokensaku.mhlw.go.jp/04/index.php?action_kouhyou_detail_004_kani=true&JigyosyoCd=0495100638-00&ServiceCd=760&Type=search", "url2": null }, "geometry": { "type": "Point", "coordinates": [ 140.874751099999969, 38.2502551 ] } },
{ "type": "Feature", "properties": { "内容": "松田会　ホームケアステーション八木山２４【定期巡回・随時対応型訪問介護看護】宮城県仙台市太白区向山2丁目11番36号向山アパート１階", "url": "https://www.kaigokensaku.mhlw.go.jp/04/index.php?action_kouhyou_detail_004_kani=true&JigyosyoCd=0495400301-00&ServiceCd=760&Type=search", "url2": "http://www.matsuda-hp.com/" }, "geometry": { "type": "Point", "coordinates": [ 140.865506395106536, 38.245904146455594 ] } },
{ "type": "Feature", "properties": { "内容": "公益財団法人宮城厚生協会ケアステーションながまち24【定期巡回・随時対応型訪問介護看護】宮城県仙台市太白区長町３丁目7-26長町病院北棟２階", "url": "https://www.kaigokensaku.mhlw.go.jp/04/index.php?action_kouhyou_detail_004_kani=true&JigyosyoCd=0495400293-00&ServiceCd=760&Type=search", "url2": null }, "geometry": { "type": "Point", "coordinates": [ 140.883877900000016, 38.2297831 ] } },
{ "type": "Feature", "properties": { "内容": "24ケアステーションノテ富沢【定期巡回・随時対応型訪問介護看護】宮城県仙台市太白区富沢西3丁目10番地の1", "url": "https://www.kaigokensaku.mhlw.go.jp/04/index.php?action_kouhyou_detail_004_kani=true&JigyosyoCd=0495400442-00&ServiceCd=760&Type=search", "url2": "https://www.note.or.jp/facilities/zaitaku/teiki-houmon/teiki-houmon-note-tomisawa/" }, "geometry": { "type": "Point", "coordinates": [ 140.853715, 38.209451 ] } },
{ "type": "Feature", "properties": { "内容": "SOMPOケア　仙台泉　定期巡回【定期巡回・随時対応型訪問介護看護】宮城県仙台市泉区松森字鹿島53-9", "url": "https://www.kaigokensaku.mhlw.go.jp/04/index.php?action_kouhyou_detail_004_kani=true&JigyosyoCd=0495500530-00&ServiceCd=760&Type=search", "url2": "https://www.sompocare.com" }, "geometry": { "type": "Point", "coordinates": [ 140.909337300000061, 38.3181911 ] } },
{ "type": "Feature", "properties": { "内容": "松田会　ホームケアステーション２４【定期巡回・随時対応型訪問介護看護】仙台市泉区実沢字立田屋敷17番地の1", "url": "https://www.kaigokensaku.mhlw.go.jp/04/index.php?action_kouhyou_detail_004_kani=true&JigyosyoCd=0495500316-00&ServiceCd=760&Type=search", "url2": null }, "geometry": { "type": "Point", "coordinates": [ 140.839334791551209, 38.335241697094681 ] } },
{ "type": "Feature", "properties": { "内容": "グッドタイムサポート泉大沢【定期巡回・随時対応型訪問介護看護】宮城県仙台市泉区大沢3-5-1グッドタイムホーム泉大沢1F", "url": "https://www.kaigokensaku.mhlw.go.jp/04/index.php?action_kouhyou_detail_004_kani=true&JigyosyoCd=0495500324-00&ServiceCd=760&Type=search", "url2": "http://souseikai-izumiosawa.com/" }, "geometry": { "type": "Point", "coordinates": [ 140.874547680313128, 38.356943132564354 ] } },
{ "type": "Feature", "properties": { "内容": "ぱんぷきん介護センター　ウェルキャブステーション【定期巡回・随時対応型訪問介護看護】宮城県石巻市門脇字二番谷地13番地21", "url": "https://www.kaigokensaku.mhlw.go.jp/04/index.php?action_kouhyou_detail_004_kani=true&JigyosyoCd=0470200684-00&ServiceCd=760&Type=search", "url2": "http://care-net.biz/04/pumpkin/company.php" }, "geometry": { "type": "Point", "coordinates": [ 141.266922256015704, 38.43247946327525 ] } },
{ "type": "Feature", "properties": { "内容": "ケアビレッジ塩竃ケアサービスステーション定期巡回・随時対応型訪問介護看護事業所【定期巡回・随時対応型訪問介護看護】宮城県塩竈市清水沢4丁目39-1ケアビレッジ塩竃ケアサービスステーション定期巡回・随時対応型訪問介護看護事業所", "url": "https://www.kaigokensaku.mhlw.go.jp/04/index.php?action_kouhyou_detail_004_kani=true&JigyosyoCd=0490300068-00&ServiceCd=760&Type=search", "url2": "http://ritsuwa.com" }, "geometry": { "type": "Point", "coordinates": [ 141.007182899999947, 38.3346011 ] } },
{ "type": "Feature", "properties": { "内容": "春圃苑24時間ヘルパーステーション【定期巡回・随時対応型訪問介護看護】宮城県気仙沼市本吉町中島358番地6", "url": "https://www.kaigokensaku.mhlw.go.jp/04/index.php?action_kouhyou_detail_004_kani=true&JigyosyoCd=0490500105-00&ServiceCd=760&Type=search", "url2": null }, "geometry": { "type": "Point", "coordinates": [ 141.517246800000038, 38.77633 ] } },
{ "type": "Feature", "properties": { "内容": "定期巡回　リズム白石蔵王【定期巡回・随時対応型訪問介護看護】宮城県白石市鷹巣東三丁目８番１号", "url": "https://www.kaigokensaku.mhlw.go.jp/04/index.php?action_kouhyou_detail_004_kani=true&JigyosyoCd=0490600129-00&ServiceCd=760&Type=search", "url2": "http://treetumbo-i.com" }, "geometry": { "type": "Point", "coordinates": [ 140.639687, 37.997165 ] } },
{ "type": "Feature", "properties": { "内容": "定期巡回随時対応型ヘルパーステーション金上【定期巡回・随時対応型訪問介護看護】宮城県角田市角田字中島上183看護小規模体機能型居宅介護金上・住宅型有料老人ホームタンポポ", "url": "https://www.kaigokensaku.mhlw.go.jp/04/index.php?action_kouhyou_detail_004_kani=true&JigyosyoCd=0490800075-00&ServiceCd=760&Type=search", "url2": "http://www.kanagami.or.jp" }, "geometry": { "type": "Point", "coordinates": [ 140.787828556483447, 37.972047065801917 ] } },
{ "type": "Feature", "properties": { "内容": "いぶき定期巡回型サービス【定期巡回・随時対応型訪問介護看護】宮城県岩沼市中央1丁目4-14", "url": "https://www.kaigokensaku.mhlw.go.jp/04/index.php?action_kouhyou_detail_004_kani=true&JigyosyoCd=0491100186-00&ServiceCd=760&Type=search", "url2": "https://www.ibunuma.com/" }, "geometry": { "type": "Point", "coordinates": [ 140.866861200000017, 38.10618 ] } },
{ "type": "Feature", "properties": { "内容": "ほのか定期巡回・随時対応型訪問介護ステーション【定期巡回・随時対応型訪問介護看護】宮城県大崎市古川北稲葉三丁目13-34", "url": "https://www.kaigokensaku.mhlw.go.jp/04/index.php?action_kouhyou_detail_004_kani=true&JigyosyoCd=0491500377-00&ServiceCd=760&Type=search", "url2": "https://www.honoka-world.com/" }, "geometry": { "type": "Point", "coordinates": [ 140.950564575957458, 38.560267476835605 ] } },
{ "type": "Feature", "properties": { "内容": "訪問介護　福寿の家【定期巡回・随時対応型訪問介護看護】宮城県遠田郡美里町北浦字待江82-8", "url": "https://www.kaigokensaku.mhlw.go.jp/04/index.php?action_kouhyou_detail_004_kani=true&JigyosyoCd=0493100127-00&ServiceCd=760&Type=search", "url2": null }, "geometry": { "type": "Point", "coordinates": [ 141.0542036, 38.5426716 ] } }
]
}
