{
"type": "FeatureCollection",
"name": "geo_04_義務教育学校",
"crs": { "type": "name", "properties": { "name": "urn:ogc:def:crs:EPSG::6668" } },
"features": [
{ "type": "Feature", "properties": { "P29_001": "04207", "P29_002": "C204222070012", "P29_003": "16014", "P29_004": "名取市立閖上小中学校", "P29_005": "宮城県名取市閖上西1-25", "P29_006": "3", "P29_007": "1", "P29_008": "00", "P29_009": null }, "geometry": { "type": "Point", "coordinates": [ 140.941066514749565, 38.180759895556612 ] } },
{ "type": "Feature", "properties": { "P29_001": "04213", "P29_002": "C204222130010", "P29_003": "16014", "P29_004": "栗原市立金成小・中学校", "P29_005": "宮城県栗原市金成小迫高見山35-3", "P29_006": "3", "P29_007": "1", "P29_008": "00", "P29_009": null }, "geometry": { "type": "Point", "coordinates": [ 141.070545994832798, 38.806892001957465 ] } },
{ "type": "Feature", "properties": { "P29_001": "04215", "P29_002": "C204222150016", "P29_003": "16014", "P29_004": "大崎市立古川西小中学校", "P29_005": "宮城県大崎市古川渋井字全壮191", "P29_006": "3", "P29_007": "1", "P29_008": "00", "P29_009": null }, "geometry": { "type": "Point", "coordinates": [ 140.908276277008042, 38.58639877224978 ] } },
{ "type": "Feature", "properties": { "P29_001": "04444", "P29_002": "C204224440011", "P29_003": "16014", "P29_004": "色麻町立色麻学園", "P29_005": "宮城県加美郡色麻町四竃字狐塚37-1", "P29_006": "3", "P29_007": "1", "P29_008": "00", "P29_009": null }, "geometry": { "type": "Point", "coordinates": [ 140.846503380940476, 38.545867432901453 ] } }
]
}
