{
"type": "FeatureCollection",
"name": "geo_04_大学",
"crs": { "type": "name", "properties": { "name": "urn:ogc:def:crs:EPSG::6668" } },
"features": [
{ "type": "Feature", "properties": { "P29_001": "04101", "P29_002": "F104110100856", "P29_003": "16007", "P29_004": "東北大学", "P29_005": "宮城県仙台市青葉区片平2-1-1", "P29_006": "1", "P29_007": "0", "P29_008": "01", "P29_009": "片平キャンパス" }, "geometry": { "type": "Point", "coordinates": [ 140.873007656898693, 38.254312357035978 ] } },
{ "type": "Feature", "properties": { "P29_001": "04101", "P29_002": "F104110100865", "P29_003": "16007", "P29_004": "宮城教育大学", "P29_005": "宮城県仙台市青葉区荒巻字青葉149", "P29_006": "1", "P29_007": "0", "P29_008": "00", "P29_009": null }, "geometry": { "type": "Point", "coordinates": [ 140.831060768260528, 38.259129247283447 ] } },
{ "type": "Feature", "properties": { "P29_001": "04421", "P29_002": "F104210100872", "P29_003": "16007", "P29_004": "宮城大学", "P29_005": "宮城県黒川郡大和町学苑1-1", "P29_006": "3", "P29_007": "0", "P29_008": "01", "P29_009": "大和キャンパス" }, "geometry": { "type": "Point", "coordinates": [ 140.839723656740802, 38.348431428836541 ] } },
{ "type": "Feature", "properties": { "P29_001": "04323", "P29_002": "F104310100889", "P29_003": "16007", "P29_004": "仙台大学", "P29_005": "宮城県柴田郡柴田町船岡南2-2-18", "P29_006": "4", "P29_007": "0", "P29_008": "00", "P29_009": null }, "geometry": { "type": "Point", "coordinates": [ 140.771668914419593, 38.051077576744923 ] } },
{ "type": "Feature", "properties": { "P29_001": "04101", "P29_002": "F104310100898", "P29_003": "16007", "P29_004": "東北学院大学", "P29_005": "宮城県仙台市青葉区土樋1-3-1", "P29_006": "4", "P29_007": "0", "P29_008": "01", "P29_009": "土樋キャンパス" }, "geometry": { "type": "Point", "coordinates": [ 140.877004566375149, 38.249440419315064 ] } },
{ "type": "Feature", "properties": { "P29_001": "04104", "P29_002": "F104310100905", "P29_003": "16007", "P29_004": "東北工業大学", "P29_005": "宮城県仙台市太白区八木山香澄町35-1", "P29_006": "4", "P29_007": "0", "P29_008": "01", "P29_009": "八木山キャンパス" }, "geometry": { "type": "Point", "coordinates": [ 140.851895491089977, 38.245835349221721 ] } },
{ "type": "Feature", "properties": { "P29_001": "04101", "P29_002": "F104310100914", "P29_003": "16007", "P29_004": "東北福祉大学", "P29_005": "宮城県仙台市青葉区国見1-8-1", "P29_006": "4", "P29_007": "0", "P29_008": "00", "P29_009": null }, "geometry": { "type": "Point", "coordinates": [ 140.847343603598858, 38.280342922150531 ] } },
{ "type": "Feature", "properties": { "P29_001": "04101", "P29_002": "F104310100923", "P29_003": "16007", "P29_004": "東北医科薬科大学", "P29_005": "宮城県仙台市青葉区小松島4-4-1", "P29_006": "4", "P29_007": "0", "P29_008": "00", "P29_009": null }, "geometry": { "type": "Point", "coordinates": [ 140.885043214007709, 38.28539904461897 ] } },
{ "type": "Feature", "properties": { "P29_001": "04105", "P29_002": "F104310100932", "P29_003": "16007", "P29_004": "東北生活文化大学", "P29_005": "宮城県仙台市泉区虹の丘1-18-2", "P29_006": "4", "P29_007": "0", "P29_008": "00", "P29_009": null }, "geometry": { "type": "Point", "coordinates": [ 140.872712151816103, 38.304261482685071 ] } },
{ "type": "Feature", "properties": { "P29_001": "04101", "P29_002": "F104310100941", "P29_003": "16007", "P29_004": "宮城学院女子大学", "P29_005": "宮城県仙台市青葉区桜ケ丘9-1-1", "P29_006": "4", "P29_007": "0", "P29_008": "00", "P29_009": null }, "geometry": { "type": "Point", "coordinates": [ 140.854429592063639, 38.307204953469892 ] } },
{ "type": "Feature", "properties": { "P29_001": "04202", "P29_002": "F104310100950", "P29_003": "16007", "P29_004": "石巻専修大学", "P29_005": "宮城県石巻市南境新水戸1", "P29_006": "4", "P29_007": "0", "P29_008": "00", "P29_009": null }, "geometry": { "type": "Point", "coordinates": [ 141.295203097354204, 38.454149211284935 ] } },
{ "type": "Feature", "properties": { "P29_001": "04105", "P29_002": "F104310100969", "P29_003": "16007", "P29_004": "仙台白百合女子大学", "P29_005": "宮城県仙台市泉区本田町6-1", "P29_006": "4", "P29_007": "0", "P29_008": "00", "P29_009": null }, "geometry": { "type": "Point", "coordinates": [ 140.904064181851197, 38.321358158401416 ] } },
{ "type": "Feature", "properties": { "P29_001": "04101", "P29_002": "F104310100978", "P29_003": "16007", "P29_004": "東北文化学園大学", "P29_005": "宮城県仙台市青葉区国見6-45-1", "P29_006": "4", "P29_007": "0", "P29_008": "00", "P29_009": null }, "geometry": { "type": "Point", "coordinates": [ 140.834181377946237, 38.276706478639419 ] } },
{ "type": "Feature", "properties": { "P29_001": "04207", "P29_002": "F104310100987", "P29_003": "16007", "P29_004": "尚絅学院大学", "P29_005": "宮城県名取市ゆりが丘4-10-1", "P29_006": "4", "P29_007": "0", "P29_008": "00", "P29_009": null }, "geometry": { "type": "Point", "coordinates": [ 140.829293378412331, 38.195922887027784 ] } },
{ "type": "Feature", "properties": { "P29_001": "04101", "P29_002": "F104110100856", "P29_003": "16007", "P29_004": "東北大学", "P29_005": "宮城県仙台市青葉区荒巻青葉6-3", "P29_006": "1", "P29_007": "0", "P29_008": "02", "P29_009": "青葉山北キャンパス" }, "geometry": { "type": "Point", "coordinates": [ 140.836656425771423, 38.257976289438773 ] } },
{ "type": "Feature", "properties": { "P29_001": "04101", "P29_002": "F104110100856", "P29_003": "16007", "P29_004": "東北大学", "P29_005": "宮城県仙台市青葉区荒巻青葉6-6", "P29_006": "1", "P29_007": "0", "P29_008": "03", "P29_009": "青葉山東キャンパス" }, "geometry": { "type": "Point", "coordinates": [ 140.838383314610553, 38.255094842244922 ] } },
{ "type": "Feature", "properties": { "P29_001": "04101", "P29_002": "F104110100856", "P29_003": "16007", "P29_004": "東北大学", "P29_005": "宮城県仙台市青葉区星陵町2-1", "P29_006": "1", "P29_007": "0", "P29_008": "04", "P29_009": "星陵キャンパス・学部・医学系研究科" }, "geometry": { "type": "Point", "coordinates": [ 140.858954911518566, 38.271745111466764 ] } },
{ "type": "Feature", "properties": { "P29_001": "04101", "P29_002": "F104110100856", "P29_003": "16007", "P29_004": "東北大学", "P29_005": "宮城県仙台市青葉区星陵町4-1", "P29_006": "1", "P29_007": "0", "P29_008": "05", "P29_009": "星陵キャンパス・歯学部・歯学研究科" }, "geometry": { "type": "Point", "coordinates": [ 140.860950465188751, 38.273979253258922 ] } },
{ "type": "Feature", "properties": { "P29_001": "04101", "P29_002": "F104110100856", "P29_003": "16007", "P29_004": "東北大学", "P29_005": "宮城県仙台市青葉区川内27-1", "P29_006": "1", "P29_007": "0", "P29_008": "06", "P29_009": "川内南キャンパス" }, "geometry": { "type": "Point", "coordinates": [ 140.852698808944012, 38.257364549878922 ] } },
{ "type": "Feature", "properties": { "P29_001": "04101", "P29_002": "F104110100856", "P29_003": "16007", "P29_004": "東北大学", "P29_005": "宮城県仙台市青葉区川内41", "P29_006": "1", "P29_007": "0", "P29_008": "07", "P29_009": "川内北キャンパス" }, "geometry": { "type": "Point", "coordinates": [ 140.851393046521508, 38.260183756849536 ] } },
{ "type": "Feature", "properties": { "P29_001": "04101", "P29_002": "F104110100856", "P29_003": "16007", "P29_004": "東北大学", "P29_005": "宮城県仙台市青葉区荒巻青葉468-1", "P29_006": "1", "P29_007": "0", "P29_008": "08", "P29_009": "青葉山新キャンパス" }, "geometry": { "type": "Point", "coordinates": [ 140.830822288864795, 38.255536451447846 ] } },
{ "type": "Feature", "properties": { "P29_001": "04104", "P29_002": "F104210100872", "P29_003": "16007", "P29_004": "宮城大学", "P29_005": "宮城県仙台市太白区旗立2-2-1", "P29_006": "3", "P29_007": "0", "P29_008": "02", "P29_009": "太白キャンパス" }, "geometry": { "type": "Point", "coordinates": [ 140.816641095687743, 38.223675750995078 ] } },
{ "type": "Feature", "properties": { "P29_001": "04105", "P29_002": "F104310100898", "P29_003": "16007", "P29_004": "東北学院大学", "P29_005": "宮城県仙台市泉区天神沢2-1-1", "P29_006": "4", "P29_007": "0", "P29_008": "02", "P29_009": "泉キャンパス" }, "geometry": { "type": "Point", "coordinates": [ 140.902488759138805, 38.329376405159529 ] } },
{ "type": "Feature", "properties": { "P29_001": "04103", "P29_002": "F104310100898", "P29_003": "16007", "P29_004": "東北学院大学", "P29_005": "宮城県仙台市若林区清水小路3-1", "P29_006": "4", "P29_007": "0", "P29_008": "03", "P29_009": "五橋キャンパス" }, "geometry": { "type": "Point", "coordinates": [ 140.881939643953189, 38.250851808992309 ] } },
{ "type": "Feature", "properties": { "P29_001": "04104", "P29_002": "F104310100905", "P29_003": "16007", "P29_004": "東北工業大学", "P29_005": "宮城県仙台市太白区二ツ沢6", "P29_006": "4", "P29_007": "0", "P29_008": "02", "P29_009": "長町キャンパス" }, "geometry": { "type": "Point", "coordinates": [ 140.872860413262515, 38.234966205370149 ] } }
]
}
