{
"type": "FeatureCollection",
"name": "geo_04_看護小規模多機能型居宅介護（複合型サービス）",
"crs": { "type": "name", "properties": { "name": "urn:ogc:def:crs:OGC:1.3:CRS84" } },
"features": [
{ "type": "Feature", "properties": { "内容": "看護小規模多機能型居宅介護　国見あおば翔裕園【看護小規模多機能型居宅介護（複合型サービス）】宮城県仙台市青葉区国見6丁目86-1国見あおば翔裕園", "url2": "https://www.kaigokensaku.mhlw.go.jp/04/index.php?action_kouhyou_detail_004_kani=true&JigyosyoCd=0495100349-00&ServiceCd=&Type=search" }, "geometry": { "type": "Point", "coordinates": [ 140.829339299999987, 38.2825927 ] } },
{ "type": "Feature", "properties": { "内容": "こめっと台原【看護小規模多機能型居宅介護（複合型サービス）】台原6丁目7-10", "url2": "https://www.kaigokensaku.mhlw.go.jp/04/index.php?action_kouhyou_detail_004_kani=true&JigyosyoCd=0495100786-00&ServiceCd=&Type=search" }, "geometry": { "type": "Point", "coordinates": [ 140.879015, 38.2800548 ] } },
{ "type": "Feature", "properties": { "内容": "包括ケアステーション　ベルカナ【看護小規模多機能型居宅介護（複合型サービス）】宮城県仙台市宮城野区幸町2-11-16", "url2": "https://www.kaigokensaku.mhlw.go.jp/04/index.php?action_kouhyou_detail_004_kani=true&JigyosyoCd=0495200610-00&ServiceCd=&Type=search" }, "geometry": { "type": "Point", "coordinates": [ 140.896761899999973, 38.2737828 ] } },
{ "type": "Feature", "properties": { "内容": "セントケア看護小規模仙台中野【看護小規模多機能型居宅介護（複合型サービス）】宮城県仙台市宮城野区福室7丁目1-71看護小規模仙台中野", "url2": "https://www.kaigokensaku.mhlw.go.jp/04/index.php?action_kouhyou_detail_004_kani=true&JigyosyoCd=0495200313-00&ServiceCd=&Type=search" }, "geometry": { "type": "Point", "coordinates": [ 140.975587041139192, 38.281465606950086 ] } },
{ "type": "Feature", "properties": { "内容": "看護小規模多機能型居宅介護ハートケア鶴ケ谷【看護小規模多機能型居宅介護（複合型サービス）】宮城県仙台市宮城野区鶴ケ谷2丁目1-13特別養護老人ホームハートケア鶴ケ谷", "url2": "https://www.kaigokensaku.mhlw.go.jp/04/index.php?action_kouhyou_detail_004_kani=true&JigyosyoCd=0495200396-00&ServiceCd=&Type=search" }, "geometry": { "type": "Point", "coordinates": [ 140.913911, 38.2868836 ] } },
{ "type": "Feature", "properties": { "内容": "看護小規模多機能ここさいむら小田原【看護小規模多機能型居宅介護（複合型サービス）】宮城県仙台市宮城野区小田原3丁目４－５５ここさいむら小田原", "url2": "https://www.kaigokensaku.mhlw.go.jp/04/index.php?action_kouhyou_detail_004_kani=true&JigyosyoCd=0495200271-00&ServiceCd=&Type=search" }, "geometry": { "type": "Point", "coordinates": [ 140.894605800000022, 38.2682861 ] } },
{ "type": "Feature", "properties": { "内容": "包括ケアステーション　ソエル【看護小規模多機能型居宅介護（複合型サービス）】宮城県仙台市若林区上飯田1丁目16-39", "url2": "https://www.kaigokensaku.mhlw.go.jp/04/index.php?action_kouhyou_detail_004_kani=true&JigyosyoCd=0495300329-00&ServiceCd=&Type=search" }, "geometry": { "type": "Point", "coordinates": [ 140.917396906498652, 38.219735021753912 ] } },
{ "type": "Feature", "properties": { "内容": "HOCカンタキ【看護小規模多機能型居宅介護（複合型サービス）】宮城県仙台市若林区なないろの里1-19-2", "url2": "https://www.kaigokensaku.mhlw.go.jp/04/index.php?action_kouhyou_detail_004_kani=true&JigyosyoCd=0495300337-00&ServiceCd=&Type=search" }, "geometry": { "type": "Point", "coordinates": [ 140.927260499999988, 38.2389791 ] } },
{ "type": "Feature", "properties": { "内容": "セントケア看護小規模仙台荒井【看護小規模多機能型居宅介護（複合型サービス）】宮城県仙台市若林荒井東一丁目4番地１２", "url2": "https://www.kaigokensaku.mhlw.go.jp/04/index.php?action_kouhyou_detail_004_kani=true&JigyosyoCd=0495300394-00&ServiceCd=&Type=search" }, "geometry": { "type": "Point", "coordinates": [ 140.9489549, 38.2424444 ] } },
{ "type": "Feature", "properties": { "内容": "ライフの学校共生型看護多機能センター六郷キャンパス【看護小規模多機能型居宅介護（複合型サービス）】今泉字門暮126番1", "url2": "https://www.kaigokensaku.mhlw.go.jp/04/index.php?action_kouhyou_detail_004_kani=true&JigyosyoCd=0495300485-00&ServiceCd=&Type=search" }, "geometry": { "type": "Point", "coordinates": [ 140.9316332, 38.2128609 ] } },
{ "type": "Feature", "properties": { "内容": "看護小規模多機能型居宅介護夢眠あらまち【看護小規模多機能型居宅介護（複合型サービス）】荒町15番3号", "url2": "https://www.kaigokensaku.mhlw.go.jp/04/index.php?action_kouhyou_detail_004_kani=true&JigyosyoCd=0495300469-00&ServiceCd=&Type=search" }, "geometry": { "type": "Point", "coordinates": [ 140.8864154, 38.2478728 ] } },
{ "type": "Feature", "properties": { "内容": "包括ケアステーションアルネ【看護小規模多機能型居宅介護（複合型サービス）】宮城県仙台市若林区遠見塚二丁目18-60包括ケアステーションアルネ", "url2": "https://www.kaigokensaku.mhlw.go.jp/04/index.php?action_kouhyou_detail_004_kani=true&JigyosyoCd=0495300527-00&ServiceCd=&Type=search" }, "geometry": { "type": "Point", "coordinates": [ 140.912341304893516, 38.240821852005325 ] } },
{ "type": "Feature", "properties": { "内容": "看護小規模多機能型居宅介護リエンズ【看護小規模多機能型居宅介護（複合型サービス）】宮城県仙台市太白区西中田6丁目14-17", "url2": "https://www.kaigokensaku.mhlw.go.jp/04/index.php?action_kouhyou_detail_004_kani=true&JigyosyoCd=0495400483-00&ServiceCd=&Type=search" }, "geometry": { "type": "Point", "coordinates": [ 140.8797604, 38.1905539 ] } },
{ "type": "Feature", "properties": { "内容": "看護小規模多機能あゆみ【看護小規模多機能型居宅介護（複合型サービス）】宮城県仙台市太白区袋原字小原４５－１", "url2": "https://www.kaigokensaku.mhlw.go.jp/04/index.php?action_kouhyou_detail_004_kani=true&JigyosyoCd=0495400558-00&ServiceCd=&Type=search" }, "geometry": { "type": "Point", "coordinates": [ 140.904770784105267, 38.197148795822578 ] } },
{ "type": "Feature", "properties": { "内容": "看護小規模多機能型居宅介護　かがやき【看護小規模多機能型居宅介護（複合型サービス）】宮城県仙台市太白区茂庭台３丁目３０番３０号ないとうクリニック複合サービスセンター", "url2": "https://www.kaigokensaku.mhlw.go.jp/04/index.php?action_kouhyou_detail_004_kani=true&JigyosyoCd=0495400244-00&ServiceCd=&Type=search" }, "geometry": { "type": "Point", "coordinates": [ 140.789130600000021, 38.2394105 ] } },
{ "type": "Feature", "properties": { "内容": "看護小規模多機能型居宅介護ノテ富沢【看護小規模多機能型居宅介護（複合型サービス）】宮城県仙台市太白区富沢西3丁目10番地の1特別養護老人ホームノテとみざわの里内", "url2": "https://www.kaigokensaku.mhlw.go.jp/04/index.php?action_kouhyou_detail_004_kani=true&JigyosyoCd=0495400459-00&ServiceCd=&Type=search" }, "geometry": { "type": "Point", "coordinates": [ 140.855023917999233, 38.209539517416353 ] } },
{ "type": "Feature", "properties": { "内容": "セントケア看護小規模仙台太白【看護小規模多機能型居宅介護（複合型サービス）】宮城県仙台市太白区山田新町72番地セントケア仙台太白", "url2": "https://www.kaigokensaku.mhlw.go.jp/04/index.php?action_kouhyou_detail_004_kani=true&JigyosyoCd=0495400327-00&ServiceCd=&Type=search" }, "geometry": { "type": "Point", "coordinates": [ 140.8345938, 38.2177337 ] } },
{ "type": "Feature", "properties": { "内容": "看護小規模多機能型ホームくらしさ八木山香澄【看護小規模多機能型居宅介護（複合型サービス）】宮城県仙台市太白区八木山香澄11-25くらしさ八木山香澄", "url2": "https://www.kaigokensaku.mhlw.go.jp/04/index.php?action_kouhyou_detail_004_kani=true&JigyosyoCd=0495400814-00&ServiceCd=&Type=search" }, "geometry": { "type": "Point", "coordinates": [ 140.860477, 38.2461608 ] } },
{ "type": "Feature", "properties": { "内容": "泉看護小規模多機能【看護小規模多機能型居宅介護（複合型サービス）】宮城県仙台市泉区泉中央1-39-1", "url2": "https://www.kaigokensaku.mhlw.go.jp/04/index.php?action_kouhyou_detail_004_kani=true&JigyosyoCd=0495500837-00&ServiceCd=&Type=search" }, "geometry": { "type": "Point", "coordinates": [ 140.874783900000011, 38.3243329 ] } },
{ "type": "Feature", "properties": { "内容": "松田病院　看護小規模多機能【看護小規模多機能型居宅介護（複合型サービス）】宮城県仙台市泉区実沢立田屋敷１７番地の１", "url2": "https://www.kaigokensaku.mhlw.go.jp/04/index.php?action_kouhyou_detail_004_kani=true&JigyosyoCd=0495500589-00&ServiceCd=&Type=search" }, "geometry": { "type": "Point", "coordinates": [ 140.8392293, 38.3348206 ] } },
{ "type": "Feature", "properties": { "内容": "寺岡クリニック　看護小規模多機能【看護小規模多機能型居宅介護（複合型サービス）】宮城県仙台市泉区寺岡5丁目8-2寺岡クリニック", "url2": "https://www.kaigokensaku.mhlw.go.jp/04/index.php?action_kouhyou_detail_004_kani=true&JigyosyoCd=0495500514-00&ServiceCd=&Type=search" }, "geometry": { "type": "Point", "coordinates": [ 140.827202599999964, 38.3435103 ] } },
{ "type": "Feature", "properties": { "内容": "セントケア看護小規模松森【看護小規模多機能型居宅介護（複合型サービス）】宮城県仙台市泉区松森字新田180番地", "url2": "https://www.kaigokensaku.mhlw.go.jp/04/index.php?action_kouhyou_detail_004_kani=true&JigyosyoCd=0495500795-00&ServiceCd=&Type=search" }, "geometry": { "type": "Point", "coordinates": [ 140.906940921638324, 38.303124787448496 ] } },
{ "type": "Feature", "properties": { "内容": "医療法人社団　健育会　ナースインホーム　ひまわり【看護小規模多機能型居宅介護（複合型サービス）】宮城県石巻市大街道西3丁目1番28号", "url2": "https://www.kaigokensaku.mhlw.go.jp/04/index.php?action_kouhyou_detail_004_kani=true&JigyosyoCd=0490200193-00&ServiceCd=&Type=search" }, "geometry": { "type": "Point", "coordinates": [ 141.271355164418111, 38.430499345186121 ] } },
{ "type": "Feature", "properties": { "内容": "セントケア看護小規模石巻丸井戸【看護小規模多機能型居宅介護（複合型サービス）】石巻市丸井戸二丁目1-8", "url2": "https://www.kaigokensaku.mhlw.go.jp/04/index.php?action_kouhyou_detail_004_kani=true&JigyosyoCd=0490200359-00&ServiceCd=&Type=search" }, "geometry": { "type": "Point", "coordinates": [ 141.2826887, 38.4457027 ] } },
{ "type": "Feature", "properties": { "内容": "看護小規模多機能　リズム白石蔵王【看護小規模多機能型居宅介護（複合型サービス）】宮城県白石市鷹巣東三丁目8番1号リズム白石蔵王", "url2": "https://www.kaigokensaku.mhlw.go.jp/04/index.php?action_kouhyou_detail_004_kani=true&JigyosyoCd=0490600087-00&ServiceCd=&Type=search" }, "geometry": { "type": "Point", "coordinates": [ 140.639150958196979, 37.997169427382794 ] } },
{ "type": "Feature", "properties": { "内容": "医療法人金上仁友会　看護小規模多機能型居宅介護金上【看護小規模多機能型居宅介護（複合型サービス）】宮城県角田市角田字中島上183看護小規模多機能型居宅介護金上　住宅型有料老人ホームタンポポ", "url2": "https://www.kaigokensaku.mhlw.go.jp/04/index.php?action_kouhyou_detail_004_kani=true&JigyosyoCd=0490800059-00&ServiceCd=&Type=search" }, "geometry": { "type": "Point", "coordinates": [ 140.7875338, 37.9721027 ] } },
{ "type": "Feature", "properties": { "内容": "セントケア看護小規模大崎大宮【看護小規模多機能型居宅介護（複合型サービス）】宮城県大崎市古川大宮二丁目1番24-1号セントケア看護小規模大崎大宮", "url2": "https://www.kaigokensaku.mhlw.go.jp/04/index.php?action_kouhyou_detail_004_kani=true&JigyosyoCd=0491500419-00&ServiceCd=&Type=search" }, "geometry": { "type": "Point", "coordinates": [ 140.9537517, 38.583652400000013 ] } },
{ "type": "Feature", "properties": { "内容": "ケアビレッジ大崎ケアサービスステーション看護小規模多機能型居宅介護事業所【看護小規模多機能型居宅介護（複合型サービス）】宮城県大崎市古川稲葉1丁目7-30", "url2": "https://www.kaigokensaku.mhlw.go.jp/04/index.php?action_kouhyou_detail_004_kani=true&JigyosyoCd=0491500492-00&ServiceCd=&Type=search" }, "geometry": { "type": "Point", "coordinates": [ 140.950489, 38.5595666 ] } },
{ "type": "Feature", "properties": { "内容": "富谷複合型サービス事業所あおい【看護小規模多機能型居宅介護（複合型サービス）】宮城県富谷市富谷一枚沖10", "url2": "https://www.kaigokensaku.mhlw.go.jp/04/index.php?action_kouhyou_detail_004_kani=true&JigyosyoCd=0491600011-00&ServiceCd=&Type=search" }, "geometry": { "type": "Point", "coordinates": [ 140.883897599999955, 38.399184 ] } },
{ "type": "Feature", "properties": { "内容": "ナーシングホームつばさ亘理【看護小規模多機能型居宅介護（複合型サービス）】宮城県亘理郡亘理町逢隈中泉字上谷地264-3", "url2": "https://www.kaigokensaku.mhlw.go.jp/04/index.php?action_kouhyou_detail_004_kani=true&JigyosyoCd=0492400106-00&ServiceCd=&Type=search" }, "geometry": { "type": "Point", "coordinates": [ 140.8773765, 38.0858605 ] } },
{ "type": "Feature", "properties": { "内容": "ケアビレッジ美里　ケアてらす中埣　看護小規模多機能型居宅介護事業所【看護小規模多機能型居宅介護（複合型サービス）】宮城県遠田郡美里町中埣字丸池29番地", "url2": "https://www.kaigokensaku.mhlw.go.jp/04/index.php?action_kouhyou_detail_004_kani=true&JigyosyoCd=0493100135-00&ServiceCd=&Type=search" }, "geometry": { "type": "Point", "coordinates": [ 141.0377503, 38.5733375 ] } }
]
}
