{
"type": "FeatureCollection",
"name": "geo_04_中学校",
"crs": { "type": "name", "properties": { "name": "urn:ogc:def:crs:EPSG::6668" } },
"features": [
{ "type": "Feature", "properties": { "P29_001": "04101", "P29_002": "C104110000015", "P29_003": "16002", "P29_004": "宮城教育大学附属中学校", "P29_005": "宮城県仙台市青葉区上杉6-4-1", "P29_006": "1", "P29_007": "1", "P29_008": "00", "P29_009": null }, "geometry": { "type": "Point", "coordinates": [ 140.875864447988334, 38.277129958680824 ] } },
{ "type": "Feature", "properties": { "P29_001": "04103", "P29_002": "C104211030015", "P29_003": "16002", "P29_004": "宮城県仙台二華中学校", "P29_005": "宮城県仙台市若林区連坊1-4-1", "P29_006": "2", "P29_007": "1", "P29_008": "00", "P29_009": null }, "geometry": { "type": "Point", "coordinates": [ 140.887180148894316, 38.253019513715479 ] } },
{ "type": "Feature", "properties": { "P29_001": "04215", "P29_002": "C104212150017", "P29_003": "16002", "P29_004": "宮城県古川黎明中学校", "P29_005": "宮城県大崎市古川諏訪1-4-26", "P29_006": "2", "P29_007": "1", "P29_008": "00", "P29_009": null }, "geometry": { "type": "Point", "coordinates": [ 140.950401953966832, 38.580230391421104 ] } },
{ "type": "Feature", "properties": { "P29_001": "04101", "P29_002": "C104221010018", "P29_003": "16002", "P29_004": "仙台市立第一中学校", "P29_005": "宮城県仙台市青葉区八幡4-16-1", "P29_006": "3", "P29_007": "1", "P29_008": "00", "P29_009": null }, "geometry": { "type": "Point", "coordinates": [ 140.846025993451008, 38.272703549887957 ] } },
{ "type": "Feature", "properties": { "P29_001": "04101", "P29_002": "C104221010027", "P29_003": "16002", "P29_004": "仙台市立第二中学校", "P29_005": "宮城県仙台市青葉区木町通2-4-1", "P29_006": "3", "P29_007": "1", "P29_008": "00", "P29_009": null }, "geometry": { "type": "Point", "coordinates": [ 140.864063331685173, 38.273612946554387 ] } },
{ "type": "Feature", "properties": { "P29_001": "04101", "P29_002": "C104221010036", "P29_003": "16002", "P29_004": "仙台市立三条中学校", "P29_005": "宮城県仙台市青葉区三条町3-1", "P29_006": "3", "P29_007": "1", "P29_008": "00", "P29_009": null }, "geometry": { "type": "Point", "coordinates": [ 140.853407120719424, 38.280128751662751 ] } },
{ "type": "Feature", "properties": { "P29_001": "04101", "P29_002": "C104221010045", "P29_003": "16002", "P29_004": "仙台市立上杉山中学校", "P29_005": "宮城県仙台市青葉区上杉6-7-1", "P29_006": "3", "P29_007": "1", "P29_008": "00", "P29_009": null }, "geometry": { "type": "Point", "coordinates": [ 140.87362586888662, 38.279094135637806 ] } },
{ "type": "Feature", "properties": { "P29_001": "04101", "P29_002": "C104221010054", "P29_003": "16002", "P29_004": "仙台市立五城中学校", "P29_005": "宮城県仙台市青葉区東照宮1-3-1", "P29_006": "3", "P29_007": "1", "P29_008": "00", "P29_009": null }, "geometry": { "type": "Point", "coordinates": [ 140.882469599079201, 38.279222936384429 ] } },
{ "type": "Feature", "properties": { "P29_001": "04101", "P29_002": "C104221010063", "P29_003": "16002", "P29_004": "仙台市立五橋中学校", "P29_005": "宮城県仙台市青葉区五橋2-2-1", "P29_006": "3", "P29_007": "1", "P29_008": "00", "P29_009": null }, "geometry": { "type": "Point", "coordinates": [ 140.879354991307878, 38.252098134982766 ] } },
{ "type": "Feature", "properties": { "P29_001": "04101", "P29_002": "C104221010072", "P29_003": "16002", "P29_004": "仙台市立台原中学校", "P29_005": "宮城県仙台市青葉区台原5-19-1", "P29_006": "3", "P29_007": "1", "P29_008": "00", "P29_009": null }, "geometry": { "type": "Point", "coordinates": [ 140.880648774535331, 38.286975803621857 ] } },
{ "type": "Feature", "properties": { "P29_001": "04101", "P29_002": "C104221010081", "P29_003": "16002", "P29_004": "仙台市立北仙台中学校", "P29_005": "宮城県仙台市青葉区東勝山2-31-1", "P29_006": "3", "P29_007": "1", "P29_008": "00", "P29_009": null }, "geometry": { "type": "Point", "coordinates": [ 140.86385225255637, 38.293328240031883 ] } },
{ "type": "Feature", "properties": { "P29_001": "04101", "P29_002": "C104221010090", "P29_003": "16002", "P29_004": "仙台市立中山中学校", "P29_005": "宮城県仙台市青葉区中山6-16-1", "P29_006": "3", "P29_007": "1", "P29_008": "00", "P29_009": null }, "geometry": { "type": "Point", "coordinates": [ 140.838971117556895, 38.296674360326271 ] } },
{ "type": "Feature", "properties": { "P29_001": "04101", "P29_002": "C104221010107", "P29_003": "16002", "P29_004": "仙台市立広瀬中学校", "P29_005": "宮城県仙台市青葉区愛子中央1-9-1", "P29_006": "3", "P29_007": "1", "P29_008": "00", "P29_009": null }, "geometry": { "type": "Point", "coordinates": [ 140.762840160013781, 38.273911688520435 ] } },
{ "type": "Feature", "properties": { "P29_001": "04101", "P29_002": "C104221010116", "P29_003": "16002", "P29_004": "仙台市立大沢中学校", "P29_005": "宮城県仙台市青葉区赤坂1-2-1", "P29_006": "3", "P29_007": "1", "P29_008": "00", "P29_009": null }, "geometry": { "type": "Point", "coordinates": [ 140.750227276201002, 38.291925246116264 ] } },
{ "type": "Feature", "properties": { "P29_001": "04101", "P29_002": "C104221010125", "P29_003": "16002", "P29_004": "仙台市立桜丘中学校", "P29_005": "宮城県仙台市青葉区桜ヶ丘8-2-1", "P29_006": "3", "P29_007": "1", "P29_008": "00", "P29_009": null }, "geometry": { "type": "Point", "coordinates": [ 140.852034101876114, 38.3041729685986 ] } },
{ "type": "Feature", "properties": { "P29_001": "04101", "P29_002": "C104221010134", "P29_003": "16002", "P29_004": "仙台市立吉成中学校", "P29_005": "宮城県仙台市青葉区吉成1-12-1", "P29_006": "3", "P29_007": "1", "P29_008": "00", "P29_009": null }, "geometry": { "type": "Point", "coordinates": [ 140.824881257092727, 38.288939363547136 ] } },
{ "type": "Feature", "properties": { "P29_001": "04101", "P29_002": "C104221010143", "P29_003": "16002", "P29_004": "仙台市立折立中学校", "P29_005": "宮城県仙台市青葉区折立3-19-1", "P29_006": "3", "P29_007": "1", "P29_008": "00", "P29_009": null }, "geometry": { "type": "Point", "coordinates": [ 140.806522598579335, 38.265700781726956 ] } },
{ "type": "Feature", "properties": { "P29_001": "04101", "P29_002": "C104221010152", "P29_003": "16002", "P29_004": "仙台市立南吉成中学校", "P29_005": "宮城県仙台市青葉区南吉成5-18-2", "P29_006": "3", "P29_007": "1", "P29_008": "00", "P29_009": null }, "geometry": { "type": "Point", "coordinates": [ 140.812717548723583, 38.292285023960709 ] } },
{ "type": "Feature", "properties": { "P29_001": "04101", "P29_002": "C104221010161", "P29_003": "16002", "P29_004": "仙台市立広陵中学校", "P29_005": "宮城県仙台市青葉区熊ヶ根字石積1-2", "P29_006": "3", "P29_007": "1", "P29_008": "00", "P29_009": null }, "geometry": { "type": "Point", "coordinates": [ 140.68170483517315, 38.299973882505128 ] } },
{ "type": "Feature", "properties": { "P29_001": "04101", "P29_002": "C104221010170", "P29_003": "16002", "P29_004": "仙台市立第二中学校東北大学病院分校", "P29_005": "宮城県仙台市青葉区星陵町1-1", "P29_006": "3", "P29_007": "1", "P29_008": "00", "P29_009": null }, "geometry": { "type": "Point", "coordinates": [ 140.861045253401556, 38.272171713006536 ] } },
{ "type": "Feature", "properties": { "P29_001": "04101", "P29_002": "C104221010189", "P29_003": "16002", "P29_004": "仙台市立錦ケ丘中学校", "P29_005": "宮城県仙台市青葉区錦ヶ丘1-1-7", "P29_006": "3", "P29_007": "1", "P29_008": "00", "P29_009": null }, "geometry": { "type": "Point", "coordinates": [ 140.764842030174236, 38.264040502804789 ] } },
{ "type": "Feature", "properties": { "P29_001": "04102", "P29_002": "C104221020016", "P29_003": "16002", "P29_004": "仙台市立東華中学校", "P29_005": "宮城県仙台市宮城野区宮城野2-14-27", "P29_006": "3", "P29_007": "1", "P29_008": "00", "P29_009": null }, "geometry": { "type": "Point", "coordinates": [ 140.899795804964043, 38.25452476492417 ] } },
{ "type": "Feature", "properties": { "P29_001": "04102", "P29_002": "C104221020025", "P29_003": "16002", "P29_004": "仙台市立宮城野中学校", "P29_005": "宮城県仙台市宮城野区五輪1-4-25", "P29_006": "3", "P29_007": "1", "P29_008": "00", "P29_009": null }, "geometry": { "type": "Point", "coordinates": [ 140.90001931650292, 38.262606301499538 ] } },
{ "type": "Feature", "properties": { "P29_001": "04102", "P29_002": "C104221020034", "P29_003": "16002", "P29_004": "仙台市立岩切中学校", "P29_005": "宮城県仙台市宮城野区岩切字三所南23-2", "P29_006": "3", "P29_007": "1", "P29_008": "00", "P29_009": null }, "geometry": { "type": "Point", "coordinates": [ 140.94395532272847, 38.301467468080276 ] } },
{ "type": "Feature", "properties": { "P29_001": "04102", "P29_002": "C104221020043", "P29_003": "16002", "P29_004": "仙台市立高砂中学校", "P29_005": "宮城県仙台市宮城野区白鳥1-32-1", "P29_006": "3", "P29_007": "1", "P29_008": "00", "P29_009": null }, "geometry": { "type": "Point", "coordinates": [ 140.976939594265929, 38.2648506795 ] } },
{ "type": "Feature", "properties": { "P29_001": "04102", "P29_002": "C104221020052", "P29_003": "16002", "P29_004": "仙台市立東仙台中学校", "P29_005": "宮城県仙台市宮城野区東仙台2-16-1", "P29_006": "3", "P29_007": "1", "P29_008": "00", "P29_009": null }, "geometry": { "type": "Point", "coordinates": [ 140.91765004060332, 38.27747728958331 ] } },
{ "type": "Feature", "properties": { "P29_001": "04102", "P29_002": "C104221020061", "P29_003": "16002", "P29_004": "仙台市立鶴谷中学校", "P29_005": "宮城県仙台市宮城野区鶴ヶ谷5-24", "P29_006": "3", "P29_007": "1", "P29_008": "00", "P29_009": null }, "geometry": { "type": "Point", "coordinates": [ 140.914993130771819, 38.292346685147777 ] } },
{ "type": "Feature", "properties": { "P29_001": "04102", "P29_002": "C104221020070", "P29_003": "16002", "P29_004": "仙台市立中野中学校", "P29_005": "宮城県仙台市宮城野区中野字高橋前65", "P29_006": "3", "P29_007": "1", "P29_008": "00", "P29_009": null }, "geometry": { "type": "Point", "coordinates": [ 140.975382506862218, 38.282360732201681 ] } },
{ "type": "Feature", "properties": { "P29_001": "04102", "P29_002": "C104221020089", "P29_003": "16002", "P29_004": "仙台市立幸町中学校", "P29_005": "宮城県仙台市宮城野区幸町1-15-1", "P29_006": "3", "P29_007": "1", "P29_008": "00", "P29_009": null }, "geometry": { "type": "Point", "coordinates": [ 140.89348700092529, 38.277555358012684 ] } },
{ "type": "Feature", "properties": { "P29_001": "04102", "P29_002": "C104221020098", "P29_003": "16002", "P29_004": "仙台市立西山中学校", "P29_005": "宮城県仙台市宮城野区燕沢2-21-1", "P29_006": "3", "P29_007": "1", "P29_008": "00", "P29_009": null }, "geometry": { "type": "Point", "coordinates": [ 140.917421559603639, 38.282787446041695 ] } },
{ "type": "Feature", "properties": { "P29_001": "04102", "P29_002": "C104221020105", "P29_003": "16002", "P29_004": "仙台市立田子中学校", "P29_005": "宮城県仙台市宮城野区田子2-12-1", "P29_006": "3", "P29_007": "1", "P29_008": "00", "P29_009": null }, "geometry": { "type": "Point", "coordinates": [ 140.958087979318037, 38.278795961791701 ] } },
{ "type": "Feature", "properties": { "P29_001": "04103", "P29_002": "C104221030014", "P29_003": "16002", "P29_004": "仙台市立八軒中学校", "P29_005": "宮城県仙台市若林区南小泉八軒小路9-1", "P29_006": "3", "P29_007": "1", "P29_008": "00", "P29_009": null }, "geometry": { "type": "Point", "coordinates": [ 140.892141292486343, 38.241433591253418 ] } },
{ "type": "Feature", "properties": { "P29_001": "04103", "P29_002": "C104221030023", "P29_003": "16002", "P29_004": "仙台市立南小泉中学校", "P29_005": "宮城県仙台市若林区一本杉町2-1", "P29_006": "3", "P29_007": "1", "P29_008": "00", "P29_009": null }, "geometry": { "type": "Point", "coordinates": [ 140.904593290327909, 38.243979808486479 ] } },
{ "type": "Feature", "properties": { "P29_001": "04103", "P29_002": "C104221030032", "P29_003": "16002", "P29_004": "仙台市立六郷中学校", "P29_005": "宮城県仙台市若林区六郷13-1", "P29_006": "3", "P29_007": "1", "P29_008": "00", "P29_009": null }, "geometry": { "type": "Point", "coordinates": [ 140.933634645881341, 38.213545053790291 ] } },
{ "type": "Feature", "properties": { "P29_001": "04103", "P29_002": "C104221030041", "P29_003": "16002", "P29_004": "仙台市立七郷中学校", "P29_005": "宮城県仙台市若林区荒井8-1-1", "P29_006": "3", "P29_007": "1", "P29_008": "00", "P29_009": null }, "geometry": { "type": "Point", "coordinates": [ 140.945525270840079, 38.237425366918579 ] } },
{ "type": "Feature", "properties": { "P29_001": "04103", "P29_002": "C104221030050", "P29_003": "16002", "P29_004": "仙台市立蒲町中学校", "P29_005": "宮城県仙台市若林区蒲町9-1", "P29_006": "3", "P29_007": "1", "P29_008": "00", "P29_009": null }, "geometry": { "type": "Point", "coordinates": [ 140.928186947420926, 38.247009685863823 ] } },
{ "type": "Feature", "properties": { "P29_001": "04103", "P29_002": "C104221030069", "P29_003": "16002", "P29_004": "仙台市立沖野中学校", "P29_005": "宮城県仙台市若林区沖野2-29-50", "P29_006": "3", "P29_007": "1", "P29_008": "00", "P29_009": null }, "geometry": { "type": "Point", "coordinates": [ 140.915775493540792, 38.228528990597255 ] } },
{ "type": "Feature", "properties": { "P29_001": "04104", "P29_002": "C104221040012", "P29_003": "16002", "P29_004": "仙台市立愛宕中学校", "P29_005": "宮城県仙台市太白区萩ヶ丘9-1", "P29_006": "3", "P29_007": "1", "P29_008": "00", "P29_009": null }, "geometry": { "type": "Point", "coordinates": [ 140.870737004821621, 38.241750082972935 ] } },
{ "type": "Feature", "properties": { "P29_001": "04104", "P29_002": "C104221040021", "P29_003": "16002", "P29_004": "仙台市立長町中学校", "P29_005": "宮城県仙台市太白区鹿野1-8-1", "P29_006": "3", "P29_007": "1", "P29_008": "00", "P29_009": null }, "geometry": { "type": "Point", "coordinates": [ 140.873389758891477, 38.230554377978287 ] } },
{ "type": "Feature", "properties": { "P29_001": "04104", "P29_002": "C104221040030", "P29_003": "16002", "P29_004": "仙台市立中田中学校", "P29_005": "宮城県仙台市太白区中田5-15-1", "P29_006": "3", "P29_007": "1", "P29_008": "00", "P29_009": null }, "geometry": { "type": "Point", "coordinates": [ 140.889749640450759, 38.196237654962857 ] } },
{ "type": "Feature", "properties": { "P29_001": "04104", "P29_002": "C104221040049", "P29_003": "16002", "P29_004": "仙台市立西多賀中学校", "P29_005": "宮城県仙台市太白区西多賀3-10-1", "P29_006": "3", "P29_007": "1", "P29_008": "00", "P29_009": null }, "geometry": { "type": "Point", "coordinates": [ 140.852249087927987, 38.22586321483535 ] } },
{ "type": "Feature", "properties": { "P29_001": "04104", "P29_002": "C104221040058", "P29_003": "16002", "P29_004": "仙台市立郡山中学校", "P29_005": "宮城県仙台市太白区郡山5-10-1", "P29_006": "3", "P29_007": "1", "P29_008": "00", "P29_009": null }, "geometry": { "type": "Point", "coordinates": [ 140.893468432597416, 38.219901916620017 ] } },
{ "type": "Feature", "properties": { "P29_001": "04104", "P29_002": "C104221040067", "P29_003": "16002", "P29_004": "仙台市立生出中学校", "P29_005": "宮城県仙台市太白区茂庭字中ノ瀬西2-2", "P29_006": "3", "P29_007": "1", "P29_008": "00", "P29_009": null }, "geometry": { "type": "Point", "coordinates": [ 140.789819237759673, 38.219743256566744 ] } },
{ "type": "Feature", "properties": { "P29_001": "04104", "P29_002": "C104221040076", "P29_003": "16002", "P29_004": "仙台市立八木山中学校", "P29_005": "宮城県仙台市太白区八木山東2-27-1", "P29_006": "3", "P29_007": "1", "P29_008": "00", "P29_009": null }, "geometry": { "type": "Point", "coordinates": [ 140.845491666764985, 38.237145329653998 ] } },
{ "type": "Feature", "properties": { "P29_001": "04104", "P29_002": "C104221040085", "P29_003": "16002", "P29_004": "仙台市立山田中学校", "P29_005": "宮城県仙台市太白区山田北前町36-1", "P29_006": "3", "P29_007": "1", "P29_008": "00", "P29_009": null }, "geometry": { "type": "Point", "coordinates": [ 140.827921150241849, 38.221110373884244 ] } },
{ "type": "Feature", "properties": { "P29_001": "04104", "P29_002": "C104221040094", "P29_003": "16002", "P29_004": "仙台市立秋保中学校", "P29_005": "宮城県仙台市太白区秋保町長袋字大原45-5", "P29_006": "3", "P29_007": "1", "P29_008": "00", "P29_009": null }, "geometry": { "type": "Point", "coordinates": [ 140.672817429426146, 38.259544364852893 ] } },
{ "type": "Feature", "properties": { "P29_001": "04104", "P29_002": "C104221040101", "P29_003": "16002", "P29_004": "仙台市立袋原中学校", "P29_005": "宮城県仙台市太白区袋原4-27-1", "P29_006": "3", "P29_007": "1", "P29_008": "00", "P29_009": null }, "geometry": { "type": "Point", "coordinates": [ 140.912843338576749, 38.198436848314039 ] } },
{ "type": "Feature", "properties": { "P29_001": "04104", "P29_002": "C104221040110", "P29_003": "16002", "P29_004": "仙台市立人来田中学校", "P29_005": "宮城県仙台市太白区人来田1-35-1", "P29_006": "3", "P29_007": "1", "P29_008": "00", "P29_009": null }, "geometry": { "type": "Point", "coordinates": [ 140.806879559873295, 38.226813073946879 ] } },
{ "type": "Feature", "properties": { "P29_001": "04104", "P29_002": "C104221040129", "P29_003": "16002", "P29_004": "仙台市立富沢中学校", "P29_005": "宮城県仙台市太白区富沢2-4-1", "P29_006": "3", "P29_007": "1", "P29_008": "00", "P29_009": null }, "geometry": { "type": "Point", "coordinates": [ 140.863359249576263, 38.218287547590926 ] } },
{ "type": "Feature", "properties": { "P29_001": "04104", "P29_002": "C104221040138", "P29_003": "16002", "P29_004": "仙台市立茂庭台中学校", "P29_005": "宮城県仙台市太白区茂庭台5-3-1", "P29_006": "3", "P29_007": "1", "P29_008": "00", "P29_009": null }, "geometry": { "type": "Point", "coordinates": [ 140.778563295468814, 38.234149314152056 ] } },
{ "type": "Feature", "properties": { "P29_001": "04104", "P29_002": "C104221040147", "P29_003": "16002", "P29_004": "仙台市立柳生中学校", "P29_005": "宮城県仙台市太白区柳生3-7-3", "P29_006": "3", "P29_007": "1", "P29_008": "00", "P29_009": null }, "geometry": { "type": "Point", "coordinates": [ 140.871968534269115, 38.189081266633188 ] } },
{ "type": "Feature", "properties": { "P29_001": "04105", "P29_002": "C104221050019", "P29_003": "16002", "P29_004": "仙台市立根白石中学校", "P29_005": "宮城県仙台市泉区根白石字東鹿野54", "P29_006": "3", "P29_007": "1", "P29_008": "00", "P29_009": null }, "geometry": { "type": "Point", "coordinates": [ 140.802190303570626, 38.347448207683698 ] } },
{ "type": "Feature", "properties": { "P29_001": "04105", "P29_002": "C104221050028", "P29_003": "16002", "P29_004": "仙台市立七北田中学校", "P29_005": "宮城県仙台市泉区七北田字東裏100", "P29_006": "3", "P29_007": "1", "P29_008": "00", "P29_009": null }, "geometry": { "type": "Point", "coordinates": [ 140.892939522049772, 38.324197914764753 ] } },
{ "type": "Feature", "properties": { "P29_001": "04105", "P29_002": "C104221050037", "P29_003": "16002", "P29_004": "仙台市立八乙女中学校", "P29_005": "宮城県仙台市泉区旭丘堤2-1-1", "P29_006": "3", "P29_007": "1", "P29_008": "00", "P29_009": null }, "geometry": { "type": "Point", "coordinates": [ 140.891607301630302, 38.302726584371563 ] } },
{ "type": "Feature", "properties": { "P29_001": "04105", "P29_002": "C104221050046", "P29_003": "16002", "P29_004": "仙台市立将監中学校", "P29_005": "宮城県仙台市泉区将監9-12-1", "P29_006": "3", "P29_007": "1", "P29_008": "00", "P29_009": null }, "geometry": { "type": "Point", "coordinates": [ 140.870920474679025, 38.333433094874003 ] } },
{ "type": "Feature", "properties": { "P29_001": "04105", "P29_002": "C104221050055", "P29_003": "16002", "P29_004": "仙台市立南光台中学校", "P29_005": "宮城県仙台市泉区南光台7-24-1", "P29_006": "3", "P29_007": "1", "P29_008": "00", "P29_009": null }, "geometry": { "type": "Point", "coordinates": [ 140.901733157376412, 38.302966376990526 ] } },
{ "type": "Feature", "properties": { "P29_001": "04105", "P29_002": "C104221050064", "P29_003": "16002", "P29_004": "仙台市立向陽台中学校", "P29_005": "宮城県仙台市泉区市名坂字天神沢38-4", "P29_006": "3", "P29_007": "1", "P29_008": "00", "P29_009": null }, "geometry": { "type": "Point", "coordinates": [ 140.905945799812685, 38.332680430223725 ] } },
{ "type": "Feature", "properties": { "P29_001": "04105", "P29_002": "C104221050073", "P29_003": "16002", "P29_004": "仙台市立加茂中学校", "P29_005": "宮城県仙台市泉区加茂3-1", "P29_006": "3", "P29_007": "1", "P29_008": "00", "P29_009": null }, "geometry": { "type": "Point", "coordinates": [ 140.853555459386257, 38.315949406478744 ] } },
{ "type": "Feature", "properties": { "P29_001": "04105", "P29_002": "C104221050082", "P29_003": "16002", "P29_004": "仙台市立将監東中学校", "P29_005": "宮城県仙台市泉区将監3-2-15", "P29_006": "3", "P29_007": "1", "P29_008": "00", "P29_009": null }, "geometry": { "type": "Point", "coordinates": [ 140.887099525253291, 38.333174193844698 ] } },
{ "type": "Feature", "properties": { "P29_001": "04105", "P29_002": "C104221050091", "P29_003": "16002", "P29_004": "仙台市立鶴が丘中学校", "P29_005": "宮城県仙台市泉区鶴が丘2-1-1", "P29_006": "3", "P29_007": "1", "P29_008": "00", "P29_009": null }, "geometry": { "type": "Point", "coordinates": [ 140.920522239990248, 38.319057185742437 ] } },
{ "type": "Feature", "properties": { "P29_001": "04105", "P29_002": "C104221050108", "P29_003": "16002", "P29_004": "仙台市立寺岡中学校", "P29_005": "宮城県仙台市泉区寺岡2-13-1", "P29_006": "3", "P29_007": "1", "P29_008": "00", "P29_009": null }, "geometry": { "type": "Point", "coordinates": [ 140.831147590605326, 38.340489229352038 ] } },
{ "type": "Feature", "properties": { "P29_001": "04105", "P29_002": "C104221050117", "P29_003": "16002", "P29_004": "仙台市立南光台東中学校", "P29_005": "宮城県仙台市泉区南光台東3-1-1", "P29_006": "3", "P29_007": "1", "P29_008": "00", "P29_009": null }, "geometry": { "type": "Point", "coordinates": [ 140.915146407711376, 38.302573078326581 ] } },
{ "type": "Feature", "properties": { "P29_001": "04105", "P29_002": "C104221050126", "P29_003": "16002", "P29_004": "仙台市立長命ケ丘中学校", "P29_005": "宮城県仙台市泉区長命ヶ丘2-11-1", "P29_006": "3", "P29_007": "1", "P29_008": "00", "P29_009": null }, "geometry": { "type": "Point", "coordinates": [ 140.840798971005938, 38.312687700027176 ] } },
{ "type": "Feature", "properties": { "P29_001": "04105", "P29_002": "C104221050135", "P29_003": "16002", "P29_004": "仙台市立南中山中学校", "P29_005": "宮城県仙台市泉区南中山2-26-1", "P29_006": "3", "P29_007": "1", "P29_008": "00", "P29_009": null }, "geometry": { "type": "Point", "coordinates": [ 140.827088384865391, 38.307609048811216 ] } },
{ "type": "Feature", "properties": { "P29_001": "04105", "P29_002": "C104221050144", "P29_003": "16002", "P29_004": "仙台市立高森中学校", "P29_005": "宮城県仙台市泉区高森6-2", "P29_006": "3", "P29_007": "1", "P29_008": "00", "P29_009": null }, "geometry": { "type": "Point", "coordinates": [ 140.850232559130319, 38.339428104074415 ] } },
{ "type": "Feature", "properties": { "P29_001": "04105", "P29_002": "C104221050153", "P29_003": "16002", "P29_004": "仙台市立住吉台中学校", "P29_005": "宮城県仙台市泉区住吉台西4-1-2", "P29_006": "3", "P29_007": "1", "P29_008": "00", "P29_009": null }, "geometry": { "type": "Point", "coordinates": [ 140.780697038613567, 38.329246493337408 ] } },
{ "type": "Feature", "properties": { "P29_001": "04105", "P29_002": "C104221050162", "P29_003": "16002", "P29_004": "仙台市立松陵中学校", "P29_005": "宮城県仙台市泉区松陵5-32", "P29_006": "3", "P29_007": "1", "P29_008": "00", "P29_009": null }, "geometry": { "type": "Point", "coordinates": [ 140.916540867764212, 38.329474006710257 ] } },
{ "type": "Feature", "properties": { "P29_001": "04105", "P29_002": "C104221050171", "P29_003": "16002", "P29_004": "仙台市立館中学校", "P29_005": "宮城県仙台市泉区館6-17-1", "P29_006": "3", "P29_007": "1", "P29_008": "00", "P29_009": null }, "geometry": { "type": "Point", "coordinates": [ 140.798449754009283, 38.316881343049445 ] } },
{ "type": "Feature", "properties": { "P29_001": "04202", "P29_002": "C104222020014", "P29_003": "16002", "P29_004": "石巻市立石巻中学校", "P29_005": "宮城県石巻市泉町4-7-12", "P29_006": "3", "P29_007": "1", "P29_008": "00", "P29_009": null }, "geometry": { "type": "Point", "coordinates": [ 141.298048219079618, 38.42822345593617 ] } },
{ "type": "Feature", "properties": { "P29_001": "04202", "P29_002": "C104222020023", "P29_003": "16002", "P29_004": "石巻市立住吉中学校", "P29_005": "宮城県石巻市東中里3-3-1", "P29_006": "3", "P29_007": "1", "P29_008": "00", "P29_009": null }, "geometry": { "type": "Point", "coordinates": [ 141.306294371585778, 38.442523052733577 ] } },
{ "type": "Feature", "properties": { "P29_001": "04202", "P29_002": "C104222020041", "P29_003": "16002", "P29_004": "石巻市立湊中学校", "P29_005": "宮城県石巻市湊東1-13-1", "P29_006": "3", "P29_007": "1", "P29_008": "00", "P29_009": null }, "geometry": { "type": "Point", "coordinates": [ 141.321843720501079, 38.418979212086818 ] } },
{ "type": "Feature", "properties": { "P29_001": "04202", "P29_002": "C104222020069", "P29_003": "16002", "P29_004": "石巻市立蛇田中学校", "P29_005": "宮城県石巻市茜平5-3-1", "P29_006": "3", "P29_007": "1", "P29_008": "00", "P29_009": null }, "geometry": { "type": "Point", "coordinates": [ 141.264205096410933, 38.446520334523647 ] } },
{ "type": "Feature", "properties": { "P29_001": "04202", "P29_002": "C104222020078", "P29_003": "16002", "P29_004": "石巻市立渡波中学校", "P29_005": "宮城県石巻市さくら町4-1", "P29_006": "3", "P29_007": "1", "P29_008": "00", "P29_009": null }, "geometry": { "type": "Point", "coordinates": [ 141.359448004573494, 38.424743995698748 ] } },
{ "type": "Feature", "properties": { "P29_001": "04202", "P29_002": "C104222020087", "P29_003": "16002", "P29_004": "石巻市立稲井中学校", "P29_005": "宮城県石巻市真野字八の坪116", "P29_006": "3", "P29_007": "1", "P29_008": "00", "P29_009": null }, "geometry": { "type": "Point", "coordinates": [ 141.355620300240986, 38.448415917759611 ] } },
{ "type": "Feature", "properties": { "P29_001": "04202", "P29_002": "C104222020096", "P29_003": "16002", "P29_004": "石巻市立飯野川中学校", "P29_005": "宮城県石巻市相野谷字旧会所前34", "P29_006": "3", "P29_007": "1", "P29_008": "00", "P29_009": null }, "geometry": { "type": "Point", "coordinates": [ 141.314770046905863, 38.516402732846331 ] } },
{ "type": "Feature", "properties": { "P29_001": "04202", "P29_002": "C104222020103", "P29_003": "16002", "P29_004": "石巻市立桃生中学校", "P29_005": "宮城県石巻市桃生町寺崎字植立20", "P29_006": "3", "P29_007": "1", "P29_008": "00", "P29_009": null }, "geometry": { "type": "Point", "coordinates": [ 141.242062920222935, 38.569423280307035 ] } },
{ "type": "Feature", "properties": { "P29_001": "04202", "P29_002": "C104222020112", "P29_003": "16002", "P29_004": "石巻市立河北中学校", "P29_005": "宮城県石巻市小船越字山畑250", "P29_006": "3", "P29_007": "1", "P29_008": "00", "P29_009": null }, "geometry": { "type": "Point", "coordinates": [ 141.304583163845678, 38.508450927872119 ] } },
{ "type": "Feature", "properties": { "P29_001": "04202", "P29_002": "C104222020121", "P29_003": "16002", "P29_004": "石巻市立山下中学校", "P29_005": "宮城県石巻市貞山5-3-2", "P29_006": "3", "P29_007": "1", "P29_008": "00", "P29_009": null }, "geometry": { "type": "Point", "coordinates": [ 141.285060756247844, 38.438157245930881 ] } },
{ "type": "Feature", "properties": { "P29_001": "04202", "P29_002": "C104222020130", "P29_003": "16002", "P29_004": "石巻市立北上中学校", "P29_005": "宮城県石巻市北上町十三浜字小田93-1", "P29_006": "3", "P29_007": "1", "P29_008": "00", "P29_009": null }, "geometry": { "type": "Point", "coordinates": [ 141.427115325162987, 38.568000122097594 ] } },
{ "type": "Feature", "properties": { "P29_001": "04202", "P29_002": "C104222020149", "P29_003": "16002", "P29_004": "石巻市立河南東中学校", "P29_005": "宮城県石巻市須江字糠塚3-3", "P29_006": "3", "P29_007": "1", "P29_008": "00", "P29_009": null }, "geometry": { "type": "Point", "coordinates": [ 141.239813972721151, 38.495016729083282 ] } },
{ "type": "Feature", "properties": { "P29_001": "04202", "P29_002": "C104222020158", "P29_003": "16002", "P29_004": "石巻市立河南西中学校", "P29_005": "宮城県石巻市北村字小崎一37-2", "P29_006": "3", "P29_007": "1", "P29_008": "00", "P29_009": null }, "geometry": { "type": "Point", "coordinates": [ 141.200506182086031, 38.496313423510841 ] } },
{ "type": "Feature", "properties": { "P29_001": "04202", "P29_002": "C104222020167", "P29_003": "16002", "P29_004": "石巻市立青葉中学校", "P29_005": "宮城県石巻市門脇字一番谷地51-10", "P29_006": "3", "P29_007": "1", "P29_008": "00", "P29_009": null }, "geometry": { "type": "Point", "coordinates": [ 141.26171720364195, 38.433025453661621 ] } },
{ "type": "Feature", "properties": { "P29_001": "04202", "P29_002": "C104222020176", "P29_003": "16002", "P29_004": "石巻市立万石浦中学校", "P29_005": "宮城県石巻市流留字七勺21", "P29_006": "3", "P29_007": "1", "P29_008": "00", "P29_009": null }, "geometry": { "type": "Point", "coordinates": [ 141.372486629052474, 38.425697827087284 ] } },
{ "type": "Feature", "properties": { "P29_001": "04202", "P29_002": "C104222020185", "P29_003": "16002", "P29_004": "石巻市立牡鹿中学校", "P29_005": "宮城県石巻市鮎川浜鬼形山1-24", "P29_006": "3", "P29_007": "1", "P29_008": "00", "P29_009": null }, "geometry": { "type": "Point", "coordinates": [ 141.504211590177306, 38.297756003383562 ] } },
{ "type": "Feature", "properties": { "P29_001": "04202", "P29_002": "C104222020194", "P29_003": "16002", "P29_004": "石巻市立雄勝中学校", "P29_005": "宮城県石巻市雄勝町大浜字小滝浜2-2", "P29_006": "3", "P29_007": "1", "P29_008": "00", "P29_009": null }, "geometry": { "type": "Point", "coordinates": [ 141.504239313684934, 38.512546299234415 ] } },
{ "type": "Feature", "properties": { "P29_001": "04203", "P29_002": "C104222030012", "P29_003": "16002", "P29_004": "塩竈市立第一中学校", "P29_005": "宮城県塩竈市みのが丘3-1", "P29_006": "3", "P29_007": "1", "P29_008": "00", "P29_009": null }, "geometry": { "type": "Point", "coordinates": [ 141.016043418929883, 38.32148369657034 ] } },
{ "type": "Feature", "properties": { "P29_001": "04203", "P29_002": "C104222030021", "P29_003": "16002", "P29_004": "塩竈市立第二中学校", "P29_005": "宮城県塩竈市楓町2-10-1", "P29_006": "3", "P29_007": "1", "P29_008": "00", "P29_009": null }, "geometry": { "type": "Point", "coordinates": [ 141.029393439168473, 38.332216427270637 ] } },
{ "type": "Feature", "properties": { "P29_001": "04209", "P29_002": "C104222030030", "P29_003": "16002", "P29_004": "塩竈市立第三中学校", "P29_005": "宮城県多賀城市笠神2-1-1", "P29_006": "3", "P29_007": "1", "P29_008": "00", "P29_009": null }, "geometry": { "type": "Point", "coordinates": [ 141.023177604017718, 38.305469676550871 ] } },
{ "type": "Feature", "properties": { "P29_001": "04203", "P29_002": "C104222030049", "P29_003": "16002", "P29_004": "塩竈市立玉川中学校", "P29_005": "宮城県塩竈市権現堂19-1", "P29_006": "3", "P29_007": "1", "P29_008": "00", "P29_009": null }, "geometry": { "type": "Point", "coordinates": [ 141.006689187659305, 38.320583335042748 ] } },
{ "type": "Feature", "properties": { "P29_001": "04203", "P29_002": "C104222030058", "P29_003": "16002", "P29_004": "塩竈市立浦戸中学校", "P29_005": "宮城県塩竈市浦戸野々島字馬越8", "P29_006": "3", "P29_007": "1", "P29_008": "00", "P29_009": null }, "geometry": { "type": "Point", "coordinates": [ 141.116463371626168, 38.339242146286033 ] } },
{ "type": "Feature", "properties": { "P29_001": "04205", "P29_002": "C104222050017", "P29_003": "16002", "P29_004": "気仙沼市立気仙沼中学校", "P29_005": "宮城県気仙沼市笹が陣4-1", "P29_006": "3", "P29_007": "1", "P29_008": "00", "P29_009": null }, "geometry": { "type": "Point", "coordinates": [ 141.571115840657939, 38.901181497732487 ] } },
{ "type": "Feature", "properties": { "P29_001": "04205", "P29_002": "C104222050026", "P29_003": "16002", "P29_004": "気仙沼市立松岩中学校", "P29_005": "宮城県気仙沼市松崎柳沢186", "P29_006": "3", "P29_007": "1", "P29_008": "00", "P29_009": null }, "geometry": { "type": "Point", "coordinates": [ 141.561751997606137, 38.881084175249406 ] } },
{ "type": "Feature", "properties": { "P29_001": "04205", "P29_002": "C104222050035", "P29_003": "16002", "P29_004": "気仙沼市立鹿折中学校", "P29_005": "宮城県気仙沼市大峠山1-263", "P29_006": "3", "P29_007": "1", "P29_008": "00", "P29_009": null }, "geometry": { "type": "Point", "coordinates": [ 141.589588849564649, 38.918085369386745 ] } },
{ "type": "Feature", "properties": { "P29_001": "04205", "P29_002": "C104222050044", "P29_003": "16002", "P29_004": "気仙沼市立階上中学校", "P29_005": "宮城県気仙沼市長磯中原125", "P29_006": "3", "P29_007": "1", "P29_008": "00", "P29_009": null }, "geometry": { "type": "Point", "coordinates": [ 141.573004303745734, 38.839044540290772 ] } },
{ "type": "Feature", "properties": { "P29_001": "04205", "P29_002": "C104222050062", "P29_003": "16002", "P29_004": "気仙沼市立津谷中学校", "P29_005": "宮城県気仙沼市本吉町津谷桜子2", "P29_006": "3", "P29_007": "1", "P29_008": "00", "P29_009": null }, "geometry": { "type": "Point", "coordinates": [ 141.49309028319351, 38.792736794331034 ] } },
{ "type": "Feature", "properties": { "P29_001": "04205", "P29_002": "C104222050071", "P29_003": "16002", "P29_004": "気仙沼市立大谷中学校", "P29_005": "宮城県気仙沼市本吉町三島60-4", "P29_006": "3", "P29_007": "1", "P29_008": "00", "P29_009": null }, "geometry": { "type": "Point", "coordinates": [ 141.564476733708261, 38.81710939307775 ] } },
{ "type": "Feature", "properties": { "P29_001": "04205", "P29_002": "C104222050080", "P29_003": "16002", "P29_004": "気仙沼市立唐桑中学校", "P29_005": "宮城県気仙沼市唐桑町北中130", "P29_006": "3", "P29_007": "1", "P29_008": "00", "P29_009": null }, "geometry": { "type": "Point", "coordinates": [ 141.652808211400753, 38.895685679457017 ] } },
{ "type": "Feature", "properties": { "P29_001": "04205", "P29_002": "C104222050099", "P29_003": "16002", "P29_004": "気仙沼市立条南中学校", "P29_005": "宮城県気仙沼市田中前4-8", "P29_006": "3", "P29_007": "1", "P29_008": "00", "P29_009": null }, "geometry": { "type": "Point", "coordinates": [ 141.56223356997458, 38.890169558562739 ] } },
{ "type": "Feature", "properties": { "P29_001": "04205", "P29_002": "C104222050106", "P29_003": "16002", "P29_004": "気仙沼市立面瀬中学校", "P29_005": "宮城県気仙沼市岩月寺沢44", "P29_006": "3", "P29_007": "1", "P29_008": "00", "P29_009": null }, "geometry": { "type": "Point", "coordinates": [ 141.569534892660215, 38.863322393376599 ] } },
{ "type": "Feature", "properties": { "P29_001": "04205", "P29_002": "C104222050115", "P29_003": "16002", "P29_004": "気仙沼市立新月中学校", "P29_005": "宮城県気仙沼市字切通100", "P29_006": "3", "P29_007": "1", "P29_008": "00", "P29_009": null }, "geometry": { "type": "Point", "coordinates": [ 141.542952505892373, 38.911654761777115 ] } },
{ "type": "Feature", "properties": { "P29_001": "04206", "P29_002": "C104222060015", "P29_003": "16002", "P29_004": "白石市立白石中学校", "P29_005": "宮城県白石市南町1-2-79", "P29_006": "3", "P29_007": "1", "P29_008": "00", "P29_009": null }, "geometry": { "type": "Point", "coordinates": [ 140.61984896211888, 37.999444634600501 ] } },
{ "type": "Feature", "properties": { "P29_001": "04206", "P29_002": "C104222060024", "P29_003": "16002", "P29_004": "白石市立福岡中学校公立刈田綜合病院分校", "P29_005": "宮城県白石市福岡蔵本字下原沖36", "P29_006": "3", "P29_007": "1", "P29_008": "00", "P29_009": null }, "geometry": { "type": "Point", "coordinates": [ 140.609423030072691, 38.01180325389435 ] } },
{ "type": "Feature", "properties": { "P29_001": "04206", "P29_002": "C104222060033", "P29_003": "16002", "P29_004": "白石市立福岡中学校", "P29_005": "宮城県白石市福岡長袋山ノ下25", "P29_006": "3", "P29_007": "1", "P29_008": "00", "P29_009": null }, "geometry": { "type": "Point", "coordinates": [ 140.621077222883599, 38.014665744983205 ] } },
{ "type": "Feature", "properties": { "P29_001": "04206", "P29_002": "C104222060042", "P29_003": "16002", "P29_004": "白石市立小原中学校", "P29_005": "宮城県白石市小原字伊勢原道上1", "P29_006": "3", "P29_007": "1", "P29_008": "00", "P29_009": null }, "geometry": { "type": "Point", "coordinates": [ 140.560450688492551, 37.953693389769221 ] } },
{ "type": "Feature", "properties": { "P29_001": "04206", "P29_002": "C104222060051", "P29_003": "16002", "P29_004": "白石市立東中学校", "P29_005": "宮城県白石市大鷹沢三沢字熊野堂6-3", "P29_006": "3", "P29_007": "1", "P29_008": "00", "P29_009": null }, "geometry": { "type": "Point", "coordinates": [ 140.640394446679977, 37.993151182367001 ] } },
{ "type": "Feature", "properties": { "P29_001": "04206", "P29_002": "C104222060060", "P29_003": "16002", "P29_004": "白石市立白石南中学校", "P29_005": "宮城県白石市越河平字平合23-1", "P29_006": "3", "P29_007": "1", "P29_008": "00", "P29_009": null }, "geometry": { "type": "Point", "coordinates": [ 140.615823357250349, 37.940597916367352 ] } },
{ "type": "Feature", "properties": { "P29_001": "04207", "P29_002": "C104222070013", "P29_003": "16002", "P29_004": "名取市立増田中学校", "P29_005": "宮城県名取市増田字柳田230", "P29_006": "3", "P29_007": "1", "P29_008": "00", "P29_009": null }, "geometry": { "type": "Point", "coordinates": [ 140.894418732594175, 38.169750615461346 ] } },
{ "type": "Feature", "properties": { "P29_001": "04207", "P29_002": "C104222070022", "P29_003": "16002", "P29_004": "名取市立第一中学校", "P29_005": "宮城県名取市小山1-8-1", "P29_006": "3", "P29_007": "1", "P29_008": "00", "P29_009": null }, "geometry": { "type": "Point", "coordinates": [ 140.880448746846099, 38.163387245886227 ] } },
{ "type": "Feature", "properties": { "P29_001": "04207", "P29_002": "C104222070031", "P29_003": "16002", "P29_004": "名取市立第二中学校", "P29_005": "宮城県名取市高舘吉田字吉合90", "P29_006": "3", "P29_007": "1", "P29_008": "00", "P29_009": null }, "geometry": { "type": "Point", "coordinates": [ 140.86586845400771, 38.180429592075789 ] } },
{ "type": "Feature", "properties": { "P29_001": "04207", "P29_002": "C104222070040", "P29_003": "16002", "P29_004": "名取市立みどり台中学校", "P29_005": "宮城県名取市みどり台1-4", "P29_006": "3", "P29_007": "1", "P29_008": "00", "P29_009": null }, "geometry": { "type": "Point", "coordinates": [ 140.831522148360989, 38.199649612125313 ] } },
{ "type": "Feature", "properties": { "P29_001": "04208", "P29_002": "C104222080011", "P29_003": "16002", "P29_004": "角田市立角田中学校", "P29_005": "宮城県角田市角田字牛舘1-2", "P29_006": "3", "P29_007": "1", "P29_008": "00", "P29_009": null }, "geometry": { "type": "Point", "coordinates": [ 140.778663845397176, 37.96984480683281 ] } },
{ "type": "Feature", "properties": { "P29_001": "04208", "P29_002": "C104222080039", "P29_003": "16002", "P29_004": "角田市立北角田中学校", "P29_005": "宮城県角田市江尻字前原50", "P29_006": "3", "P29_007": "1", "P29_008": "00", "P29_009": null }, "geometry": { "type": "Point", "coordinates": [ 140.796685937225021, 38.013186907148992 ] } },
{ "type": "Feature", "properties": { "P29_001": "04209", "P29_002": "C104222090019", "P29_003": "16002", "P29_004": "多賀城市立多賀城中学校", "P29_005": "宮城県多賀城市鶴ヶ谷1-9-1", "P29_006": "3", "P29_007": "1", "P29_008": "00", "P29_009": null }, "geometry": { "type": "Point", "coordinates": [ 141.014772832660526, 38.295838227721184 ] } },
{ "type": "Feature", "properties": { "P29_001": "04209", "P29_002": "C104222090028", "P29_003": "16002", "P29_004": "多賀城市立第二中学校", "P29_005": "宮城県多賀城市南宮字八幡170", "P29_006": "3", "P29_007": "1", "P29_008": "00", "P29_009": null }, "geometry": { "type": "Point", "coordinates": [ 140.9783770325962, 38.301574675996243 ] } },
{ "type": "Feature", "properties": { "P29_001": "04209", "P29_002": "C104222090037", "P29_003": "16002", "P29_004": "多賀城市立東豊中学校", "P29_005": "宮城県多賀城市笠神5-4-1", "P29_006": "3", "P29_007": "1", "P29_008": "00", "P29_009": null }, "geometry": { "type": "Point", "coordinates": [ 141.032697123294639, 38.300422769125497 ] } },
{ "type": "Feature", "properties": { "P29_001": "04209", "P29_002": "C104222090046", "P29_003": "16002", "P29_004": "多賀城市立高崎中学校", "P29_005": "宮城県多賀城市高崎2-25-1", "P29_006": "3", "P29_007": "1", "P29_008": "00", "P29_009": null }, "geometry": { "type": "Point", "coordinates": [ 140.995480703424477, 38.29769063302389 ] } },
{ "type": "Feature", "properties": { "P29_001": "04211", "P29_002": "C104222110015", "P29_003": "16002", "P29_004": "岩沼市立岩沼中学校", "P29_005": "宮城県岩沼市桑原4-8-1", "P29_006": "3", "P29_007": "1", "P29_008": "00", "P29_009": null }, "geometry": { "type": "Point", "coordinates": [ 140.861151360535303, 38.100251668434524 ] } },
{ "type": "Feature", "properties": { "P29_001": "04211", "P29_002": "C104222110024", "P29_003": "16002", "P29_004": "岩沼市立岩沼北中学校", "P29_005": "宮城県岩沼市相の原2-3-1", "P29_006": "3", "P29_007": "1", "P29_008": "00", "P29_009": null }, "geometry": { "type": "Point", "coordinates": [ 140.873134870792796, 38.116813726076501 ] } },
{ "type": "Feature", "properties": { "P29_001": "04211", "P29_002": "C104222110033", "P29_003": "16002", "P29_004": "岩沼市立玉浦中学校", "P29_005": "宮城県岩沼市恵み野2-4-1", "P29_006": "3", "P29_007": "1", "P29_008": "00", "P29_009": null }, "geometry": { "type": "Point", "coordinates": [ 140.905787409646138, 38.106956612779349 ] } },
{ "type": "Feature", "properties": { "P29_001": "04211", "P29_002": "C104222110042", "P29_003": "16002", "P29_004": "岩沼市立岩沼西中学校", "P29_005": "宮城県岩沼市三色吉字竹11", "P29_006": "3", "P29_007": "1", "P29_008": "00", "P29_009": null }, "geometry": { "type": "Point", "coordinates": [ 140.844233691538449, 38.118511285412374 ] } },
{ "type": "Feature", "properties": { "P29_001": "04212", "P29_002": "C104222120013", "P29_003": "16002", "P29_004": "登米市立佐沼中学校", "P29_005": "宮城県登米市迫町佐沼字沼向4", "P29_006": "3", "P29_007": "1", "P29_008": "00", "P29_009": null }, "geometry": { "type": "Point", "coordinates": [ 141.190241143109688, 38.696402629884794 ] } },
{ "type": "Feature", "properties": { "P29_001": "04212", "P29_002": "C104222120022", "P29_003": "16002", "P29_004": "登米市立新田中学校", "P29_005": "宮城県登米市迫町新田字山居37-1", "P29_006": "3", "P29_007": "1", "P29_008": "00", "P29_009": null }, "geometry": { "type": "Point", "coordinates": [ 141.108577732625747, 38.699290546860368 ] } },
{ "type": "Feature", "properties": { "P29_001": "04212", "P29_002": "C104222120031", "P29_003": "16002", "P29_004": "登米市立登米中学校", "P29_005": "宮城県登米市登米町大字日根牛小川向10", "P29_006": "3", "P29_007": "1", "P29_008": "00", "P29_009": null }, "geometry": { "type": "Point", "coordinates": [ 141.289575432917559, 38.656480205782877 ] } },
{ "type": "Feature", "properties": { "P29_001": "04212", "P29_002": "C104222120040", "P29_003": "16002", "P29_004": "登米市立豊里中学校", "P29_005": "宮城県登米市豊里町上町裏100", "P29_006": "3", "P29_007": "1", "P29_008": "00", "P29_009": null }, "geometry": { "type": "Point", "coordinates": [ 141.2520447099092, 38.583160123327204 ] } },
{ "type": "Feature", "properties": { "P29_001": "04212", "P29_002": "C104222120059", "P29_003": "16002", "P29_004": "登米市立米山中学校", "P29_005": "宮城県登米市米山町西野字西小路2", "P29_006": "3", "P29_007": "1", "P29_008": "00", "P29_009": null }, "geometry": { "type": "Point", "coordinates": [ 141.191816154322197, 38.631822065316932 ] } },
{ "type": "Feature", "properties": { "P29_001": "04212", "P29_002": "C104222120068", "P29_003": "16002", "P29_004": "登米市立石越中学校", "P29_005": "宮城県登米市石越町南郷字矢作48", "P29_006": "3", "P29_007": "1", "P29_008": "00", "P29_009": null }, "geometry": { "type": "Point", "coordinates": [ 141.182453866096722, 38.754496211577859 ] } },
{ "type": "Feature", "properties": { "P29_001": "04212", "P29_002": "C104222120077", "P29_003": "16002", "P29_004": "登米市立南方中学校", "P29_005": "宮城県登米市南方町西山成前21-1", "P29_006": "3", "P29_007": "1", "P29_008": "00", "P29_009": null }, "geometry": { "type": "Point", "coordinates": [ 141.159582892107665, 38.660569254767083 ] } },
{ "type": "Feature", "properties": { "P29_001": "04212", "P29_002": "C104222120086", "P29_003": "16002", "P29_004": "登米市立中田中学校", "P29_005": "宮城県登米市中田町宝江黒沼字新西野70", "P29_006": "3", "P29_007": "1", "P29_008": "00", "P29_009": null }, "geometry": { "type": "Point", "coordinates": [ 141.236678808282278, 38.704964242716684 ] } },
{ "type": "Feature", "properties": { "P29_001": "04212", "P29_002": "C104222120095", "P29_003": "16002", "P29_004": "登米市立津山中学校", "P29_005": "宮城県登米市津山町柳津字舘石6", "P29_006": "3", "P29_007": "1", "P29_008": "00", "P29_009": null }, "geometry": { "type": "Point", "coordinates": [ 141.322768762577624, 38.614211558437937 ] } },
{ "type": "Feature", "properties": { "P29_001": "04212", "P29_002": "C104222120102", "P29_003": "16002", "P29_004": "登米市立東和中学校", "P29_005": "宮城県登米市東和町米谷字細野35", "P29_006": "3", "P29_007": "1", "P29_008": "00", "P29_009": null }, "geometry": { "type": "Point", "coordinates": [ 141.313500355592765, 38.735889160878095 ] } },
{ "type": "Feature", "properties": { "P29_001": "04213", "P29_002": "C104222130011", "P29_003": "16002", "P29_004": "栗原市立築館中学校", "P29_005": "宮城県栗原市築館高田2-8-1", "P29_006": "3", "P29_007": "1", "P29_008": "00", "P29_009": null }, "geometry": { "type": "Point", "coordinates": [ 141.023461257929654, 38.72511065208564 ] } },
{ "type": "Feature", "properties": { "P29_001": "04213", "P29_002": "C104222130020", "P29_003": "16002", "P29_004": "栗原市立若柳中学校", "P29_005": "宮城県栗原市若柳川南袋25", "P29_006": "3", "P29_007": "1", "P29_008": "00", "P29_009": null }, "geometry": { "type": "Point", "coordinates": [ 141.124039625022903, 38.767405073963921 ] } },
{ "type": "Feature", "properties": { "P29_001": "04213", "P29_002": "C104222130048", "P29_003": "16002", "P29_004": "栗原市立志波姫中学校", "P29_005": "宮城県栗原市志波姫沼崎大谷地5-1", "P29_006": "3", "P29_007": "1", "P29_008": "00", "P29_009": null }, "geometry": { "type": "Point", "coordinates": [ 141.06111650913158, 38.749970107379568 ] } },
{ "type": "Feature", "properties": { "P29_001": "04213", "P29_002": "C104222130057", "P29_003": "16002", "P29_004": "栗原市立栗原西中学校", "P29_005": "宮城県栗原市一迫真坂字鶴町123", "P29_006": "3", "P29_007": "1", "P29_008": "00", "P29_009": null }, "geometry": { "type": "Point", "coordinates": [ 140.941084730220638, 38.744641004057037 ] } },
{ "type": "Feature", "properties": { "P29_001": "04213", "P29_002": "C104222130066", "P29_003": "16002", "P29_004": "栗原市立栗駒中学校", "P29_005": "宮城県栗原市栗駒中野大柳100", "P29_006": "3", "P29_007": "1", "P29_008": "00", "P29_009": null }, "geometry": { "type": "Point", "coordinates": [ 140.989365586555266, 38.814950906921375 ] } },
{ "type": "Feature", "properties": { "P29_001": "04213", "P29_002": "C104222130075", "P29_003": "16002", "P29_004": "栗原市立栗原南中学校", "P29_005": "宮城県栗原市瀬峰下田2-1", "P29_006": "3", "P29_007": "1", "P29_008": "00", "P29_009": null }, "geometry": { "type": "Point", "coordinates": [ 141.066258783901702, 38.65383788980931 ] } },
{ "type": "Feature", "properties": { "P29_001": "04214", "P29_002": "C104222140019", "P29_003": "16002", "P29_004": "東松島市立矢本第一中学校", "P29_005": "宮城県東松島市小松字上浮足194", "P29_006": "3", "P29_007": "1", "P29_008": "00", "P29_009": null }, "geometry": { "type": "Point", "coordinates": [ 141.208144648936923, 38.426370496833748 ] } },
{ "type": "Feature", "properties": { "P29_001": "04214", "P29_002": "C104222140028", "P29_003": "16002", "P29_004": "東松島市立矢本第二中学校", "P29_005": "宮城県東松島市赤井字川前一16-1", "P29_006": "3", "P29_007": "1", "P29_008": "00", "P29_009": null }, "geometry": { "type": "Point", "coordinates": [ 141.239922028994897, 38.432130877940054 ] } },
{ "type": "Feature", "properties": { "P29_001": "04214", "P29_002": "C104222140037", "P29_003": "16002", "P29_004": "東松島市立鳴瀬未来中学校", "P29_005": "宮城県東松島市野蒜字上野蒜232", "P29_006": "3", "P29_007": "1", "P29_008": "00", "P29_009": null }, "geometry": { "type": "Point", "coordinates": [ 141.147913741490498, 38.387099641825777 ] } },
{ "type": "Feature", "properties": { "P29_001": "04215", "P29_002": "C104222150016", "P29_003": "16002", "P29_004": "大崎市立古川中学校", "P29_005": "宮城県大崎市古川二ノ構7-54", "P29_006": "3", "P29_007": "1", "P29_008": "00", "P29_009": null }, "geometry": { "type": "Point", "coordinates": [ 140.951867261112625, 38.578825137280198 ] } },
{ "type": "Feature", "properties": { "P29_001": "04215", "P29_002": "C104222150025", "P29_003": "16002", "P29_004": "大崎市立古川北中学校", "P29_005": "宮城県大崎市古川荒谷字権現山5", "P29_006": "3", "P29_007": "1", "P29_008": "00", "P29_009": null }, "geometry": { "type": "Point", "coordinates": [ 140.971941779406023, 38.6185489167272 ] } },
{ "type": "Feature", "properties": { "P29_001": "04215", "P29_002": "C104222150043", "P29_003": "16002", "P29_004": "大崎市立松山中学校", "P29_005": "宮城県大崎市松山千石字新広岡台150", "P29_006": "3", "P29_007": "1", "P29_008": "00", "P29_009": null }, "geometry": { "type": "Point", "coordinates": [ 141.042415488815948, 38.515642171207219 ] } },
{ "type": "Feature", "properties": { "P29_001": "04215", "P29_002": "C104222150052", "P29_003": "16002", "P29_004": "大崎市立三本木中学校", "P29_005": "宮城県大崎市三本木字鹿野沢78-2", "P29_006": "3", "P29_007": "1", "P29_008": "00", "P29_009": null }, "geometry": { "type": "Point", "coordinates": [ 140.941957346477636, 38.523461569853389 ] } },
{ "type": "Feature", "properties": { "P29_001": "04215", "P29_002": "C104222150061", "P29_003": "16002", "P29_004": "大崎市立鹿島台中学校", "P29_005": "宮城県大崎市鹿島台平渡字狸沢50", "P29_006": "3", "P29_007": "1", "P29_008": "00", "P29_009": null }, "geometry": { "type": "Point", "coordinates": [ 141.093754513603614, 38.47619177873618 ] } },
{ "type": "Feature", "properties": { "P29_001": "04215", "P29_002": "C104222150070", "P29_003": "16002", "P29_004": "大崎市立田尻中学校", "P29_005": "宮城県大崎市田尻沼部字早稲田15", "P29_006": "3", "P29_007": "1", "P29_008": "00", "P29_009": null }, "geometry": { "type": "Point", "coordinates": [ 141.05055788252119, 38.602395233015464 ] } },
{ "type": "Feature", "properties": { "P29_001": "04215", "P29_002": "C104222150089", "P29_003": "16002", "P29_004": "大崎市立古川東中学校", "P29_005": "宮城県大崎市古川旭4-5-1", "P29_006": "3", "P29_007": "1", "P29_008": "00", "P29_009": null }, "geometry": { "type": "Point", "coordinates": [ 140.973440907787818, 38.564431814702836 ] } },
{ "type": "Feature", "properties": { "P29_001": "04215", "P29_002": "C104222150098", "P29_003": "16002", "P29_004": "大崎市立岩出山中学校", "P29_005": "宮城県大崎市岩出山字松沢202-1", "P29_006": "3", "P29_007": "1", "P29_008": "00", "P29_009": null }, "geometry": { "type": "Point", "coordinates": [ 140.857989869403582, 38.659285536655538 ] } },
{ "type": "Feature", "properties": { "P29_001": "04215", "P29_002": "C104222150105", "P29_003": "16002", "P29_004": "大崎市立古川南中学校", "P29_005": "宮城県大崎市古川穂波3-6-47", "P29_006": "3", "P29_007": "1", "P29_008": "00", "P29_009": null }, "geometry": { "type": "Point", "coordinates": [ 140.945531381042002, 38.562999116993446 ] } },
{ "type": "Feature", "properties": { "P29_001": "04215", "P29_002": "C104222150114", "P29_003": "16002", "P29_004": "大崎市立鳴子中学校", "P29_005": "宮城県大崎市鳴子温泉字町西97-1", "P29_006": "3", "P29_007": "1", "P29_008": "00", "P29_009": null }, "geometry": { "type": "Point", "coordinates": [ 140.764798211951188, 38.736928257753256 ] } },
{ "type": "Feature", "properties": { "P29_001": "04216", "P29_002": "C104222160014", "P29_003": "16002", "P29_004": "富谷市立富谷中学校", "P29_005": "宮城県富谷市穀田字土間沢1-9", "P29_006": "3", "P29_007": "1", "P29_008": "00", "P29_009": null }, "geometry": { "type": "Point", "coordinates": [ 140.89947151107188, 38.394774949866871 ] } },
{ "type": "Feature", "properties": { "P29_001": "04216", "P29_002": "C104222160023", "P29_003": "16002", "P29_004": "富谷市立富谷第二中学校", "P29_005": "宮城県富谷市あけの平3-86", "P29_006": "3", "P29_007": "1", "P29_008": "00", "P29_009": null }, "geometry": { "type": "Point", "coordinates": [ 140.879498447877694, 38.373211083594875 ] } },
{ "type": "Feature", "properties": { "P29_001": "04216", "P29_002": "C104222160032", "P29_003": "16002", "P29_004": "富谷市立東向陽台中学校", "P29_005": "宮城県富谷市明石台1-14", "P29_006": "3", "P29_007": "1", "P29_008": "00", "P29_009": null }, "geometry": { "type": "Point", "coordinates": [ 140.899429781999658, 38.342159447200466 ] } },
{ "type": "Feature", "properties": { "P29_001": "04216", "P29_002": "C104222160041", "P29_003": "16002", "P29_004": "富谷市立日吉台中学校", "P29_005": "宮城県富谷市日吉台3-19-2", "P29_006": "3", "P29_007": "1", "P29_008": "00", "P29_009": null }, "geometry": { "type": "Point", "coordinates": [ 140.86715757016114, 38.381848764210623 ] } },
{ "type": "Feature", "properties": { "P29_001": "04216", "P29_002": "C104222160050", "P29_003": "16002", "P29_004": "富谷市立成田中学校", "P29_005": "宮城県富谷市成田3-34-1", "P29_006": "3", "P29_007": "1", "P29_008": "00", "P29_009": null }, "geometry": { "type": "Point", "coordinates": [ 140.900652312503297, 38.366216883833161 ] } },
{ "type": "Feature", "properties": { "P29_001": "04301", "P29_002": "C104223010014", "P29_003": "16002", "P29_004": "蔵王町立宮中学校", "P29_005": "宮城県刈田郡蔵王町宮字馬飼16", "P29_006": "3", "P29_007": "1", "P29_008": "00", "P29_009": null }, "geometry": { "type": "Point", "coordinates": [ 140.654675050343741, 38.053104411646601 ] } },
{ "type": "Feature", "properties": { "P29_001": "04301", "P29_002": "C104223010023", "P29_003": "16002", "P29_004": "蔵王町立遠刈田中学校", "P29_005": "宮城県刈田郡蔵王町遠刈田温泉字小妻坂山16", "P29_006": "3", "P29_007": "1", "P29_008": "00", "P29_009": null }, "geometry": { "type": "Point", "coordinates": [ 140.580492132595708, 38.126706215411247 ] } },
{ "type": "Feature", "properties": { "P29_001": "04301", "P29_002": "C104223010032", "P29_003": "16002", "P29_004": "蔵王町立円田中学校", "P29_005": "宮城県刈田郡蔵王町大字平沢字伊原沢下23", "P29_006": "3", "P29_007": "1", "P29_008": "00", "P29_009": null }, "geometry": { "type": "Point", "coordinates": [ 140.685338060190759, 38.1009933744919 ] } },
{ "type": "Feature", "properties": { "P29_001": "04302", "P29_002": "C104223020012", "P29_003": "16002", "P29_004": "七ヶ宿町立七ヶ宿中学校", "P29_005": "宮城県刈田郡七ヶ宿町字瀬見原1", "P29_006": "3", "P29_007": "1", "P29_008": "00", "P29_009": null }, "geometry": { "type": "Point", "coordinates": [ 140.447473577025335, 37.996386595036284 ] } },
{ "type": "Feature", "properties": { "P29_001": "04321", "P29_002": "C104223210012", "P29_003": "16002", "P29_004": "大河原町立大河原中学校", "P29_005": "宮城県柴田郡大河原町字東1", "P29_006": "3", "P29_007": "1", "P29_008": "00", "P29_009": null }, "geometry": { "type": "Point", "coordinates": [ 140.73460844937452, 38.053693099439627 ] } },
{ "type": "Feature", "properties": { "P29_001": "04321", "P29_002": "C104223210021", "P29_003": "16002", "P29_004": "大河原町立金ケ瀬中学校", "P29_005": "宮城県柴田郡大河原町金ヶ瀬字原74", "P29_006": "3", "P29_007": "1", "P29_008": "00", "P29_009": null }, "geometry": { "type": "Point", "coordinates": [ 140.706999699376723, 38.046713795572828 ] } },
{ "type": "Feature", "properties": { "P29_001": "04322", "P29_002": "C104223220010", "P29_003": "16002", "P29_004": "村田町立村田第一中学校", "P29_005": "宮城県柴田郡村田町大字村田字七小路92", "P29_006": "3", "P29_007": "1", "P29_008": "00", "P29_009": null }, "geometry": { "type": "Point", "coordinates": [ 140.72248992348807, 38.125337342099272 ] } },
{ "type": "Feature", "properties": { "P29_001": "04322", "P29_002": "C104223220029", "P29_003": "16002", "P29_004": "村田町立村田第二中学校", "P29_005": "宮城県柴田郡村田町大字沼辺字二丁町32", "P29_006": "3", "P29_007": "1", "P29_008": "00", "P29_009": null }, "geometry": { "type": "Point", "coordinates": [ 140.729598926688311, 38.081761853682764 ] } },
{ "type": "Feature", "properties": { "P29_001": "04323", "P29_002": "C104223230018", "P29_003": "16002", "P29_004": "柴田町立槻木中学校", "P29_005": "宮城県柴田郡柴田町槻木東2-3-1", "P29_006": "3", "P29_007": "1", "P29_008": "00", "P29_009": null }, "geometry": { "type": "Point", "coordinates": [ 140.818561768838094, 38.081916079500267 ] } },
{ "type": "Feature", "properties": { "P29_001": "04323", "P29_002": "C104223230027", "P29_003": "16002", "P29_004": "柴田町立船岡中学校", "P29_005": "宮城県柴田郡柴田町船岡字七作26", "P29_006": "3", "P29_007": "1", "P29_008": "00", "P29_009": null }, "geometry": { "type": "Point", "coordinates": [ 140.778757642047594, 38.054355169856798 ] } },
{ "type": "Feature", "properties": { "P29_001": "04323", "P29_002": "C104223230036", "P29_003": "16002", "P29_004": "柴田町立船迫中学校", "P29_005": "宮城県柴田郡柴田町西船迫4-1-2", "P29_006": "3", "P29_007": "1", "P29_008": "00", "P29_009": null }, "geometry": { "type": "Point", "coordinates": [ 140.763819758118842, 38.071960594561048 ] } },
{ "type": "Feature", "properties": { "P29_001": "04324", "P29_002": "C104223240016", "P29_003": "16002", "P29_004": "川崎町立川崎中学校", "P29_005": "宮城県柴田郡川崎町大字前川字伊勢原12", "P29_006": "3", "P29_007": "1", "P29_008": "00", "P29_009": null }, "geometry": { "type": "Point", "coordinates": [ 140.641500273015993, 38.181006113712712 ] } },
{ "type": "Feature", "properties": { "P29_001": "04324", "P29_002": "C104223240025", "P29_003": "16002", "P29_004": "川崎町立富岡中学校", "P29_005": "宮城県柴田郡川崎町大字支倉字落田郷山8-3", "P29_006": "3", "P29_007": "1", "P29_008": "00", "P29_009": null }, "geometry": { "type": "Point", "coordinates": [ 140.726249174352745, 38.189072071162933 ] } },
{ "type": "Feature", "properties": { "P29_001": "04341", "P29_002": "C104223410010", "P29_003": "16002", "P29_004": "丸森町立丸森中学校", "P29_005": "宮城県伊具郡丸森町字田町南24-2", "P29_006": "3", "P29_007": "1", "P29_008": "00", "P29_009": null }, "geometry": { "type": "Point", "coordinates": [ 140.764689091086666, 37.91734380510789 ] } },
{ "type": "Feature", "properties": { "P29_001": "04361", "P29_002": "C104223610018", "P29_003": "16002", "P29_004": "亘理町立亘理中学校", "P29_005": "宮城県亘理郡亘理町沼頭1", "P29_006": "3", "P29_007": "1", "P29_008": "00", "P29_009": null }, "geometry": { "type": "Point", "coordinates": [ 140.842935188090365, 38.030412434364756 ] } },
{ "type": "Feature", "properties": { "P29_001": "04361", "P29_002": "C104223610027", "P29_003": "16002", "P29_004": "亘理町立荒浜中学校", "P29_005": "宮城県亘理郡亘理町荒浜字東木倉70-1", "P29_006": "3", "P29_007": "1", "P29_008": "00", "P29_009": null }, "geometry": { "type": "Point", "coordinates": [ 140.909122875156726, 38.043249302768373 ] } },
{ "type": "Feature", "properties": { "P29_001": "04361", "P29_002": "C104223610036", "P29_003": "16002", "P29_004": "亘理町立吉田中学校", "P29_005": "宮城県亘理郡亘理町吉田字松元238-14", "P29_006": "3", "P29_007": "1", "P29_008": "00", "P29_009": null }, "geometry": { "type": "Point", "coordinates": [ 140.88241135307166, 38.01459291245046 ] } },
{ "type": "Feature", "properties": { "P29_001": "04361", "P29_002": "C104223610045", "P29_003": "16002", "P29_004": "亘理町立逢隈中学校", "P29_005": "宮城県亘理郡亘理町逢隈牛袋字南西河原2-6", "P29_006": "3", "P29_007": "1", "P29_008": "00", "P29_009": null }, "geometry": { "type": "Point", "coordinates": [ 140.867324577687413, 38.07342716692861 ] } },
{ "type": "Feature", "properties": { "P29_001": "04362", "P29_002": "C104223620034", "P29_003": "16002", "P29_004": "山元町立山元中学校", "P29_005": "宮城県亘理郡山元町山寺字畑中29", "P29_006": "3", "P29_007": "1", "P29_008": "00", "P29_009": null }, "geometry": { "type": "Point", "coordinates": [ 140.872847307279017, 37.969721490213487 ] } },
{ "type": "Feature", "properties": { "P29_001": "04401", "P29_002": "C104224010012", "P29_003": "16002", "P29_004": "松島町立松島中学校", "P29_005": "宮城県宮城郡松島町高城字三居山一6-1", "P29_006": "3", "P29_007": "1", "P29_008": "00", "P29_009": null }, "geometry": { "type": "Point", "coordinates": [ 141.065938257319004, 38.396227858459802 ] } },
{ "type": "Feature", "properties": { "P29_001": "04404", "P29_002": "C104224040016", "P29_003": "16002", "P29_004": "七ヶ浜町立七ヶ浜中学校", "P29_005": "宮城県宮城郡七ヶ浜町吉田浜字小浜7", "P29_006": "3", "P29_007": "1", "P29_008": "00", "P29_009": null }, "geometry": { "type": "Point", "coordinates": [ 141.062604708484429, 38.304525150096225 ] } },
{ "type": "Feature", "properties": { "P29_001": "04404", "P29_002": "C104224040025", "P29_003": "16002", "P29_004": "七ヶ浜町立向洋中学校", "P29_005": "宮城県宮城郡七ヶ浜町遠山1-9-18", "P29_006": "3", "P29_007": "1", "P29_008": "00", "P29_009": null }, "geometry": { "type": "Point", "coordinates": [ 141.044018478407651, 38.294124793148924 ] } },
{ "type": "Feature", "properties": { "P29_001": "04406", "P29_002": "C104224060011", "P29_003": "16002", "P29_004": "利府町立利府中学校", "P29_005": "宮城県宮城郡利府町森郷字古戸6", "P29_006": "3", "P29_007": "1", "P29_008": "00", "P29_009": null }, "geometry": { "type": "Point", "coordinates": [ 140.984326941574125, 38.335583840717213 ] } },
{ "type": "Feature", "properties": { "P29_001": "04406", "P29_002": "C104224060020", "P29_003": "16002", "P29_004": "利府町立しらかし台中学校", "P29_005": "宮城県宮城郡利府町しらかし台2-6", "P29_006": "3", "P29_007": "1", "P29_008": "00", "P29_009": null }, "geometry": { "type": "Point", "coordinates": [ 140.957437968201504, 38.343618387416065 ] } },
{ "type": "Feature", "properties": { "P29_001": "04406", "P29_002": "C104224060039", "P29_003": "16002", "P29_004": "利府町立利府西中学校", "P29_005": "宮城県宮城郡利府町菅谷字新洞風17", "P29_006": "3", "P29_007": "1", "P29_008": "00", "P29_009": null }, "geometry": { "type": "Point", "coordinates": [ 140.960055722040551, 38.32212885038868 ] } },
{ "type": "Feature", "properties": { "P29_001": "04421", "P29_002": "C104224210010", "P29_003": "16002", "P29_004": "大和町立宮床中学校", "P29_005": "宮城県黒川郡大和町宮床字四辻13-7", "P29_006": "3", "P29_007": "1", "P29_008": "00", "P29_009": null }, "geometry": { "type": "Point", "coordinates": [ 140.854771379170217, 38.401424600030218 ] } },
{ "type": "Feature", "properties": { "P29_001": "04421", "P29_002": "C104224210029", "P29_003": "16002", "P29_004": "大和町立大和中学校", "P29_005": "宮城県黒川郡大和町吉岡字権現堂25", "P29_006": "3", "P29_007": "1", "P29_008": "00", "P29_009": null }, "geometry": { "type": "Point", "coordinates": [ 140.889657909929667, 38.446888660166167 ] } },
{ "type": "Feature", "properties": { "P29_001": "04422", "P29_002": "C104224220018", "P29_003": "16002", "P29_004": "大郷町立大郷中学校", "P29_005": "宮城県黒川郡大郷町粕川字東長崎3", "P29_006": "3", "P29_007": "1", "P29_008": "00", "P29_009": null }, "geometry": { "type": "Point", "coordinates": [ 141.003163123956085, 38.42668078053881 ] } },
{ "type": "Feature", "properties": { "P29_001": "04424", "P29_002": "C104224240014", "P29_003": "16002", "P29_004": "大衡村立大衡中学校", "P29_005": "宮城県黒川郡大衡村大衡字?木145-1", "P29_006": "3", "P29_007": "1", "P29_008": "00", "P29_009": null }, "geometry": { "type": "Point", "coordinates": [ 140.873527673877618, 38.474911961889163 ] } },
{ "type": "Feature", "properties": { "P29_001": "04445", "P29_002": "C104224450019", "P29_003": "16002", "P29_004": "加美町立中新田中学校", "P29_005": "宮城県加美郡加美町字一本杉12", "P29_006": "3", "P29_007": "1", "P29_008": "00", "P29_009": null }, "geometry": { "type": "Point", "coordinates": [ 140.865317336812097, 38.570211409516219 ] } },
{ "type": "Feature", "properties": { "P29_001": "04445", "P29_002": "C104224450047", "P29_003": "16002", "P29_004": "加美町立鳴峰中学校", "P29_005": "宮城県加美郡加美町字中原23-41", "P29_006": "3", "P29_007": "1", "P29_008": "00", "P29_009": null }, "geometry": { "type": "Point", "coordinates": [ 140.778935597907633, 38.583064271308785 ] } },
{ "type": "Feature", "properties": { "P29_001": "04501", "P29_002": "C104225010019", "P29_003": "16002", "P29_004": "涌谷町立涌谷中学校", "P29_005": "宮城県遠田郡涌谷町涌谷字内林1-10", "P29_006": "3", "P29_007": "1", "P29_008": "00", "P29_009": null }, "geometry": { "type": "Point", "coordinates": [ 141.12944324711458, 38.548431636914103 ] } },
{ "type": "Feature", "properties": { "P29_001": "04505", "P29_002": "C104225050010", "P29_003": "16002", "P29_004": "美里町立小牛田中学校", "P29_005": "宮城県遠田郡美里町牛飼字新西原310", "P29_006": "3", "P29_007": "1", "P29_008": "00", "P29_009": null }, "geometry": { "type": "Point", "coordinates": [ 141.047830669807723, 38.556145725850541 ] } },
{ "type": "Feature", "properties": { "P29_001": "04505", "P29_002": "C104225050029", "P29_003": "16002", "P29_004": "美里町立不動堂中学校", "P29_005": "宮城県遠田郡美里町字志賀殿72", "P29_006": "3", "P29_007": "1", "P29_008": "00", "P29_009": null }, "geometry": { "type": "Point", "coordinates": [ 141.06875502038065, 38.533296370063148 ] } },
{ "type": "Feature", "properties": { "P29_001": "04505", "P29_002": "C104225050038", "P29_003": "16002", "P29_004": "美里町立南郷中学校", "P29_005": "宮城県遠田郡美里町木間塚字高田66", "P29_006": "3", "P29_007": "1", "P29_008": "00", "P29_009": null }, "geometry": { "type": "Point", "coordinates": [ 141.134655872073722, 38.486466912530609 ] } },
{ "type": "Feature", "properties": { "P29_001": "04581", "P29_002": "C104225810011", "P29_003": "16002", "P29_004": "女川町立女川中学校", "P29_005": "宮城県牡鹿郡女川町女川1-2-1", "P29_006": "3", "P29_007": "1", "P29_008": "00", "P29_009": null }, "geometry": { "type": "Point", "coordinates": [ 141.443210831286052, 38.44415856400984 ] } },
{ "type": "Feature", "properties": { "P29_001": "04606", "P29_002": "C104226060016", "P29_003": "16002", "P29_004": "南三陸町立志津川中学校", "P29_005": "宮城県本吉郡南三陸町志津川字助作1-1", "P29_006": "3", "P29_007": "1", "P29_008": "00", "P29_009": null }, "geometry": { "type": "Point", "coordinates": [ 141.443117934740684, 38.687311658323978 ] } },
{ "type": "Feature", "properties": { "P29_001": "04606", "P29_002": "C104226060025", "P29_003": "16002", "P29_004": "南三陸町立歌津中学校", "P29_005": "宮城県本吉郡南三陸町歌津字伊里前123", "P29_006": "3", "P29_007": "1", "P29_008": "00", "P29_009": null }, "geometry": { "type": "Point", "coordinates": [ 141.521594705675085, 38.719630585054183 ] } },
{ "type": "Feature", "properties": { "P29_001": "04101", "P29_002": "C104391010019", "P29_003": "16002", "P29_004": "尚絅学院中学校", "P29_005": "宮城県仙台市青葉区八幡1-9-27", "P29_006": "4", "P29_007": "1", "P29_008": "00", "P29_009": null }, "geometry": { "type": "Point", "coordinates": [ 140.854546217633072, 38.267715664208517 ] } },
{ "type": "Feature", "properties": { "P29_001": "04101", "P29_002": "C104391010028", "P29_003": "16002", "P29_004": "宮城学院中学校", "P29_005": "宮城県仙台市青葉区桜ヶ丘9-1-1", "P29_006": "4", "P29_007": "1", "P29_008": "00", "P29_009": null }, "geometry": { "type": "Point", "coordinates": [ 140.852948150713473, 38.308096675867553 ] } },
{ "type": "Feature", "properties": { "P29_001": "04101", "P29_002": "C104391010037", "P29_003": "16002", "P29_004": "聖ドミニコ学院中学校", "P29_005": "宮城県仙台市青葉区角五郎2-2-14", "P29_006": "4", "P29_007": "1", "P29_008": "00", "P29_009": null }, "geometry": { "type": "Point", "coordinates": [ 140.849111881734984, 38.265945449052857 ] } },
{ "type": "Feature", "properties": { "P29_001": "04102", "P29_002": "C104391020017", "P29_003": "16002", "P29_004": "東北学院中学校", "P29_005": "宮城県仙台市宮城野区小鶴字高野123-1", "P29_006": "4", "P29_007": "1", "P29_008": "00", "P29_009": null }, "geometry": { "type": "Point", "coordinates": [ 140.943423945709611, 38.276530737363544 ] } },
{ "type": "Feature", "properties": { "P29_001": "04102", "P29_002": "C104391020026", "P29_003": "16002", "P29_004": "秀光中学校", "P29_005": "宮城県仙台市宮城野区宮城野2-4-1", "P29_006": "4", "P29_007": "1", "P29_008": "00", "P29_009": null }, "geometry": { "type": "Point", "coordinates": [ 140.903333994518931, 38.260874002042719 ] } },
{ "type": "Feature", "properties": { "P29_001": "04103", "P29_002": "C104391030015", "P29_003": "16002", "P29_004": "聖ウルスラ学院英智中学校", "P29_005": "宮城県仙台市若林区一本杉町1-2", "P29_006": "4", "P29_007": "1", "P29_008": "00", "P29_009": null }, "geometry": { "type": "Point", "coordinates": [ 140.902940683529238, 38.244212762164317 ] } },
{ "type": "Feature", "properties": { "P29_001": "04421", "P29_002": "C104391050010", "P29_003": "16002", "P29_004": "仙台白百合学園中学校", "P29_005": "宮城県仙台市泉区紫山1-2-1", "P29_006": "4", "P29_007": "1", "P29_008": "00", "P29_009": null }, "geometry": { "type": "Point", "coordinates": [ 140.835563948680658, 38.347793402368431 ] } },
{ "type": "Feature", "properties": { "P29_001": "04215", "P29_002": "C104392150017", "P29_003": "16002", "P29_004": "古川学園中学校", "P29_005": "宮城県大崎市古川中里6-2-8", "P29_006": "4", "P29_007": "1", "P29_008": "00", "P29_009": null }, "geometry": { "type": "Point", "coordinates": [ 140.965874992821171, 38.56977562384499 ] } }
]
}
