{
"type": "FeatureCollection",
"name": "geo_04_幼保連携型認定こども園",
"crs": { "type": "name", "properties": { "name": "urn:ogc:def:crs:EPSG::6668" } },
"features": [
{ "type": "Feature", "properties": { "P29_001": "04202", "P29_002": "A204222020017", "P29_003": "16013", "P29_004": "石巻市立湊こども園", "P29_005": "宮城県石巻市八幡町1-6-22", "P29_006": "3", "P29_007": "0", "P29_008": "00", "P29_009": null }, "geometry": { "type": "Point", "coordinates": [ 141.314555446076724, 38.429266951155277 ] } },
{ "type": "Feature", "properties": { "P29_001": "04202", "P29_002": "A204222020026", "P29_003": "16013", "P29_004": "石巻市立北上こども園", "P29_005": "宮城県石巻市北上町十三浜字小田93-4", "P29_006": "3", "P29_007": "0", "P29_008": "00", "P29_009": null }, "geometry": { "type": "Point", "coordinates": [ 141.42496499674948, 38.567926996238072 ] } },
{ "type": "Feature", "properties": { "P29_001": "04212", "P29_002": "A204222120016", "P29_003": "16013", "P29_004": "登米市豊里こども園", "P29_005": "宮城県登米市豊里町小口前73-1", "P29_006": "3", "P29_007": "0", "P29_008": "00", "P29_009": null }, "geometry": { "type": "Point", "coordinates": [ 141.252138999598031, 38.586990000450733 ] } },
{ "type": "Feature", "properties": { "P29_001": "04301", "P29_002": "A204223010017", "P29_003": "16013", "P29_004": "蔵王町認定こども園", "P29_005": "宮城県刈田郡蔵王町宮字明神前55", "P29_006": "3", "P29_007": "0", "P29_008": "00", "P29_009": null }, "geometry": { "type": "Point", "coordinates": [ 140.651145212652182, 38.047126803363263 ] } },
{ "type": "Feature", "properties": { "P29_001": "04324", "P29_002": "A204223240019", "P29_003": "16013", "P29_004": "川崎町立かわさきこども園", "P29_005": "宮城県柴田郡川崎町大字前川字伊勢原27", "P29_006": "3", "P29_007": "0", "P29_008": "00", "P29_009": null }, "geometry": { "type": "Point", "coordinates": [ 140.639546994843755, 38.181244002934648 ] } },
{ "type": "Feature", "properties": { "P29_001": "04445", "P29_002": "A204224450012", "P29_003": "16013", "P29_004": "おのだひがし園", "P29_005": "宮城県加美郡加美町字長檀26-3", "P29_006": "3", "P29_007": "0", "P29_008": "00", "P29_009": null }, "geometry": { "type": "Point", "coordinates": [ 140.781349683072278, 38.576229075461022 ] } },
{ "type": "Feature", "properties": { "P29_001": "04445", "P29_002": "A204224450021", "P29_003": "16013", "P29_004": "おのだにし園", "P29_005": "宮城県加美郡加美町字田中浦55", "P29_006": "3", "P29_007": "0", "P29_008": "00", "P29_009": null }, "geometry": { "type": "Point", "coordinates": [ 140.730061148903474, 38.589381668170326 ] } },
{ "type": "Feature", "properties": { "P29_001": "04445", "P29_002": "A204224450030", "P29_003": "16013", "P29_004": "みやざき園", "P29_005": "宮城県加美郡加美町宮崎字屋敷1-6-2", "P29_006": "3", "P29_007": "0", "P29_008": "00", "P29_009": null }, "geometry": { "type": "Point", "coordinates": [ 140.761098618532003, 38.615264368014543 ] } },
{ "type": "Feature", "properties": { "P29_001": "04101", "P29_002": "A204391010012", "P29_003": "16013", "P29_004": "福聚幼稚園", "P29_005": "宮城県仙台市青葉区国見4-5-1", "P29_006": "4", "P29_007": "0", "P29_008": "00", "P29_009": null }, "geometry": { "type": "Point", "coordinates": [ 140.841456602825559, 38.279470912521219 ] } },
{ "type": "Feature", "properties": { "P29_001": "04101", "P29_002": "A204391010021", "P29_003": "16013", "P29_004": "幼保連携型認定こども園泉ヶ丘幼稚園・アルル保育園", "P29_005": "宮城県仙台市青葉区川平1-7-16", "P29_006": "4", "P29_007": "0", "P29_008": "00", "P29_009": null }, "geometry": { "type": "Point", "coordinates": [ 140.848320003280463, 38.294807998782581 ] } },
{ "type": "Feature", "properties": { "P29_001": "04101", "P29_002": "A204391010030", "P29_003": "16013", "P29_004": "幼保連携型認定こども園みどりの森", "P29_005": "宮城県仙台市青葉区柏木1-7-45", "P29_006": "4", "P29_007": "0", "P29_008": "00", "P29_009": null }, "geometry": { "type": "Point", "coordinates": [ 140.863159293960109, 38.276287095543708 ] } },
{ "type": "Feature", "properties": { "P29_001": "04101", "P29_002": "A204391010049", "P29_003": "16013", "P29_004": "宮城学院女子大学附属認定こども園森のこども園", "P29_005": "宮城県仙台市青葉区桜ケ丘9-1-1", "P29_006": "4", "P29_007": "0", "P29_008": "00", "P29_009": null }, "geometry": { "type": "Point", "coordinates": [ 140.852434033007768, 38.309078501405089 ] } },
{ "type": "Feature", "properties": { "P29_001": "04101", "P29_002": "A204391010058", "P29_003": "16013", "P29_004": "幼保連携型認定こども園はせくらまち杜のこども園", "P29_005": "宮城県仙台市青葉区支倉町2-55", "P29_006": "4", "P29_007": "0", "P29_008": "00", "P29_009": null }, "geometry": { "type": "Point", "coordinates": [ 140.86224280530999, 38.267621958451656 ] } },
{ "type": "Feature", "properties": { "P29_001": "04101", "P29_002": "A204391010067", "P29_003": "16013", "P29_004": "青葉こども園", "P29_005": "宮城県仙台市青葉区宮町1-4-47", "P29_006": "4", "P29_007": "0", "P29_008": "00", "P29_009": null }, "geometry": { "type": "Point", "coordinates": [ 140.884605128683575, 38.267361810050815 ] } },
{ "type": "Feature", "properties": { "P29_001": "04101", "P29_002": "A204391010076", "P29_003": "16013", "P29_004": "栗生あおばこども園", "P29_005": "宮城県仙台市青葉区栗生3-22-1", "P29_006": "4", "P29_007": "0", "P29_008": "00", "P29_009": null }, "geometry": { "type": "Point", "coordinates": [ 140.793462346710669, 38.269698661850789 ] } },
{ "type": "Feature", "properties": { "P29_001": "04101", "P29_002": "A204391010085", "P29_003": "16013", "P29_004": "幼保連携型認定こども園折立幼稚園・ナーサリールーム", "P29_005": "宮城県仙台市青葉区折立3-17-10", "P29_006": "4", "P29_007": "0", "P29_008": "00", "P29_009": null }, "geometry": { "type": "Point", "coordinates": [ 140.805874183901381, 38.26472972758134 ] } },
{ "type": "Feature", "properties": { "P29_001": "04101", "P29_002": "A204391010094", "P29_003": "16013", "P29_004": "落合はぐくみこども園", "P29_005": "宮城県仙台市青葉区落合4-1-10", "P29_006": "4", "P29_007": "0", "P29_008": "00", "P29_009": null }, "geometry": { "type": "Point", "coordinates": [ 140.784116731178074, 38.273416208902283 ] } },
{ "type": "Feature", "properties": { "P29_001": "04101", "P29_002": "A204391010101", "P29_003": "16013", "P29_004": "愛子すぎのここども園", "P29_005": "宮城県仙台市青葉区下愛子字横町前45-1", "P29_006": "4", "P29_007": "0", "P29_008": "00", "P29_009": null }, "geometry": { "type": "Point", "coordinates": [ 140.767570449545246, 38.270168039778369 ] } },
{ "type": "Feature", "properties": { "P29_001": "04101", "P29_002": "A204391010110", "P29_003": "16013", "P29_004": "食と森のこども園小松島", "P29_005": "宮城県仙台市青葉区小松島4-17-22", "P29_006": "4", "P29_007": "0", "P29_008": "00", "P29_009": null }, "geometry": { "type": "Point", "coordinates": [ 140.891262919989344, 38.284761115106562 ] } },
{ "type": "Feature", "properties": { "P29_001": "04101", "P29_002": "A204391010129", "P29_003": "16013", "P29_004": "ミッキー北仙台こども園", "P29_005": "宮城県仙台市青葉区昭和町4-11", "P29_006": "4", "P29_007": "0", "P29_008": "00", "P29_009": null }, "geometry": { "type": "Point", "coordinates": [ 140.868685619813988, 38.279810082733199 ] } },
{ "type": "Feature", "properties": { "P29_001": "04101", "P29_002": "A204391010138", "P29_003": "16013", "P29_004": "（仮称）幼保連携型認定こども園中山保育園", "P29_005": "宮城県仙台市青葉区中山1-6-2", "P29_006": "4", "P29_007": "0", "P29_008": "00", "P29_009": null }, "geometry": { "type": "Point", "coordinates": [ 140.851408454918044, 38.29196228646412 ] } },
{ "type": "Feature", "properties": { "P29_001": "04102", "P29_002": "A204391020010", "P29_003": "16013", "P29_004": "立華認定こども園", "P29_005": "宮城県仙台市宮城野区中野字大貝沼20-17", "P29_006": "4", "P29_007": "0", "P29_008": "00", "P29_009": null }, "geometry": { "type": "Point", "coordinates": [ 140.989727867207279, 38.282564622869309 ] } },
{ "type": "Feature", "properties": { "P29_001": "04102", "P29_002": "A204391020029", "P29_003": "16013", "P29_004": "新田すいせんこども園", "P29_005": "宮城県仙台市宮城野区新田4-13-5", "P29_006": "4", "P29_007": "0", "P29_008": "00", "P29_009": null }, "geometry": { "type": "Point", "coordinates": [ 140.926694285955563, 38.274199272104994 ] } },
{ "type": "Feature", "properties": { "P29_001": "04102", "P29_002": "A204391020038", "P29_003": "16013", "P29_004": "原町すいせんこども園", "P29_005": "宮城県仙台市宮城野区清水沼3-6-11", "P29_006": "4", "P29_007": "0", "P29_008": "00", "P29_009": null }, "geometry": { "type": "Point", "coordinates": [ 140.902899293896468, 38.268446776592192 ] } },
{ "type": "Feature", "properties": { "P29_001": "04102", "P29_002": "A204391020047", "P29_003": "16013", "P29_004": "新田東すいせんこども園", "P29_005": "宮城県仙台市宮城野区新田東3-6", "P29_006": "4", "P29_007": "0", "P29_008": "00", "P29_009": null }, "geometry": { "type": "Point", "coordinates": [ 140.935196022075104, 38.273535043908019 ] } },
{ "type": "Feature", "properties": { "P29_001": "04102", "P29_002": "A204391020056", "P29_003": "16013", "P29_004": "さゆりこども園", "P29_005": "宮城県仙台市宮城野区枡江1-2", "P29_006": "4", "P29_007": "0", "P29_008": "00", "P29_009": null }, "geometry": { "type": "Point", "coordinates": [ 140.907432993945179, 38.280527000626414 ] } },
{ "type": "Feature", "properties": { "P29_001": "04102", "P29_002": "A204391020065", "P29_003": "16013", "P29_004": "認定こども園ナザレト愛児園", "P29_005": "宮城県仙台市宮城野区東仙台6-8-20", "P29_006": "4", "P29_007": "0", "P29_008": "00", "P29_009": null }, "geometry": { "type": "Point", "coordinates": [ 140.912238653104197, 38.280231085945488 ] } },
{ "type": "Feature", "properties": { "P29_001": "04102", "P29_002": "A204391020074", "P29_003": "16013", "P29_004": "幼保連携型認定こども園岩切東光第二幼稚園・ひかり保育園", "P29_005": "宮城県仙台市宮城野区岩切字高江45・38-1", "P29_006": "4", "P29_007": "0", "P29_008": "00", "P29_009": null }, "geometry": { "type": "Point", "coordinates": [ 140.946543003938018, 38.297464001967199 ] } },
{ "type": "Feature", "properties": { "P29_001": "04102", "P29_002": "A204391020083", "P29_003": "16013", "P29_004": "認定こども園東盛マイトリー幼稚園", "P29_005": "宮城県仙台市宮城野区新田2-20-38", "P29_006": "4", "P29_007": "0", "P29_008": "00", "P29_009": null }, "geometry": { "type": "Point", "coordinates": [ 140.923746825050273, 38.277289639140641 ] } },
{ "type": "Feature", "properties": { "P29_001": "04102", "P29_002": "A204391020109", "P29_003": "16013", "P29_004": "幼保連携型認定こども園中野栄あしぐろこども園", "P29_005": "宮城県仙台市宮城野区出花1-279", "P29_006": "4", "P29_007": "0", "P29_008": "00", "P29_009": null }, "geometry": { "type": "Point", "coordinates": [ 140.985171318460971, 38.275850750987772 ] } },
{ "type": "Feature", "properties": { "P29_001": "04102", "P29_002": "A204391020118", "P29_003": "16013", "P29_004": "認定こども園ろりぽっぷ出花園", "P29_005": "宮城県仙台市宮城野区出花2-5-12", "P29_006": "4", "P29_007": "0", "P29_008": "00", "P29_009": null }, "geometry": { "type": "Point", "coordinates": [ 140.986596279248772, 38.277711163825671 ] } },
{ "type": "Feature", "properties": { "P29_001": "04103", "P29_002": "A204391030018", "P29_003": "16013", "P29_004": "学校法人七郷学園蒲町こども園", "P29_005": "宮城県仙台市若林区蒲町42-10", "P29_006": "4", "P29_007": "0", "P29_008": "00", "P29_009": null }, "geometry": { "type": "Point", "coordinates": [ 140.928424091946653, 38.242802357421695 ] } },
{ "type": "Feature", "properties": { "P29_001": "04103", "P29_002": "A204391030027", "P29_003": "16013", "P29_004": "河原町すいせんこども園", "P29_005": "宮城県仙台市若林区河原町2-8-10", "P29_006": "4", "P29_007": "0", "P29_008": "00", "P29_009": null }, "geometry": { "type": "Point", "coordinates": [ 140.893641995358905, 38.237203003186984 ] } },
{ "type": "Feature", "properties": { "P29_001": "04103", "P29_002": "A204391030036", "P29_003": "16013", "P29_004": "幼保連携型認定こども園荒井マーヤこども園", "P29_005": "宮城県仙台市若林区荒井字沓形85-1", "P29_006": "4", "P29_007": "0", "P29_008": "00", "P29_009": null }, "geometry": { "type": "Point", "coordinates": [ 140.948456876651733, 38.244846844533633 ] } },
{ "type": "Feature", "properties": { "P29_001": "04103", "P29_002": "A204391030045", "P29_003": "16013", "P29_004": "幼保連携型認定こども園仙台保育園", "P29_005": "宮城県仙台市若林区南鍛冶町96-8", "P29_006": "4", "P29_007": "0", "P29_008": "00", "P29_009": null }, "geometry": { "type": "Point", "coordinates": [ 140.888806175911753, 38.249314237870166 ] } },
{ "type": "Feature", "properties": { "P29_001": "04103", "P29_002": "A204391030054", "P29_003": "16013", "P29_004": "認定ろりぽっぷこども園", "P29_005": "宮城県仙台市若林区沖野字高野南197-1", "P29_006": "4", "P29_007": "0", "P29_008": "00", "P29_009": null }, "geometry": { "type": "Point", "coordinates": [ 140.921340998993713, 38.221376997662276 ] } },
{ "type": "Feature", "properties": { "P29_001": "04103", "P29_002": "A204391030063", "P29_003": "16013", "P29_004": "認定こども園ろりぽっぷ保育園", "P29_005": "宮城県仙台市若林区沖野字高野南197-1", "P29_006": "4", "P29_007": "0", "P29_008": "00", "P29_009": null }, "geometry": { "type": "Point", "coordinates": [ 140.921405749040758, 38.221751257980429 ] } },
{ "type": "Feature", "properties": { "P29_001": "04103", "P29_002": "A204391030072", "P29_003": "16013", "P29_004": "（仮称）荒井あおばこども園", "P29_005": "宮城県仙台市若林区伊在3-2-4", "P29_006": "4", "P29_007": "0", "P29_008": "00", "P29_009": null }, "geometry": { "type": "Point", "coordinates": [ 140.940560952602397, 38.24707240755049 ] } },
{ "type": "Feature", "properties": { "P29_001": "04103", "P29_002": "A204391030081", "P29_003": "16013", "P29_004": "（仮称）幼保連携型認定こども園光の子", "P29_005": "宮城県仙台市若林区卸町2-1-17", "P29_006": "4", "P29_007": "0", "P29_008": "00", "P29_009": null }, "geometry": { "type": "Point", "coordinates": [ 140.923980403589752, 38.252532039390786 ] } },
{ "type": "Feature", "properties": { "P29_001": "04104", "P29_002": "A204391040016", "P29_003": "16013", "P29_004": "認定こども園くり幼稚園・くりっこ保育園", "P29_005": "宮城県仙台市太白区西中田6-8-20", "P29_006": "4", "P29_007": "0", "P29_008": "00", "P29_009": null }, "geometry": { "type": "Point", "coordinates": [ 140.881986996407477, 38.192793996966735 ] } },
{ "type": "Feature", "properties": { "P29_001": "04104", "P29_002": "A204391040025", "P29_003": "16013", "P29_004": "認定向山こども園", "P29_005": "宮城県仙台市太白区八木山緑町21-10", "P29_006": "4", "P29_007": "0", "P29_008": "00", "P29_009": null }, "geometry": { "type": "Point", "coordinates": [ 140.865661538722293, 38.240587907514531 ] } },
{ "type": "Feature", "properties": { "P29_001": "04104", "P29_002": "A204391040034", "P29_003": "16013", "P29_004": "ゆりかご認定こども園", "P29_005": "宮城県仙台市太白区袋原6-6-10", "P29_006": "4", "P29_007": "0", "P29_008": "00", "P29_009": null }, "geometry": { "type": "Point", "coordinates": [ 140.909702003683378, 38.195463001312163 ] } },
{ "type": "Feature", "properties": { "P29_001": "04104", "P29_002": "A204391040043", "P29_003": "16013", "P29_004": "太子堂すいせんこども園", "P29_005": "宮城県仙台市太白区太子堂1-21", "P29_006": "4", "P29_007": "0", "P29_008": "00", "P29_009": null }, "geometry": { "type": "Point", "coordinates": [ 140.882906004446625, 38.217492999723291 ] } },
{ "type": "Feature", "properties": { "P29_001": "04104", "P29_002": "A204391040052", "P29_003": "16013", "P29_004": "西多賀チェリーこども園", "P29_005": "宮城県仙台市太白区西多賀3-1-20", "P29_006": "4", "P29_007": "0", "P29_008": "00", "P29_009": null }, "geometry": { "type": "Point", "coordinates": [ 140.855749164906342, 38.221943159559046 ] } },
{ "type": "Feature", "properties": { "P29_001": "04104", "P29_002": "A204391040061", "P29_003": "16013", "P29_004": "太白すぎのここども園", "P29_005": "宮城県仙台市太白区富沢西4-11-5", "P29_006": "4", "P29_007": "0", "P29_008": "00", "P29_009": null }, "geometry": { "type": "Point", "coordinates": [ 140.863023825931634, 38.21037990699098 ] } },
{ "type": "Feature", "properties": { "P29_001": "04104", "P29_002": "A204391040070", "P29_003": "16013", "P29_004": "バンビの森こども園", "P29_005": "宮城県仙台市太白区中田4-1-3-1", "P29_006": "4", "P29_007": "0", "P29_008": "00", "P29_009": null }, "geometry": { "type": "Point", "coordinates": [ 140.888706002353075, 38.20002600071259 ] } },
{ "type": "Feature", "properties": { "P29_001": "04104", "P29_002": "A204391040089", "P29_003": "16013", "P29_004": "大野田すぎのここども園", "P29_005": "宮城県仙台市太白区大野田5-23-2", "P29_006": "4", "P29_007": "0", "P29_008": "00", "P29_009": null }, "geometry": { "type": "Point", "coordinates": [ 140.875159947254389, 38.215363442063151 ] } },
{ "type": "Feature", "properties": { "P29_001": "04104", "P29_002": "A204391040098", "P29_003": "16013", "P29_004": "（仮称）YMCA西中田こども園", "P29_005": "宮城県仙台市太白区西中田7-4-1", "P29_006": "4", "P29_007": "0", "P29_008": "00", "P29_009": null }, "geometry": { "type": "Point", "coordinates": [ 140.877513728570023, 38.193115779823451 ] } },
{ "type": "Feature", "properties": { "P29_001": "04104", "P29_002": "A204391040105", "P29_003": "16013", "P29_004": "（仮称）YMCA南大野田こども園", "P29_005": "宮城県仙台市太白区南大野田9-1", "P29_006": "4", "P29_007": "0", "P29_008": "00", "P29_009": null }, "geometry": { "type": "Point", "coordinates": [ 140.871361797385191, 38.211156898242116 ] } },
{ "type": "Feature", "properties": { "P29_001": "04105", "P29_002": "A204391050013", "P29_003": "16013", "P29_004": "泉第２チェリーこども園", "P29_005": "宮城県仙台市泉区泉中央2-1-12", "P29_006": "4", "P29_007": "0", "P29_008": "00", "P29_009": null }, "geometry": { "type": "Point", "coordinates": [ 140.882387299779595, 38.327054648691238 ] } },
{ "type": "Feature", "properties": { "P29_001": "04105", "P29_002": "A204391050022", "P29_003": "16013", "P29_004": "幼保連携型認定こども園やかまし村", "P29_005": "宮城県仙台市泉区野村字東原屋敷3-2", "P29_006": "4", "P29_007": "0", "P29_008": "00", "P29_009": null }, "geometry": { "type": "Point", "coordinates": [ 140.860649363554472, 38.325329369437135 ] } },
{ "type": "Feature", "properties": { "P29_001": "04105", "P29_002": "A204391050031", "P29_003": "16013", "P29_004": "泉チェリーこども園", "P29_005": "宮城県仙台市泉区泉中央2-1-56", "P29_006": "4", "P29_007": "0", "P29_008": "00", "P29_009": null }, "geometry": { "type": "Point", "coordinates": [ 140.880912146543892, 38.326697205842059 ] } },
{ "type": "Feature", "properties": { "P29_001": "04105", "P29_002": "A204391050040", "P29_003": "16013", "P29_004": "寺岡すいせんこども園", "P29_005": "宮城県仙台市泉区寺岡3-1-4", "P29_006": "4", "P29_007": "0", "P29_008": "00", "P29_009": null }, "geometry": { "type": "Point", "coordinates": [ 140.826282998210331, 38.340083002856503 ] } },
{ "type": "Feature", "properties": { "P29_001": "04105", "P29_002": "A204391050059", "P29_003": "16013", "P29_004": "幼保連携型認定こども園高森サーラこども園", "P29_005": "宮城県仙台市泉区高森4-2-615", "P29_006": "4", "P29_007": "0", "P29_008": "00", "P29_009": null }, "geometry": { "type": "Point", "coordinates": [ 140.848192003234374, 38.332674002281095 ] } },
{ "type": "Feature", "properties": { "P29_001": "04105", "P29_002": "A204391050068", "P29_003": "16013", "P29_004": "学校法人秀志学園幼保連携型認定こども園泉の杜幼稚園", "P29_005": "宮城県仙台市泉区小角字大満寺22-4", "P29_006": "4", "P29_007": "0", "P29_008": "00", "P29_009": null }, "geometry": { "type": "Point", "coordinates": [ 140.795027544860233, 38.328033808261004 ] } },
{ "type": "Feature", "properties": { "P29_001": "04105", "P29_002": "A204391050077", "P29_003": "16013", "P29_004": "社会福祉法人一寿会住吉台こども園", "P29_005": "宮城県仙台市泉区住吉台西2-7-6", "P29_006": "4", "P29_007": "0", "P29_008": "00", "P29_009": null }, "geometry": { "type": "Point", "coordinates": [ 140.777468604663227, 38.329488284637335 ] } },
{ "type": "Feature", "properties": { "P29_001": "04105", "P29_002": "A204391050086", "P29_003": "16013", "P29_004": "社会福祉法人一寿会長命ケ丘つくしこども園", "P29_005": "宮城県仙台市泉区長命ケ丘3-20-10", "P29_006": "4", "P29_007": "0", "P29_008": "00", "P29_009": null }, "geometry": { "type": "Point", "coordinates": [ 140.833105310304234, 38.309661388720095 ] } },
{ "type": "Feature", "properties": { "P29_001": "04105", "P29_002": "A204391050095", "P29_003": "16013", "P29_004": "幼保連携型認定こども園明石南こどもの城", "P29_005": "宮城県仙台市泉区明石南2-3", "P29_006": "4", "P29_007": "0", "P29_008": "00", "P29_009": null }, "geometry": { "type": "Point", "coordinates": [ 140.890100733798988, 38.340647045581193 ] } },
{ "type": "Feature", "properties": { "P29_001": "04105", "P29_002": "A204391050102", "P29_003": "16013", "P29_004": "幼保連携型認定こども園桂こどもの城", "P29_005": "宮城県仙台市泉区桂3-19-6", "P29_006": "4", "P29_007": "0", "P29_008": "00", "P29_009": null }, "geometry": { "type": "Point", "coordinates": [ 140.861165356137832, 38.339949257978738 ] } },
{ "type": "Feature", "properties": { "P29_001": "04105", "P29_002": "A204391050111", "P29_003": "16013", "P29_004": "ミッキー八乙女こども園", "P29_005": "宮城県仙台市泉区八乙女4-21-1", "P29_006": "4", "P29_007": "0", "P29_008": "00", "P29_009": null }, "geometry": { "type": "Point", "coordinates": [ 140.899171601578701, 38.311351743886704 ] } },
{ "type": "Feature", "properties": { "P29_001": "04105", "P29_002": "A204391050120", "P29_003": "16013", "P29_004": "認定こども園ろりぽっぷ泉中央南園", "P29_005": "宮城県仙台市泉区泉中央南9", "P29_006": "4", "P29_007": "0", "P29_008": "00", "P29_009": null }, "geometry": { "type": "Point", "coordinates": [ 140.871641183652628, 38.320545345759022 ] } },
{ "type": "Feature", "properties": { "P29_001": "04105", "P29_002": "A204391050139", "P29_003": "16013", "P29_004": "認定こども園ろりぽっぷ赤い屋根の保育園", "P29_005": "宮城県仙台市泉区野村字一本杉3-21", "P29_006": "4", "P29_007": "0", "P29_008": "00", "P29_009": null }, "geometry": { "type": "Point", "coordinates": [ 140.869071056170924, 38.32507760356031 ] } },
{ "type": "Feature", "properties": { "P29_001": "04105", "P29_002": "A204391050149", "P29_003": "16013", "P29_004": "（仮称）YMCA加茂こども園", "P29_005": "宮城県仙台市泉区加茂5-5-29", "P29_006": "4", "P29_007": "0", "P29_008": "00", "P29_009": null }, "geometry": { "type": "Point", "coordinates": [ 140.848087939771347, 38.315181711691302 ] } },
{ "type": "Feature", "properties": { "P29_001": "04105", "P29_002": "A204391050158", "P29_003": "16013", "P29_004": "（仮称）南光台すいせんこども園", "P29_005": "宮城県仙台市泉区南光台5-27-18", "P29_006": "4", "P29_007": "0", "P29_008": "00", "P29_009": null }, "geometry": { "type": "Point", "coordinates": [ 140.895949446312812, 38.305935648419599 ] } },
{ "type": "Feature", "properties": { "P29_001": "04202", "P29_002": "A204392020018", "P29_003": "16013", "P29_004": "幼保連携型認定こども園石巻ひまわりこども園", "P29_005": "宮城県石巻市住吉町2-5-26", "P29_006": "4", "P29_007": "0", "P29_008": "00", "P29_009": null }, "geometry": { "type": "Point", "coordinates": [ 141.312686902318859, 38.438105636775916 ] } },
{ "type": "Feature", "properties": { "P29_001": "04203", "P29_002": "A204392030016", "P29_003": "16013", "P29_004": "幼保連携型認定こども園塩釜聖光幼稚園", "P29_005": "宮城県塩竈市泉ヶ岡4-15", "P29_006": "4", "P29_007": "0", "P29_008": "00", "P29_009": null }, "geometry": { "type": "Point", "coordinates": [ 141.013206754560855, 38.315048408400841 ] } },
{ "type": "Feature", "properties": { "P29_001": "04207", "P29_002": "A204392070017", "P29_003": "16013", "P29_004": "認定こども園なとり幼稚園・なとり保育園", "P29_005": "宮城県名取市増田3-8-8", "P29_006": "4", "P29_007": "0", "P29_008": "00", "P29_009": null }, "geometry": { "type": "Point", "coordinates": [ 140.888084783941366, 38.169809441736511 ] } },
{ "type": "Feature", "properties": { "P29_001": "04207", "P29_002": "A204392070026", "P29_003": "16013", "P29_004": "認定こども園なとり第二幼稚園・なとり第二保育園", "P29_005": "宮城県名取市手倉田諏訪276", "P29_006": "4", "P29_007": "0", "P29_008": "00", "P29_009": null }, "geometry": { "type": "Point", "coordinates": [ 140.874172003045885, 38.169833995108611 ] } },
{ "type": "Feature", "properties": { "P29_001": "04207", "P29_002": "A204392070035", "P29_003": "16013", "P29_004": "社会福祉法人一寿会名取みたぞのこども園", "P29_005": "宮城県名取市美田園5-3-5", "P29_006": "4", "P29_007": "0", "P29_008": "00", "P29_009": null }, "geometry": { "type": "Point", "coordinates": [ 140.917217003573285, 38.158389000634131 ] } },
{ "type": "Feature", "properties": { "P29_001": "04207", "P29_002": "A204392070044", "P29_003": "16013", "P29_004": "社会福祉法人一寿会名取あけぼのこども園", "P29_005": "宮城県名取市増田6-1-40", "P29_006": "4", "P29_007": "0", "P29_008": "00", "P29_009": null }, "geometry": { "type": "Point", "coordinates": [ 140.884520682626714, 38.177831931794884 ] } },
{ "type": "Feature", "properties": { "P29_001": "04207", "P29_002": "A204392070053", "P29_003": "16013", "P29_004": "閖上わかばこども園", "P29_005": "宮城県名取市閖上西2-12", "P29_006": "4", "P29_007": "0", "P29_008": "00", "P29_009": null }, "geometry": { "type": "Point", "coordinates": [ 140.942272433314031, 38.179812103088139 ] } },
{ "type": "Feature", "properties": { "P29_001": "04207", "P29_002": "A204392070062", "P29_003": "16013", "P29_004": "ぷらむ館腰こども園", "P29_005": "宮城県名取市植松3-2-14", "P29_006": "4", "P29_007": "0", "P29_008": "00", "P29_009": null }, "geometry": { "type": "Point", "coordinates": [ 140.880239446864294, 38.148052806756041 ] } },
{ "type": "Feature", "properties": { "P29_001": "04208", "P29_002": "A204392080015", "P29_003": "16013", "P29_004": "なかよしこどもえん", "P29_005": "宮城県角田市角田字牛舘59-1", "P29_006": "4", "P29_007": "0", "P29_008": "00", "P29_009": null }, "geometry": { "type": "Point", "coordinates": [ 140.778848999585705, 37.971314995515137 ] } },
{ "type": "Feature", "properties": { "P29_001": "04209", "P29_002": "A204392090013", "P29_003": "16013", "P29_004": "多賀城東幼稚園・あずま保育園", "P29_005": "宮城県多賀城市浮島1-13-5", "P29_006": "4", "P29_007": "0", "P29_008": "00", "P29_009": null }, "geometry": { "type": "Point", "coordinates": [ 140.995816994913696, 38.302671000279013 ] } },
{ "type": "Feature", "properties": { "P29_001": "04209", "P29_002": "A204392090022", "P29_003": "16013", "P29_004": "多賀城バンビの丘こども園", "P29_005": "宮城県多賀城市新田字北1-3", "P29_006": "4", "P29_007": "0", "P29_008": "00", "P29_009": null }, "geometry": { "type": "Point", "coordinates": [ 140.961687715334591, 38.297449176305214 ] } },
{ "type": "Feature", "properties": { "P29_001": "04209", "P29_002": "A204392090031", "P29_003": "16013", "P29_004": "幼保連携型認定こども園つむぎ野", "P29_005": "宮城県多賀城市鶴ヶ谷1-12-1", "P29_006": "4", "P29_007": "0", "P29_008": "00", "P29_009": null }, "geometry": { "type": "Point", "coordinates": [ 141.015732981812533, 38.29850671899937 ] } },
{ "type": "Feature", "properties": { "P29_001": "04211", "P29_002": "A204392110019", "P29_003": "16013", "P29_004": "チアフルこども園", "P29_005": "宮城県岩沼市三色吉字中ノ原75-6", "P29_006": "4", "P29_007": "0", "P29_008": "00", "P29_009": null }, "geometry": { "type": "Point", "coordinates": [ 140.842416999694308, 38.123339997686308 ] } },
{ "type": "Feature", "properties": { "P29_001": "04211", "P29_002": "A204392110028", "P29_003": "16013", "P29_004": "岩沼はるかぜこども園", "P29_005": "宮城県岩沼市押分字水先5-6", "P29_006": "4", "P29_007": "0", "P29_008": "00", "P29_009": null }, "geometry": { "type": "Point", "coordinates": [ 140.881836629885896, 38.102652291579069 ] } },
{ "type": "Feature", "properties": { "P29_001": "04211", "P29_002": "A204392110037", "P29_003": "16013", "P29_004": "幼保連携型認定こども園岩沼西こばと幼稚園・ぶどうの木保育園", "P29_005": "宮城県岩沼市松ヶ丘1-10-2", "P29_006": "4", "P29_007": "0", "P29_008": "00", "P29_009": null }, "geometry": { "type": "Point", "coordinates": [ 140.850594360716968, 38.111340474006852 ] } },
{ "type": "Feature", "properties": { "P29_001": "04212", "P29_002": "A204392120017", "P29_003": "16013", "P29_004": "佐沼明星こども園", "P29_005": "宮城県登米市迫町佐沼字上舟丁12", "P29_006": "4", "P29_007": "0", "P29_008": "00", "P29_009": null }, "geometry": { "type": "Point", "coordinates": [ 141.195860003259099, 38.689886003662409 ] } },
{ "type": "Feature", "properties": { "P29_001": "04212", "P29_002": "A204392120026", "P29_003": "16013", "P29_004": "登米北上こども園", "P29_005": "宮城県登米市登米町寺池目子待井393", "P29_006": "4", "P29_007": "0", "P29_008": "00", "P29_009": null }, "geometry": { "type": "Point", "coordinates": [ 141.277805995968606, 38.656732001146551 ] } },
{ "type": "Feature", "properties": { "P29_001": "04212", "P29_002": "A204392120035", "P29_003": "16013", "P29_004": "米谷こども園", "P29_005": "宮城県登米市東和町米谷字石橋26-1", "P29_006": "4", "P29_007": "0", "P29_008": "00", "P29_009": null }, "geometry": { "type": "Point", "coordinates": [ 141.295472004569348, 38.706790996234254 ] } },
{ "type": "Feature", "properties": { "P29_001": "04212", "P29_002": "A204392120044", "P29_003": "16013", "P29_004": "幼保連携型認定こども園白鳥ゆめっ子園", "P29_005": "宮城県登米市迫町北方字三方島西22-2", "P29_006": "4", "P29_007": "0", "P29_008": "00", "P29_009": null }, "geometry": { "type": "Point", "coordinates": [ 141.161825250833544, 38.72063324199938 ] } },
{ "type": "Feature", "properties": { "P29_001": "04212", "P29_002": "A204392120053", "P29_003": "16013", "P29_004": "幼保連携型認定こども園　白鳥水の里こども園", "P29_005": "宮城県登米市迫町佐沼字新駒木袋348-1", "P29_006": "4", "P29_007": "0", "P29_008": "00", "P29_009": null }, "geometry": { "type": "Point", "coordinates": [ 141.208761482355243, 38.682982220629057 ] } },
{ "type": "Feature", "properties": { "P29_001": "04212", "P29_002": "A204392120062", "P29_003": "16013", "P29_004": "つやま杉の子こども園", "P29_005": "宮城県登米市津山町柳津字形沼9-2", "P29_006": "4", "P29_007": "0", "P29_008": "00", "P29_009": null }, "geometry": { "type": "Point", "coordinates": [ 141.302423901523611, 38.610215064454501 ] } },
{ "type": "Feature", "properties": { "P29_001": "04212", "P29_002": "A204392120071", "P29_003": "16013", "P29_004": "石越にじいろこども園", "P29_005": "宮城県登米市石越町南郷新石沢前47-8", "P29_006": "4", "P29_007": "0", "P29_008": "00", "P29_009": null }, "geometry": { "type": "Point", "coordinates": [ 141.176183014797402, 38.753790585334279 ] } },
{ "type": "Feature", "properties": { "P29_001": "04212", "P29_002": "A204392120080", "P29_003": "16013", "P29_004": "幼保連携型認定こども園森のくまさん", "P29_005": "宮城県登米市中田町石森字西田南128-1", "P29_006": "4", "P29_007": "0", "P29_008": "00", "P29_009": null }, "geometry": { "type": "Point", "coordinates": [ 141.206966003116065, 38.712180001803858 ] } },
{ "type": "Feature", "properties": { "P29_001": "04215", "P29_002": "A204392150010", "P29_003": "16013", "P29_004": "幼保連携型太陽認定こども園", "P29_005": "宮城県大崎市古川福浦2-2-28", "P29_006": "4", "P29_007": "0", "P29_008": "00", "P29_009": null }, "geometry": { "type": "Point", "coordinates": [ 140.964461871539754, 38.589795548955728 ] } },
{ "type": "Feature", "properties": { "P29_001": "04215", "P29_002": "A204392150029", "P29_003": "16013", "P29_004": "幼保連携型虹の精認定こども園", "P29_005": "宮城県大崎市古川福浦字道ノ上147-1", "P29_006": "4", "P29_007": "0", "P29_008": "00", "P29_009": null }, "geometry": { "type": "Point", "coordinates": [ 140.957662169239313, 38.591951922938627 ] } },
{ "type": "Feature", "properties": { "P29_001": "04215", "P29_002": "A204392150038", "P29_003": "16013", "P29_004": "鳴子こども園", "P29_005": "宮城県大崎市鳴子温泉字上鳴子19-1", "P29_006": "4", "P29_007": "0", "P29_008": "00", "P29_009": null }, "geometry": { "type": "Point", "coordinates": [ 140.712197002867526, 38.740067998453469 ] } },
{ "type": "Feature", "properties": { "P29_001": "04215", "P29_002": "A204392150047", "P29_003": "16013", "P29_004": "認定いわでやまこども園", "P29_005": "宮城県大崎市岩出山字二ノ構44-2", "P29_006": "4", "P29_007": "0", "P29_008": "00", "P29_009": null }, "geometry": { "type": "Point", "coordinates": [ 140.864228999948097, 38.64986400129159 ] } },
{ "type": "Feature", "properties": { "P29_001": "04215", "P29_002": "A204392150056", "P29_003": "16013", "P29_004": "ほなみの杜こども園", "P29_005": "宮城県大崎市古川石森字本宮崎129-1", "P29_006": "4", "P29_007": "0", "P29_008": "00", "P29_009": null }, "geometry": { "type": "Point", "coordinates": [ 140.998705972197683, 38.543495658603803 ] } },
{ "type": "Feature", "properties": { "P29_001": "04216", "P29_002": "A204392160018", "P29_003": "16013", "P29_004": "とみや杜の橋こども園", "P29_005": "宮城県富谷市杜乃橋2-11-6", "P29_006": "4", "P29_007": "0", "P29_008": "00", "P29_009": null }, "geometry": { "type": "Point", "coordinates": [ 140.870632005653562, 38.387326958875754 ] } },
{ "type": "Feature", "properties": { "P29_001": "04216", "P29_002": "A204392160027", "P29_003": "16013", "P29_004": "上桜木果樹園の森こども園", "P29_005": "宮城県富谷市上桜木2-1-9", "P29_006": "4", "P29_007": "0", "P29_008": "00", "P29_009": null }, "geometry": { "type": "Point", "coordinates": [ 140.879907002745881, 38.364836998206854 ] } },
{ "type": "Feature", "properties": { "P29_001": "04216", "P29_002": "A204392160036", "P29_003": "16013", "P29_004": "明石台若樹の森こども園", "P29_005": "宮城県富谷市明石台4-3-3", "P29_006": "4", "P29_007": "0", "P29_008": "00", "P29_009": null }, "geometry": { "type": "Point", "coordinates": [ 140.883591506827003, 38.348312357934468 ] } },
{ "type": "Feature", "properties": { "P29_001": "04216", "P29_002": "A204392160045", "P29_003": "16013", "P29_004": "社会福祉法人富谷福祉会幼保連携型認定こども園アルシュ富谷こども園", "P29_005": "宮城県富谷市明石台7-2-2", "P29_006": "4", "P29_007": "0", "P29_008": "00", "P29_009": null }, "geometry": { "type": "Point", "coordinates": [ 140.899699535253859, 38.346306698964483 ] } },
{ "type": "Feature", "properties": { "P29_001": "04216", "P29_002": "A204392160054", "P29_003": "16013", "P29_004": "明石台こども園", "P29_005": "宮城県富谷市明石台1-2-1", "P29_006": "4", "P29_007": "0", "P29_008": "00", "P29_009": null }, "geometry": { "type": "Point", "coordinates": [ 140.901229275714115, 38.341989480361242 ] } },
{ "type": "Feature", "properties": { "P29_001": "04341", "P29_002": "A204393410014", "P29_003": "16013", "P29_004": "丸森ひまわりこども園", "P29_005": "宮城県伊具郡丸森町舘矢間舘山字玉川136-1", "P29_006": "4", "P29_007": "0", "P29_008": "00", "P29_009": null }, "geometry": { "type": "Point", "coordinates": [ 140.766275003695114, 37.924865996445085 ] } },
{ "type": "Feature", "properties": { "P29_001": "04361", "P29_002": "A204393610012", "P29_003": "16013", "P29_004": "認定こども園くまさんこども園", "P29_005": "宮城県亘理郡亘理町逢隈牛袋字舘内2-1", "P29_006": "4", "P29_007": "0", "P29_008": "00", "P29_009": null }, "geometry": { "type": "Point", "coordinates": [ 140.875563232107964, 38.075634937450211 ] } },
{ "type": "Feature", "properties": { "P29_001": "04401", "P29_002": "A204394010016", "P29_003": "16013", "P29_004": "認定こども園松島めぶきの森", "P29_005": "宮城県宮城郡松島町根廻字人筈26-48", "P29_006": "4", "P29_007": "0", "P29_008": "00", "P29_009": null }, "geometry": { "type": "Point", "coordinates": [ 141.07516786174088, 38.397235261076901 ] } },
{ "type": "Feature", "properties": { "P29_001": "04404", "P29_002": "A204394040010", "P29_003": "16013", "P29_004": "遠山幼稚園・遠山保育園", "P29_005": "宮城県宮城郡七ヶ浜町遠山1-1-29", "P29_006": "4", "P29_007": "0", "P29_008": "00", "P29_009": null }, "geometry": { "type": "Point", "coordinates": [ 141.042099998741577, 38.297813998619198 ] } },
{ "type": "Feature", "properties": { "P29_001": "04404", "P29_002": "A204394040029", "P29_003": "16013", "P29_004": "汐見台幼稚園・汐見台保育園", "P29_005": "宮城県宮城郡七ヶ浜町汐見台3-3-43", "P29_006": "4", "P29_007": "0", "P29_008": "00", "P29_009": null }, "geometry": { "type": "Point", "coordinates": [ 141.049094661542938, 38.299156870499957 ] } },
{ "type": "Feature", "properties": { "P29_001": "04406", "P29_002": "A204394060015", "P29_003": "16013", "P29_004": "幼保連携型認定こども園青山すぎのここども園", "P29_005": "宮城県宮城郡利府町青山1-4-1", "P29_006": "4", "P29_007": "0", "P29_008": "00", "P29_009": null }, "geometry": { "type": "Point", "coordinates": [ 140.967120958154595, 38.338982463805976 ] } },
{ "type": "Feature", "properties": { "P29_001": "04421", "P29_002": "A204394210014", "P29_003": "16013", "P29_004": "幼保連携型認定こども園大和すぎのここども園", "P29_005": "宮城県黒川郡大和町吉岡字町裏16", "P29_006": "4", "P29_007": "0", "P29_008": "00", "P29_009": null }, "geometry": { "type": "Point", "coordinates": [ 140.88653209236665, 38.446436191591843 ] } },
{ "type": "Feature", "properties": { "P29_001": "04421", "P29_002": "A204394210023", "P29_003": "16013", "P29_004": "みやの森こども園", "P29_005": "宮城県黒川郡大和町宮床字松倉91", "P29_006": "4", "P29_007": "0", "P29_008": "00", "P29_009": null }, "geometry": { "type": "Point", "coordinates": [ 140.859442363337962, 38.42464783289261 ] } },
{ "type": "Feature", "properties": { "P29_001": "04421", "P29_002": "A204394210032", "P29_003": "16013", "P29_004": "菜の花こども園", "P29_005": "宮城県黒川郡大和町吉岡字館下38", "P29_006": "4", "P29_007": "0", "P29_008": "00", "P29_009": null }, "geometry": { "type": "Point", "coordinates": [ 140.880962440261527, 38.446116571034608 ] } },
{ "type": "Feature", "properties": { "P29_001": "04421", "P29_002": "A204394210041", "P29_003": "16013", "P29_004": "すみれの花こども園", "P29_005": "宮城県黒川郡大和町吉岡まほろば1-5-25", "P29_006": "4", "P29_007": "0", "P29_008": "00", "P29_009": null }, "geometry": { "type": "Point", "coordinates": [ 140.883971266543227, 38.437777440895971 ] } },
{ "type": "Feature", "properties": { "P29_001": "04422", "P29_002": "A204394220012", "P29_003": "16013", "P29_004": "幼保連携型認定こども園すくすくゆめの郷こども園", "P29_005": "宮城県黒川郡大郷町粕川字新30", "P29_006": "4", "P29_007": "0", "P29_008": "00", "P29_009": null }, "geometry": { "type": "Point", "coordinates": [ 141.001253921374683, 38.454656663913639 ] } },
{ "type": "Feature", "properties": { "P29_001": "04424", "P29_002": "A204394240018", "P29_003": "16013", "P29_004": "おおひら万葉こども園", "P29_005": "宮城県黒川郡大衡村ときわ台15", "P29_006": "4", "P29_007": "0", "P29_008": "00", "P29_009": null }, "geometry": { "type": "Point", "coordinates": [ 140.884392856488688, 38.465001610769235 ] } },
{ "type": "Feature", "properties": { "P29_001": "04445", "P29_002": "A204394450013", "P29_003": "16013", "P29_004": "中新田幼稚園・なかよしこども園", "P29_005": "宮城県加美郡加美町字町裏451-1", "P29_006": "4", "P29_007": "0", "P29_008": "00", "P29_009": null }, "geometry": { "type": "Point", "coordinates": [ 140.863865103432971, 38.569138814336952 ] } },
{ "type": "Feature", "properties": { "P29_001": "04501", "P29_002": "A204395010014", "P29_003": "16013", "P29_004": "幼保連携型認定こども園こどもの丘", "P29_005": "宮城県遠田郡涌谷町字中江南222-2", "P29_006": "4", "P29_007": "0", "P29_008": "00", "P29_009": null }, "geometry": { "type": "Point", "coordinates": [ 141.151196583100528, 38.539387888166587 ] } },
{ "type": "Feature", "properties": { "P29_001": "04505", "P29_002": "A204395050014", "P29_003": "16013", "P29_004": "幼保連携型認定こども園食と森のこども園美里", "P29_005": "宮城県遠田郡美里町駅東2-17-10", "P29_006": "4", "P29_007": "0", "P29_008": "00", "P29_009": null }, "geometry": { "type": "Point", "coordinates": [ 141.0694415607054, 38.542259968175891 ] } }
]
}
