{
"type": "FeatureCollection",
"name": "geo_04_特定福祉用具販売",
"crs": { "type": "name", "properties": { "name": "urn:ogc:def:crs:OGC:1.3:CRS84" } },
"features": [
{ "type": "Feature", "properties": { "内容": "有限会社　カインドネスサービス【特定福祉用具販売】仙台市青葉区高松2丁目20-32コーポＡＢＥⅠ　１Ｆ", "url2": "https://www.kaigokensaku.mhlw.go.jp/04/index.php?action_kouhyou_detail_004_kani=true&JigyosyoCd=0475103438-00&ServiceCd=410&Type=search" }, "geometry": { "type": "Point", "coordinates": [ 140.895038399999976, 38.2807865 ] } },
{ "type": "Feature", "properties": { "内容": "DATECARE（ダテケア）【特定福祉用具販売】宮城県仙台市青葉区桜ヶ丘六丁目34番18-102号", "url2": "https://www.kaigokensaku.mhlw.go.jp/04/index.php?action_kouhyou_detail_004_kani=true&JigyosyoCd=0475106092-00&ServiceCd=410&Type=search" }, "geometry": { "type": "Point", "coordinates": [ 140.845262600000012, 38.3031262 ] } },
{ "type": "Feature", "properties": { "内容": "アスケア福祉用具センター仙台【特定福祉用具販売】宮城県仙台市青葉区落合4-2-22", "url2": "https://www.kaigokensaku.mhlw.go.jp/04/index.php?action_kouhyou_detail_004_kani=true&JigyosyoCd=0475104246-00&ServiceCd=410&Type=search" }, "geometry": { "type": "Point", "coordinates": [ 140.780278199942103, 38.275166097670791 ] } },
{ "type": "Feature", "properties": { "内容": "シルバーサポート仙台中央店【特定福祉用具販売】宮城県仙台市青葉区上杉5丁目6-3", "url2": "https://www.kaigokensaku.mhlw.go.jp/04/index.php?action_kouhyou_detail_004_kani=true&JigyosyoCd=0475104840-00&ServiceCd=410&Type=search" }, "geometry": { "type": "Point", "coordinates": [ 140.879077716124954, 38.275145055952756 ] } },
{ "type": "Feature", "properties": { "内容": "株式会社フロンティア仙台営業所【特定福祉用具販売】宮城県仙台市青葉区上愛子字平治15-2", "url2": "https://www.kaigokensaku.mhlw.go.jp/04/index.php?action_kouhyou_detail_004_kani=true&JigyosyoCd=0475104022-00&ServiceCd=410&Type=search" }, "geometry": { "type": "Point", "coordinates": [ 140.741372877909868, 38.268941043315394 ] } },
{ "type": "Feature", "properties": { "内容": "株式会社同仁社ヘルスケア営業仙台支店【特定福祉用具販売】仙台市宮城野区中野４丁目３－２MSビル2F", "url2": "https://www.kaigokensaku.mhlw.go.jp/04/index.php?action_kouhyou_detail_004_kani=true&JigyosyoCd=0475200275-00&ServiceCd=410&Type=search" }, "geometry": { "type": "Point", "coordinates": [ 140.98193138287013, 38.266883862496762 ] } },
{ "type": "Feature", "properties": { "内容": "パナソニックエイジフリーショップ仙台中央【特定福祉用具販売】宮城県仙台市宮城野区萩野町二丁目17-11", "url2": "https://www.kaigokensaku.mhlw.go.jp/04/index.php?action_kouhyou_detail_004_kani=true&JigyosyoCd=0475204061-00&ServiceCd=410&Type=search" }, "geometry": { "type": "Point", "coordinates": [ 140.912122900000014, 38.2557378 ] } },
{ "type": "Feature", "properties": { "内容": "フランスベッド株式会社　メディカル仙台営業所【特定福祉用具販売】宮城県仙台市宮城野区岩切分台２丁目12-12", "url2": "https://www.kaigokensaku.mhlw.go.jp/04/index.php?action_kouhyou_detail_004_kani=true&JigyosyoCd=0475202149-00&ServiceCd=410&Type=search" }, "geometry": { "type": "Point", "coordinates": [ 140.95851140000002, 38.3058439 ] } },
{ "type": "Feature", "properties": { "内容": "コスモスウェルテック【特定福祉用具販売】宮城県仙台市宮城野区鶴ヶ谷東4丁目7-5", "url2": "https://www.kaigokensaku.mhlw.go.jp/04/index.php?action_kouhyou_detail_004_kani=true&JigyosyoCd=0475203063-00&ServiceCd=410&Type=search" }, "geometry": { "type": "Point", "coordinates": [ 140.922895700000026, 38.2938163 ] } },
{ "type": "Feature", "properties": { "内容": "フォーレスト福祉用具貸与事業所【特定福祉用具販売】宮城県仙台市宮城野区岩切字谷地15-1", "url2": "https://www.kaigokensaku.mhlw.go.jp/04/index.php?action_kouhyou_detail_004_kani=true&JigyosyoCd=0475201430-00&ServiceCd=410&Type=search" }, "geometry": { "type": "Point", "coordinates": [ 140.930438500000037, 38.3100787 ] } },
{ "type": "Feature", "properties": { "内容": "株式会社　小田島アクティ　介護用品部　仙台営業所【特定福祉用具販売】宮城県仙台市宮城野区高砂一丁目17番地2", "url2": "https://www.kaigokensaku.mhlw.go.jp/04/index.php?action_kouhyou_detail_004_kani=true&JigyosyoCd=0475201851-00&ServiceCd=410&Type=search" }, "geometry": { "type": "Point", "coordinates": [ 140.969532, 38.271401 ] } },
{ "type": "Feature", "properties": { "内容": "株式会社アルプスビジネスクリエーション　仙台営業所【特定福祉用具販売】仙台市宮城野区宮千代1-16-1", "url2": "https://www.kaigokensaku.mhlw.go.jp/04/index.php?action_kouhyou_detail_004_kani=true&JigyosyoCd=0475202677-00&ServiceCd=410&Type=search" }, "geometry": { "type": "Point", "coordinates": [ 140.910027200000059, 38.2542206 ] } },
{ "type": "Feature", "properties": { "内容": "シルバーサポート仙台店【特定福祉用具販売】宮城県仙台市宮城野区仙台港北2丁目15-14", "url2": "https://www.kaigokensaku.mhlw.go.jp/04/index.php?action_kouhyou_detail_004_kani=true&JigyosyoCd=0475203113-00&ServiceCd=410&Type=search" }, "geometry": { "type": "Point", "coordinates": [ 141.00702810000007, 38.2778579 ] } },
{ "type": "Feature", "properties": { "内容": "株式会社ヤマシタ仙台営業所【特定福祉用具販売】宮城県仙台市若林区大和町1丁目5-15", "url2": "https://www.kaigokensaku.mhlw.go.jp/04/index.php?action_kouhyou_detail_004_kani=true&JigyosyoCd=0475303020-00&ServiceCd=410&Type=search" }, "geometry": { "type": "Point", "coordinates": [ 140.9098158, 38.2481853 ] } },
{ "type": "Feature", "properties": { "内容": "ダスキンヘルスレント仙台ステーション【特定福祉用具販売】宮城県仙台市若林区卸町東3丁目1-35", "url2": "https://www.kaigokensaku.mhlw.go.jp/04/index.php?action_kouhyou_detail_004_kani=true&JigyosyoCd=0475300174-00&ServiceCd=410&Type=search" }, "geometry": { "type": "Point", "coordinates": [ 140.940058432653302, 38.255771748401912 ] } },
{ "type": "Feature", "properties": { "内容": "株式会社フロンティア　仙台東営業所【特定福祉用具販売】仙台市若林区六丁の目北町14-4", "url2": "https://www.kaigokensaku.mhlw.go.jp/04/index.php?action_kouhyou_detail_004_kani=true&JigyosyoCd=0475303012-00&ServiceCd=410&Type=search" }, "geometry": { "type": "Point", "coordinates": [ 140.949903643516535, 38.251138398996751 ] } },
{ "type": "Feature", "properties": { "内容": "株式会社かんきょう　仙台支店【特定福祉用具販売】宮城県仙台市若林区卸町一丁目６番１５号　卸町セントラルビル６階", "url2": "https://www.kaigokensaku.mhlw.go.jp/04/index.php?action_kouhyou_detail_004_kani=true&JigyosyoCd=0475302857-00&ServiceCd=410&Type=search" }, "geometry": { "type": "Point", "coordinates": [ 140.920332699999989, 38.2559985 ] } },
{ "type": "Feature", "properties": { "内容": "株式会社ライフケア　仙台支店【特定福祉用具販売】宮城県仙台市若林区大和町1-20-1", "url2": "https://www.kaigokensaku.mhlw.go.jp/04/index.php?action_kouhyou_detail_004_kani=true&JigyosyoCd=0475302451-00&ServiceCd=410&Type=search" }, "geometry": { "type": "Point", "coordinates": [ 140.908994300000018, 38.2479962 ] } },
{ "type": "Feature", "properties": { "内容": "セントケア　りまいん　太白【特定福祉用具販売】宮城県仙台市太白区富沢2丁目10番20号パル7　101", "url2": "https://www.kaigokensaku.mhlw.go.jp/04/index.php?action_kouhyou_detail_004_kani=true&JigyosyoCd=0475404695-00&ServiceCd=410&Type=search" }, "geometry": { "type": "Point", "coordinates": [ 140.8628033, 38.2217055 ] } },
{ "type": "Feature", "properties": { "内容": "ケヤキ福祉用具センター【特定福祉用具販売】宮城県仙台市太白区富沢１丁目３－２１ウインズ富沢１０１", "url2": "https://www.kaigokensaku.mhlw.go.jp/04/index.php?action_kouhyou_detail_004_kani=true&JigyosyoCd=0475404588-00&ServiceCd=410&Type=search" }, "geometry": { "type": "Point", "coordinates": [ 140.869338, 38.216805 ] } },
{ "type": "Feature", "properties": { "内容": "株式会社　サンメディックス　シルバーレンタルサービス仙台【特定福祉用具販売】宮城県仙台市太白区中田4-4-36", "url2": "https://www.kaigokensaku.mhlw.go.jp/04/index.php?action_kouhyou_detail_004_kani=true&JigyosyoCd=0475401923-00&ServiceCd=410&Type=search" }, "geometry": { "type": "Point", "coordinates": [ 140.891464400000018, 38.1998145 ] } },
{ "type": "Feature", "properties": { "内容": "萩の郷福祉工場【特定福祉用具販売】宮城県仙台市太白区鈎取御堂平３８", "url2": "https://www.kaigokensaku.mhlw.go.jp/04/index.php?action_kouhyou_detail_004_kani=true&JigyosyoCd=0475400370-00&ServiceCd=410&Type=search" }, "geometry": { "type": "Point", "coordinates": [ 140.833088144982867, 38.232823418419166 ] } },
{ "type": "Feature", "properties": { "内容": "シルバーサポート仙台南店【特定福祉用具販売】宮城県仙台市太白区西中田4丁目14番36号", "url2": "https://www.kaigokensaku.mhlw.go.jp/04/index.php?action_kouhyou_detail_004_kani=true&JigyosyoCd=0475402335-00&ServiceCd=410&Type=search" }, "geometry": { "type": "Point", "coordinates": [ 140.8808239, 38.1948674 ] } },
{ "type": "Feature", "properties": { "内容": "福祉用具貸与事業所ノテ富沢【特定福祉用具販売】宮城県太白区富沢西３丁目１０番地の１", "url2": "https://www.kaigokensaku.mhlw.go.jp/04/index.php?action_kouhyou_detail_004_kani=true&JigyosyoCd=0475405072-00&ServiceCd=410&Type=search" }, "geometry": { "type": "Point", "coordinates": [ 140.8558185, 38.2110646 ] } },
{ "type": "Feature", "properties": { "内容": "アースサポート仙台【特定福祉用具販売】宮城県仙台市太白区向山四丁目19番10号", "url2": "https://www.kaigokensaku.mhlw.go.jp/04/index.php?action_kouhyou_detail_004_kani=true&JigyosyoCd=0475404547-00&ServiceCd=410&Type=search" }, "geometry": { "type": "Point", "coordinates": [ 140.8791836, 38.2442688 ] } },
{ "type": "Feature", "properties": { "内容": "ダスキン　ヘルスレント　泉　ステーション【特定福祉用具販売】宮城県仙台市泉区七北田大沢明通35-1", "url2": "https://www.kaigokensaku.mhlw.go.jp/04/index.php?action_kouhyou_detail_004_kani=true&JigyosyoCd=0475500518-00&ServiceCd=410&Type=search" }, "geometry": { "type": "Point", "coordinates": [ 140.862629581495924, 38.357605248734522 ] } },
{ "type": "Feature", "properties": { "内容": "介護ショップ　マーク　・トゥエイン【特定福祉用具販売】仙台市泉区寺岡１－２－５", "url2": "https://www.kaigokensaku.mhlw.go.jp/04/index.php?action_kouhyou_detail_004_kani=true&JigyosyoCd=0475502092-00&ServiceCd=410&Type=search" }, "geometry": { "type": "Point", "coordinates": [ 140.83570487868198, 38.335560470358075 ] } },
{ "type": "Feature", "properties": { "内容": "株式会社蔵王サプライズ仙台支店【特定福祉用具販売】仙台市泉区八乙女2丁目9-1", "url2": "https://www.kaigokensaku.mhlw.go.jp/04/index.php?action_kouhyou_detail_004_kani=true&JigyosyoCd=0475500153-00&ServiceCd=410&Type=search" }, "geometry": { "type": "Point", "coordinates": [ 140.891588783730782, 38.309430811214405 ] } },
{ "type": "Feature", "properties": { "内容": "SOMPOケア　仙台　福祉用具【特定福祉用具販売】宮城県仙台市泉区松森字鹿島53-9", "url2": "https://www.kaigokensaku.mhlw.go.jp/04/index.php?action_kouhyou_detail_004_kani=true&JigyosyoCd=0475503926-00&ServiceCd=410&Type=search" }, "geometry": { "type": "Point", "coordinates": [ 140.909337300000061, 38.3181911 ] } },
{ "type": "Feature", "properties": { "内容": "ラミコジャパン株式会社　シルバーサポート仙台北店【特定福祉用具販売】宮城県仙台市泉区八乙女中央5-17-12", "url2": "https://www.kaigokensaku.mhlw.go.jp/04/index.php?action_kouhyou_detail_004_kani=true&JigyosyoCd=0475504254-00&ServiceCd=410&Type=search" }, "geometry": { "type": "Point", "coordinates": [ 140.8865915, 38.3121292 ] } },
{ "type": "Feature", "properties": { "内容": "コンシェルジュ【特定福祉用具販売】宮城県仙台市泉区住吉台東3-1-1", "url2": "https://www.kaigokensaku.mhlw.go.jp/04/index.php?action_kouhyou_detail_004_kani=true&JigyosyoCd=0475504288-00&ServiceCd=410&Type=search" }, "geometry": { "type": "Point", "coordinates": [ 140.7843842, 38.3301692 ] } },
{ "type": "Feature", "properties": { "内容": "カシワギコミュニケア【特定福祉用具販売】宮城県仙台市泉区大沢2-4-2", "url2": "https://www.kaigokensaku.mhlw.go.jp/04/index.php?action_kouhyou_detail_004_kani=true&JigyosyoCd=0475502662-00&ServiceCd=410&Type=search" }, "geometry": { "type": "Point", "coordinates": [ 140.8737413, 38.3526515 ] } },
{ "type": "Feature", "properties": { "内容": "セツルメント介護サービス【特定福祉用具販売】宮城県仙台市泉区長命ヶ丘5-15-17", "url2": "https://www.kaigokensaku.mhlw.go.jp/04/index.php?action_kouhyou_detail_004_kani=true&JigyosyoCd=0475500906-00&ServiceCd=410&Type=search" }, "geometry": { "type": "Point", "coordinates": [ 140.833541323146306, 38.315620957933952 ] } },
{ "type": "Feature", "properties": { "内容": "スペースケア仙台営業所【特定福祉用具販売】宮城県仙台市泉区八乙女中央2-1-36", "url2": "https://www.kaigokensaku.mhlw.go.jp/04/index.php?action_kouhyou_detail_004_kani=true&JigyosyoCd=0475502639-00&ServiceCd=410&Type=search" }, "geometry": { "type": "Point", "coordinates": [ 140.878740900000054, 38.3076828 ] } },
{ "type": "Feature", "properties": { "内容": "有限会社　二宮調剤薬局　メディカル部【特定福祉用具販売】宮城県石巻市住吉町1丁目1-6二宮ビル1階", "url2": "https://www.kaigokensaku.mhlw.go.jp/04/index.php?action_kouhyou_detail_004_kani=true&JigyosyoCd=0470202987-00&ServiceCd=410&Type=search" }, "geometry": { "type": "Point", "coordinates": [ 141.310790499999939, 38.4335588 ] } },
{ "type": "Feature", "properties": { "内容": "株式会社　マルイチ福祉用品機器センター【特定福祉用具販売】宮城県石巻市西山町３番６号", "url2": "https://www.kaigokensaku.mhlw.go.jp/04/index.php?action_kouhyou_detail_004_kani=true&JigyosyoCd=0470200130-00&ServiceCd=410&Type=search" }, "geometry": { "type": "Point", "coordinates": [ 141.292903799999976, 38.4328884 ] } },
{ "type": "Feature", "properties": { "内容": "ヘルスケアショップぱんぷきん倶楽部【特定福祉用具販売】宮城県石巻市恵み野二丁目10番地16", "url2": "https://www.kaigokensaku.mhlw.go.jp/04/index.php?action_kouhyou_detail_004_kani=true&JigyosyoCd=0470200338-00&ServiceCd=410&Type=search" }, "geometry": { "type": "Point", "coordinates": [ 141.2714049, 38.44347 ] } },
{ "type": "Feature", "properties": { "内容": "ピース福祉機器サービス【特定福祉用具販売】宮城県石巻市吉野町3丁目6-8", "url2": "https://www.kaigokensaku.mhlw.go.jp/04/index.php?action_kouhyou_detail_004_kani=true&JigyosyoCd=0470202714-00&ServiceCd=410&Type=search" }, "geometry": { "type": "Point", "coordinates": [ 141.322789516881784, 38.423601599207615 ] } },
{ "type": "Feature", "properties": { "内容": "ダスキンヘルスレント石巻ステーション【特定福祉用具販売】宮城県石巻市あけぼの３丁目１－１１", "url2": "https://www.kaigokensaku.mhlw.go.jp/04/index.php?action_kouhyou_detail_004_kani=true&JigyosyoCd=0470200494-00&ServiceCd=410&Type=search" }, "geometry": { "type": "Point", "coordinates": [ 141.275171, 38.4534689 ] } },
{ "type": "Feature", "properties": { "内容": "アスケア福祉用具センター石巻【特定福祉用具販売】宮城県石巻市中里3-5-5", "url2": "https://www.kaigokensaku.mhlw.go.jp/04/index.php?action_kouhyou_detail_004_kani=true&JigyosyoCd=0470203100-00&ServiceCd=410&Type=search" }, "geometry": { "type": "Point", "coordinates": [ 141.2979207, 38.4418572 ] } },
{ "type": "Feature", "properties": { "内容": "スペースケアSUN福祉工房【特定福祉用具販売】宮城県塩釜市港町1丁目4-1マリンゲート塩釜　東207A", "url2": "https://www.kaigokensaku.mhlw.go.jp/04/index.php?action_kouhyou_detail_004_kani=true&JigyosyoCd=0470301102-00&ServiceCd=410&Type=search" }, "geometry": { "type": "Point", "coordinates": [ 141.030020796643043, 38.319694649926646 ] } },
{ "type": "Feature", "properties": { "内容": "福祉用具のえにし【特定福祉用具販売】宮城県気仙沼市切通２１２番地２", "url2": "https://www.kaigokensaku.mhlw.go.jp/04/index.php?action_kouhyou_detail_004_kani=true&JigyosyoCd=0470500919-00&ServiceCd=410&Type=search" }, "geometry": { "type": "Point", "coordinates": [ 141.53253477021093, 38.913040847757244 ] } },
{ "type": "Feature", "properties": { "内容": "ライフサポート村伝【特定福祉用具販売】宮城県気仙沼市赤岩牧沢44-123", "url2": "https://www.kaigokensaku.mhlw.go.jp/04/index.php?action_kouhyou_detail_004_kani=true&JigyosyoCd=0470500380-00&ServiceCd=410&Type=search" }, "geometry": { "type": "Point", "coordinates": [ 141.5534616, 38.8788736 ] } },
{ "type": "Feature", "properties": { "内容": "株式会社コンホートケア【特定福祉用具販売】宮城県気仙沼市所沢270", "url2": "https://www.kaigokensaku.mhlw.go.jp/04/index.php?action_kouhyou_detail_004_kani=true&JigyosyoCd=0470500653-00&ServiceCd=410&Type=search" }, "geometry": { "type": "Point", "coordinates": [ 141.541340859559227, 38.89587125792103 ] } },
{ "type": "Feature", "properties": { "内容": "みやぎ仙南農業協同組合　白石介護支援センター【特定福祉用具販売】宮城県白石市大平中目字八ツ森脇３１番地", "url2": "https://www.kaigokensaku.mhlw.go.jp/04/index.php?action_kouhyou_detail_004_kani=true&JigyosyoCd=0470600685-00&ServiceCd=410&Type=search" }, "geometry": { "type": "Point", "coordinates": [ 140.6163407, 37.9860469 ] } },
{ "type": "Feature", "properties": { "内容": "東京インテリアMS仙台【特定福祉用具販売】宮城県名取市手倉田字諏訪524", "url2": "https://www.kaigokensaku.mhlw.go.jp/04/index.php?action_kouhyou_detail_004_kani=true&JigyosyoCd=0470701038-00&ServiceCd=410&Type=search" }, "geometry": { "type": "Point", "coordinates": [ 140.87583410000002, 38.1705444 ] } },
{ "type": "Feature", "properties": { "内容": "バイタルケア名取【特定福祉用具販売】宮城県名取市下余田字鹿島10", "url2": "https://www.kaigokensaku.mhlw.go.jp/04/index.php?action_kouhyou_detail_004_kani=true&JigyosyoCd=0470700451-00&ServiceCd=410&Type=search" }, "geometry": { "type": "Point", "coordinates": [ 140.89681829999995, 38.1725757 ] } },
{ "type": "Feature", "properties": { "内容": "ダスキンヘルスレント名取ステーション【特定福祉用具販売】宮城県名取市飯野坂三丁目７－１０", "url2": "https://www.kaigokensaku.mhlw.go.jp/04/index.php?action_kouhyou_detail_004_kani=true&JigyosyoCd=0470700691-00&ServiceCd=410&Type=search" }, "geometry": { "type": "Point", "coordinates": [ 140.88652849999994, 38.1558854 ] } },
{ "type": "Feature", "properties": { "内容": "パナソニックエイジフリーショップ仙台南【特定福祉用具販売】宮城県名取市植松字田野部16-1", "url2": "https://www.kaigokensaku.mhlw.go.jp/04/index.php?action_kouhyou_detail_004_kani=true&JigyosyoCd=0470700824-00&ServiceCd=410&Type=search" }, "geometry": { "type": "Point", "coordinates": [ 140.884712400000012, 38.1495305 ] } },
{ "type": "Feature", "properties": { "内容": "ケアハウス　ふれあいの森【特定福祉用具販売】宮城県角田市角田字田町95", "url2": "https://www.kaigokensaku.mhlw.go.jp/04/index.php?action_kouhyou_detail_004_kani=true&JigyosyoCd=0470800178-00&ServiceCd=410&Type=search" }, "geometry": { "type": "Point", "coordinates": [ 140.784865, 37.9743742 ] } },
{ "type": "Feature", "properties": { "内容": "福祉用具相談センタ－「フィット」【特定福祉用具販売】宮城県多賀城市下馬一丁目10-6", "url2": "https://www.kaigokensaku.mhlw.go.jp/04/index.php?action_kouhyou_detail_004_kani=true&JigyosyoCd=0470900317-00&ServiceCd=410&Type=search" }, "geometry": { "type": "Point", "coordinates": [ 141.0146148, 38.3053687 ] } },
{ "type": "Feature", "properties": { "内容": "ダスキンヘルスレント多賀城ステーション【特定福祉用具販売】宮城県多賀城市町前３丁目６番２４号", "url2": "https://www.kaigokensaku.mhlw.go.jp/04/index.php?action_kouhyou_detail_004_kani=true&JigyosyoCd=0470900127-00&ServiceCd=410&Type=search" }, "geometry": { "type": "Point", "coordinates": [ 141.010657900000069, 38.2871291 ] } },
{ "type": "Feature", "properties": { "内容": "ダスキンヘルスレント登米ステーション【特定福祉用具販売】宮城県登米市迫町佐沼字梅ノ木５丁目５－９", "url2": "https://www.kaigokensaku.mhlw.go.jp/04/index.php?action_kouhyou_detail_004_kani=true&JigyosyoCd=0471201418-00&ServiceCd=410&Type=search" }, "geometry": { "type": "Point", "coordinates": [ 141.21042078084173, 38.694136361549667 ] } },
{ "type": "Feature", "properties": { "内容": "株式会社宮城登米広域介護サービス【特定福祉用具販売】宮城県登米市迫町佐沼字光ヶ丘140番地2", "url2": "https://www.kaigokensaku.mhlw.go.jp/04/index.php?action_kouhyou_detail_004_kani=true&JigyosyoCd=0471200014-00&ServiceCd=410&Type=search" }, "geometry": { "type": "Point", "coordinates": [ 141.204474600000026, 38.6869653 ] } },
{ "type": "Feature", "properties": { "内容": "スペースケア登米営業所【特定福祉用具販売】宮城県登米市中田町宝江黒沼字蓬原28-6", "url2": "https://www.kaigokensaku.mhlw.go.jp/04/index.php?action_kouhyou_detail_004_kani=true&JigyosyoCd=0471201384-00&ServiceCd=410&Type=search" }, "geometry": { "type": "Point", "coordinates": [ 141.237129399999958, 38.7056451 ] } },
{ "type": "Feature", "properties": { "内容": "テクノケアサービス【特定福祉用具販売】宮城県登米市豊里町東待井下５２-１", "url2": "https://www.kaigokensaku.mhlw.go.jp/04/index.php?action_kouhyou_detail_004_kani=true&JigyosyoCd=0471201335-00&ServiceCd=410&Type=search" }, "geometry": { "type": "Point", "coordinates": [ 141.246355764200757, 38.590033484933592 ] } },
{ "type": "Feature", "properties": { "内容": "シルバーレンタルサービス登米【特定福祉用具販売】宮城県登米市迫町佐沼字錦192-2", "url2": "https://www.kaigokensaku.mhlw.go.jp/04/index.php?action_kouhyou_detail_004_kani=true&JigyosyoCd=0471200352-00&ServiceCd=410&Type=search" }, "geometry": { "type": "Point", "coordinates": [ 141.199549899999965, 38.6885233 ] } },
{ "type": "Feature", "properties": { "内容": "ゆうゆう工房【特定福祉用具販売】宮城県栗原市一迫真坂字清水町田15-1", "url2": "https://www.kaigokensaku.mhlw.go.jp/04/index.php?action_kouhyou_detail_004_kani=true&JigyosyoCd=0471300343-00&ServiceCd=410&Type=search" }, "geometry": { "type": "Point", "coordinates": [ 140.9514706, 38.7374346 ] } },
{ "type": "Feature", "properties": { "内容": "有限会社　松野屋家具店【特定福祉用具販売】宮城県栗原市若柳字川北52-1", "url2": "https://www.kaigokensaku.mhlw.go.jp/04/index.php?action_kouhyou_detail_004_kani=true&JigyosyoCd=0471300137-00&ServiceCd=410&Type=search" }, "geometry": { "type": "Point", "coordinates": [ 141.133600099999967, 38.7725645 ] } },
{ "type": "Feature", "properties": { "内容": "二宮メディカル矢本支店【特定福祉用具販売】宮城県東松島市矢本字大溜347番地エヌ・ワイやもと薬局内", "url2": "https://www.kaigokensaku.mhlw.go.jp/04/index.php?action_kouhyou_detail_004_kani=true&JigyosyoCd=0471400937-00&ServiceCd=410&Type=search" }, "geometry": { "type": "Point", "coordinates": [ 141.216910500000012, 38.4285072 ] } },
{ "type": "Feature", "properties": { "内容": "ニチイケアセンター古川【特定福祉用具販売】宮城県大崎市古川福沼1-14-35", "url2": "https://www.kaigokensaku.mhlw.go.jp/04/index.php?action_kouhyou_detail_004_kani=true&JigyosyoCd=0471500116-00&ServiceCd=410&Type=search" }, "geometry": { "type": "Point", "coordinates": [ 140.973491700000068, 38.5861431 ] } },
{ "type": "Feature", "properties": { "内容": "ダスキンヘルスレント古川ステーション【特定福祉用具販売】宮城県大崎市古川字上古川西６１－１", "url2": "https://www.kaigokensaku.mhlw.go.jp/04/index.php?action_kouhyou_detail_004_kani=true&JigyosyoCd=0471501296-00&ServiceCd=410&Type=search" }, "geometry": { "type": "Point", "coordinates": [ 140.939312607101471, 38.589553229264361 ] } },
{ "type": "Feature", "properties": { "内容": "株式会社サンメディカル宮城古川【特定福祉用具販売】宮城県大崎市古川駅東二丁目8-3", "url2": "https://www.kaigokensaku.mhlw.go.jp/04/index.php?action_kouhyou_detail_004_kani=true&JigyosyoCd=0471502070-00&ServiceCd=410&Type=search" }, "geometry": { "type": "Point", "coordinates": [ 140.971209300000027, 38.5726863 ] } },
{ "type": "Feature", "properties": { "内容": "株式会社小田島アクティ介護用品部古川営業所【特定福祉用具販売】宮城県大崎市古川福浦字道ノ上103-1アックス草刈ビル", "url2": "https://www.kaigokensaku.mhlw.go.jp/04/index.php?action_kouhyou_detail_004_kani=true&JigyosyoCd=0471500363-00&ServiceCd=410&Type=search" }, "geometry": { "type": "Point", "coordinates": [ 140.958742006207331, 38.590800519981514 ] } },
{ "type": "Feature", "properties": { "内容": "鳴子福用具専門店【特定福祉用具販売】宮城県大崎市鳴子温泉字石ノ梅71-1", "url2": "https://www.kaigokensaku.mhlw.go.jp/04/index.php?action_kouhyou_detail_004_kani=true&JigyosyoCd=0471501544-00&ServiceCd=410&Type=search" }, "geometry": { "type": "Point", "coordinates": [ 140.756783, 38.7328157 ] } },
{ "type": "Feature", "properties": { "内容": "株式会社アルプスビジネスクリエーション古川営業所【特定福祉用具販売】宮城県大崎市古川休塚字南川原68-10", "url2": "https://www.kaigokensaku.mhlw.go.jp/04/index.php?action_kouhyou_detail_004_kani=true&JigyosyoCd=0471502021-00&ServiceCd=410&Type=search" }, "geometry": { "type": "Point", "coordinates": [ 140.974724700000024, 38.5906843 ] } },
{ "type": "Feature", "properties": { "内容": "株式会社ジェー・シー・アイ本社【特定福祉用具販売】宮城県富谷市成田1-5-3", "url2": "https://www.kaigokensaku.mhlw.go.jp/04/index.php?action_kouhyou_detail_004_kani=true&JigyosyoCd=0471600122-00&ServiceCd=410&Type=search" }, "geometry": { "type": "Point", "coordinates": [ 140.8916922, 38.3614419 ] } },
{ "type": "Feature", "properties": { "内容": "株式会社アルプスビジネスクリエーション　大河原営業所【特定福祉用具販売】宮城県柴田郡大河原町新東31-6", "url2": "https://www.kaigokensaku.mhlw.go.jp/04/index.php?action_kouhyou_detail_004_kani=true&JigyosyoCd=0472201169-00&ServiceCd=410&Type=search" }, "geometry": { "type": "Point", "coordinates": [ 140.735300700000039, 38.0595863 ] } },
{ "type": "Feature", "properties": { "内容": "ダスキンヘルスレント仙南ステーション【特定福祉用具販売】宮城県柴田郡大河原町金ヶ瀬丑越11-1郡山ビル", "url2": "https://www.kaigokensaku.mhlw.go.jp/04/index.php?action_kouhyou_detail_004_kani=true&JigyosyoCd=0472201276-00&ServiceCd=410&Type=search" }, "geometry": { "type": "Point", "coordinates": [ 140.7216664, 38.0458344 ] } },
{ "type": "Feature", "properties": { "内容": "JA新みやぎふれ愛福祉センター小牛田【特定福祉用具販売】宮城県遠田郡美里町中埣字夘時3-1", "url2": "https://www.kaigokensaku.mhlw.go.jp/04/index.php?action_kouhyou_detail_004_kani=true&JigyosyoCd=0473100253-00&ServiceCd=410&Type=search" }, "geometry": { "type": "Point", "coordinates": [ 141.0346468, 38.579278 ] } }
]
}
