{
"type": "FeatureCollection",
"name": "geo_04_高校",
"crs": { "type": "name", "properties": { "name": "urn:ogc:def:crs:EPSG::6668" } },
"features": [
{ "type": "Feature", "properties": { "P29_001": "04101", "P29_002": "D104211010017", "P29_003": "16004", "P29_004": "宮城県仙台第二高等学校", "P29_005": "宮城県仙台市青葉区川内澱橋通1", "P29_006": "2", "P29_007": "0", "P29_008": "00", "P29_009": null }, "geometry": { "type": "Point", "coordinates": [ 140.856643274477307, 38.263518453655067 ] } },
{ "type": "Feature", "properties": { "P29_001": "04101", "P29_002": "D104211010026", "P29_003": "16004", "P29_004": "宮城県宮城第一高等学校", "P29_005": "宮城県仙台市青葉区八幡1-6-2", "P29_006": "2", "P29_007": "0", "P29_008": "00", "P29_009": null }, "geometry": { "type": "Point", "coordinates": [ 140.851572664651997, 38.268700345908094 ] } },
{ "type": "Feature", "properties": { "P29_001": "04101", "P29_002": "D104211010035", "P29_003": "16004", "P29_004": "宮城県工業高等学校", "P29_005": "宮城県仙台市青葉区米ヶ袋3-2-1", "P29_006": "2", "P29_007": "0", "P29_008": "00", "P29_009": null }, "geometry": { "type": "Point", "coordinates": [ 140.869812388035115, 38.248551566868414 ] } },
{ "type": "Feature", "properties": { "P29_001": "04101", "P29_002": "D104211010044", "P29_003": "16004", "P29_004": "宮城県第二工業高等学校", "P29_005": "宮城県仙台市青葉区米ヶ袋3-2-1", "P29_006": "2", "P29_007": "0", "P29_008": "00", "P29_009": null }, "geometry": { "type": "Point", "coordinates": [ 140.869767305486761, 38.24775443042401 ] } },
{ "type": "Feature", "properties": { "P29_001": "04101", "P29_002": "D104211010053", "P29_003": "16004", "P29_004": "宮城県宮城広瀬高等学校", "P29_005": "宮城県仙台市青葉区落合4-4-1", "P29_006": "2", "P29_007": "0", "P29_008": "00", "P29_009": null }, "geometry": { "type": "Point", "coordinates": [ 140.784453835569963, 38.275154816274338 ] } },
{ "type": "Feature", "properties": { "P29_001": "04102", "P29_002": "D104211020015", "P29_003": "16004", "P29_004": "宮城県仙台第三高等学校", "P29_005": "宮城県仙台市宮城野区鶴ヶ谷1-19", "P29_006": "2", "P29_007": "0", "P29_008": "00", "P29_009": null }, "geometry": { "type": "Point", "coordinates": [ 140.909681051022261, 38.286762083875104 ] } },
{ "type": "Feature", "properties": { "P29_001": "04102", "P29_002": "D104211020024", "P29_003": "16004", "P29_004": "宮城県宮城野高等学校", "P29_005": "宮城県仙台市宮城野区田子2-36-1", "P29_006": "2", "P29_007": "0", "P29_008": "00", "P29_009": null }, "geometry": { "type": "Point", "coordinates": [ 140.95728996497968, 38.281384068244364 ] } },
{ "type": "Feature", "properties": { "P29_001": "04103", "P29_002": "D104211030013", "P29_003": "16004", "P29_004": "宮城県仙台第一高等学校", "P29_005": "宮城県仙台市若林区元茶畑4", "P29_006": "2", "P29_007": "0", "P29_008": "00", "P29_009": null }, "geometry": { "type": "Point", "coordinates": [ 140.892705192160747, 38.250617957423273 ] } },
{ "type": "Feature", "properties": { "P29_001": "04103", "P29_002": "D104211030022", "P29_003": "16004", "P29_004": "宮城県仙台二華高等学校", "P29_005": "宮城県仙台市若林区連坊1-4-1", "P29_006": "2", "P29_007": "0", "P29_008": "00", "P29_009": null }, "geometry": { "type": "Point", "coordinates": [ 140.887163837982655, 38.252934570537924 ] } },
{ "type": "Feature", "properties": { "P29_001": "04103", "P29_002": "D104211030031", "P29_003": "16004", "P29_004": "宮城県仙台東高等学校", "P29_005": "宮城県仙台市若林区下飯田字高野東70", "P29_006": "2", "P29_007": "0", "P29_008": "00", "P29_009": null }, "geometry": { "type": "Point", "coordinates": [ 140.932344157752283, 38.220641724077822 ] } },
{ "type": "Feature", "properties": { "P29_001": "04104", "P29_002": "D104211040011", "P29_003": "16004", "P29_004": "宮城県仙台三桜高等学校", "P29_005": "宮城県仙台市太白区門前町9-2", "P29_006": "2", "P29_007": "0", "P29_008": "00", "P29_009": null }, "geometry": { "type": "Point", "coordinates": [ 140.876588533973802, 38.234376071386883 ] } },
{ "type": "Feature", "properties": { "P29_001": "04104", "P29_002": "D104211040020", "P29_003": "16004", "P29_004": "宮城県仙台向山高等学校", "P29_005": "宮城県仙台市太白区八木山緑町1-1", "P29_006": "2", "P29_007": "0", "P29_008": "00", "P29_009": null }, "geometry": { "type": "Point", "coordinates": [ 140.865793936616882, 38.244715148633965 ] } },
{ "type": "Feature", "properties": { "P29_001": "04104", "P29_002": "D104211040039", "P29_003": "16004", "P29_004": "宮城県仙台南高等学校", "P29_005": "宮城県仙台市太白区根岸町14-1", "P29_006": "2", "P29_007": "0", "P29_008": "00", "P29_009": null }, "geometry": { "type": "Point", "coordinates": [ 140.883573715303584, 38.236801053472689 ] } },
{ "type": "Feature", "properties": { "P29_001": "04104", "P29_002": "D104211040048", "P29_003": "16004", "P29_004": "宮城県仙台西高等学校", "P29_005": "宮城県仙台市太白区御堂平5-1", "P29_006": "2", "P29_007": "0", "P29_008": "00", "P29_009": null }, "geometry": { "type": "Point", "coordinates": [ 140.834639118047733, 38.229583998606785 ] } },
{ "type": "Feature", "properties": { "P29_001": "04105", "P29_002": "D104211050018", "P29_003": "16004", "P29_004": "宮城県泉高等学校", "P29_005": "宮城県仙台市泉区将監10-39-1", "P29_006": "2", "P29_007": "0", "P29_008": "00", "P29_009": null }, "geometry": { "type": "Point", "coordinates": [ 140.867471521877519, 38.331740342251578 ] } },
{ "type": "Feature", "properties": { "P29_001": "04105", "P29_002": "D104211050027", "P29_003": "16004", "P29_004": "宮城県泉松陵高等学校", "P29_005": "宮城県仙台市泉区鶴が丘4-26-1", "P29_006": "2", "P29_007": "0", "P29_008": "00", "P29_009": null }, "geometry": { "type": "Point", "coordinates": [ 140.924254866024199, 38.329495780156712 ] } },
{ "type": "Feature", "properties": { "P29_001": "04105", "P29_002": "D104211050036", "P29_003": "16004", "P29_004": "宮城県泉館山高等学校", "P29_005": "宮城県仙台市泉区長命ヶ丘東1", "P29_006": "2", "P29_007": "0", "P29_008": "00", "P29_009": null }, "geometry": { "type": "Point", "coordinates": [ 140.842408741300886, 38.31119095717083 ] } },
{ "type": "Feature", "properties": { "P29_001": "04202", "P29_002": "D104212020013", "P29_003": "16004", "P29_004": "宮城県石巻高等学校", "P29_005": "宮城県石巻市大手町3-15", "P29_006": "2", "P29_007": "0", "P29_008": "00", "P29_009": null }, "geometry": { "type": "Point", "coordinates": [ 141.299396983311738, 38.425714916690175 ] } },
{ "type": "Feature", "properties": { "P29_001": "04202", "P29_002": "D104212020022", "P29_003": "16004", "P29_004": "宮城県石巻好文館高等学校", "P29_005": "宮城県石巻市貞山3-4-1", "P29_006": "2", "P29_007": "0", "P29_008": "00", "P29_009": null }, "geometry": { "type": "Point", "coordinates": [ 141.283001570009731, 38.434535632513267 ] } },
{ "type": "Feature", "properties": { "P29_001": "04202", "P29_002": "D104212020031", "P29_003": "16004", "P29_004": "宮城県石巻商業高等学校", "P29_005": "宮城県石巻市南境字大樋20", "P29_006": "2", "P29_007": "0", "P29_008": "00", "P29_009": null }, "geometry": { "type": "Point", "coordinates": [ 141.305744728114661, 38.453093344226382 ] } },
{ "type": "Feature", "properties": { "P29_001": "04202", "P29_002": "D104212020040", "P29_003": "16004", "P29_004": "宮城県石巻工業高等学校", "P29_005": "宮城県石巻市貞山5-1-1", "P29_006": "2", "P29_007": "0", "P29_008": "00", "P29_009": null }, "geometry": { "type": "Point", "coordinates": [ 141.287103045678549, 38.438609208215702 ] } },
{ "type": "Feature", "properties": { "P29_001": "04202", "P29_002": "D104212020059", "P29_003": "16004", "P29_004": "宮城県水産高等学校", "P29_005": "宮城県石巻市宇田川町1-24", "P29_006": "2", "P29_007": "0", "P29_008": "00", "P29_009": null }, "geometry": { "type": "Point", "coordinates": [ 141.370194904314303, 38.420882052779028 ] } },
{ "type": "Feature", "properties": { "P29_001": "04202", "P29_002": "D104212020068", "P29_003": "16004", "P29_004": "宮城県石巻北高等学校飯野川校", "P29_005": "宮城県石巻市相野谷字五味前上40", "P29_006": "2", "P29_007": "0", "P29_008": "00", "P29_009": null }, "geometry": { "type": "Point", "coordinates": [ 141.322146398790693, 38.521484315015492 ] } },
{ "type": "Feature", "properties": { "P29_001": "04202", "P29_002": "D104212020077", "P29_003": "16004", "P29_004": "宮城県石巻北高等学校", "P29_005": "宮城県石巻市鹿又字用水向126", "P29_006": "2", "P29_007": "0", "P29_008": "00", "P29_009": null }, "geometry": { "type": "Point", "coordinates": [ 141.283098106508021, 38.485262907616239 ] } },
{ "type": "Feature", "properties": { "P29_001": "04203", "P29_002": "D104212030011", "P29_003": "16004", "P29_004": "宮城県塩釜高等学校", "P29_005": "宮城県塩竈市泉ヶ岡10-1", "P29_006": "2", "P29_007": "0", "P29_008": "00", "P29_009": null }, "geometry": { "type": "Point", "coordinates": [ 141.011951987071342, 38.315925753148477 ] } },
{ "type": "Feature", "properties": { "P29_001": "04205", "P29_002": "D104212050016", "P29_003": "16004", "P29_004": "宮城県気仙沼向洋高等学校", "P29_005": "宮城県気仙沼市長磯牧通78", "P29_006": "2", "P29_007": "0", "P29_008": "00", "P29_009": null }, "geometry": { "type": "Point", "coordinates": [ 141.576022635162531, 38.834510443401726 ] } },
{ "type": "Feature", "properties": { "P29_001": "04205", "P29_002": "D104212050025", "P29_003": "16004", "P29_004": "宮城県本吉響高等学校", "P29_005": "宮城県気仙沼市本吉町津谷桜子2-24", "P29_006": "2", "P29_007": "0", "P29_008": "00", "P29_009": null }, "geometry": { "type": "Point", "coordinates": [ 141.495464769918755, 38.794214477337079 ] } },
{ "type": "Feature", "properties": { "P29_001": "04205", "P29_002": "D104212050034", "P29_003": "16004", "P29_004": "宮城県気仙沼高等学校", "P29_005": "宮城県気仙沼市常楽130", "P29_006": "2", "P29_007": "0", "P29_008": "00", "P29_009": null }, "geometry": { "type": "Point", "coordinates": [ 141.558115139071958, 38.894845973048518 ] } },
{ "type": "Feature", "properties": { "P29_001": "04206", "P29_002": "D104212060014", "P29_003": "16004", "P29_004": "宮城県白石工業高等学校", "P29_005": "宮城県白石市郡山字鹿野43", "P29_006": "2", "P29_007": "0", "P29_008": "00", "P29_009": null }, "geometry": { "type": "Point", "coordinates": [ 140.636751487671262, 38.0086864912181 ] } },
{ "type": "Feature", "properties": { "P29_001": "04206", "P29_002": "D104212060023", "P29_003": "16004", "P29_004": "宮城県白石高等学校", "P29_005": "宮城県白石市八幡町9-10", "P29_006": "2", "P29_007": "0", "P29_008": "00", "P29_009": null }, "geometry": { "type": "Point", "coordinates": [ 140.612936022937419, 38.000337242625484 ] } },
{ "type": "Feature", "properties": { "P29_001": "04207", "P29_002": "D104212070012", "P29_003": "16004", "P29_004": "宮城県農業高等学校", "P29_005": "宮城県名取市高舘吉田字吉合66", "P29_006": "2", "P29_007": "0", "P29_008": "00", "P29_009": null }, "geometry": { "type": "Point", "coordinates": [ 140.862998003262987, 38.181875997062832 ] } },
{ "type": "Feature", "properties": { "P29_001": "04207", "P29_002": "D104212070021", "P29_003": "16004", "P29_004": "宮城県名取北高等学校", "P29_005": "宮城県名取市増田字柳田103", "P29_006": "2", "P29_007": "0", "P29_008": "00", "P29_009": null }, "geometry": { "type": "Point", "coordinates": [ 140.894828907568638, 38.171592344074988 ] } },
{ "type": "Feature", "properties": { "P29_001": "04207", "P29_002": "D104212070030", "P29_003": "16004", "P29_004": "宮城県美田園高等学校", "P29_005": "宮城県名取市美田園2-1-4", "P29_006": "2", "P29_007": "0", "P29_008": "00", "P29_009": null }, "geometry": { "type": "Point", "coordinates": [ 140.919108742825387, 38.159831323530653 ] } },
{ "type": "Feature", "properties": { "P29_001": "04208", "P29_002": "D104212080010", "P29_003": "16004", "P29_004": "宮城県角田高等学校", "P29_005": "宮城県角田市角田字牛舘1", "P29_006": "2", "P29_007": "0", "P29_008": "00", "P29_009": null }, "geometry": { "type": "Point", "coordinates": [ 140.779045084700556, 37.968479172539489 ] } },
{ "type": "Feature", "properties": { "P29_001": "04209", "P29_002": "D104212090018", "P29_003": "16004", "P29_004": "宮城県多賀城高等学校", "P29_005": "宮城県多賀城市笠神2-17-1", "P29_006": "2", "P29_007": "0", "P29_008": "00", "P29_009": null }, "geometry": { "type": "Point", "coordinates": [ 141.025877113382705, 38.302412354052436 ] } },
{ "type": "Feature", "properties": { "P29_001": "04209", "P29_002": "D104212090027", "P29_003": "16004", "P29_004": "宮城県貞山高等学校", "P29_005": "宮城県多賀城市鶴ヶ谷1-10-2", "P29_006": "2", "P29_007": "0", "P29_008": "00", "P29_009": null }, "geometry": { "type": "Point", "coordinates": [ 141.01487065363844, 38.297931866581685 ] } },
{ "type": "Feature", "properties": { "P29_001": "04211", "P29_002": "D104212110014", "P29_003": "16004", "P29_004": "宮城県名取高等学校", "P29_005": "宮城県岩沼市字朝日50", "P29_006": "2", "P29_007": "0", "P29_008": "00", "P29_009": null }, "geometry": { "type": "Point", "coordinates": [ 140.855777872769124, 38.115396164178634 ] } },
{ "type": "Feature", "properties": { "P29_001": "04212", "P29_002": "D104212120012", "P29_003": "16004", "P29_004": "宮城県佐沼高等学校", "P29_005": "宮城県登米市迫町佐沼字末広1", "P29_006": "2", "P29_007": "0", "P29_008": "00", "P29_009": null }, "geometry": { "type": "Point", "coordinates": [ 141.20442873592188, 38.691420282835388 ] } },
{ "type": "Feature", "properties": { "P29_001": "04212", "P29_002": "D104212120021", "P29_003": "16004", "P29_004": "宮城県登米高等学校", "P29_005": "宮城県登米市登米町寺池桜小路3", "P29_006": "2", "P29_007": "0", "P29_008": "00", "P29_009": null }, "geometry": { "type": "Point", "coordinates": [ 141.279433513302564, 38.657705044269974 ] } },
{ "type": "Feature", "properties": { "P29_001": "04212", "P29_002": "D104212120030", "P29_003": "16004", "P29_004": "宮城県登米総合産業高等学校", "P29_005": "宮城県登米市中田町上沼字北桜場223-1", "P29_006": "2", "P29_007": "0", "P29_008": "00", "P29_009": null }, "geometry": { "type": "Point", "coordinates": [ 141.248473105835274, 38.718631700348048 ] } },
{ "type": "Feature", "properties": { "P29_001": "04213", "P29_002": "D104212130010", "P29_003": "16004", "P29_004": "宮城県岩ケ崎高等学校", "P29_005": "宮城県栗原市栗駒中野愛宕下1-3", "P29_006": "2", "P29_007": "0", "P29_008": "00", "P29_009": null }, "geometry": { "type": "Point", "coordinates": [ 140.983233079270263, 38.820466672374657 ] } },
{ "type": "Feature", "properties": { "P29_001": "04213", "P29_002": "D104212130029", "P29_003": "16004", "P29_004": "宮城県一迫商業高等学校", "P29_005": "宮城県栗原市一迫真坂字町東133", "P29_006": "2", "P29_007": "0", "P29_008": "00", "P29_009": null }, "geometry": { "type": "Point", "coordinates": [ 140.95791663716912, 38.739129611351849 ] } },
{ "type": "Feature", "properties": { "P29_001": "04213", "P29_002": "D104212130038", "P29_003": "16004", "P29_004": "宮城県迫桜高等学校", "P29_005": "宮城県栗原市若柳字川南戸ノ西184", "P29_006": "2", "P29_007": "0", "P29_008": "00", "P29_009": null }, "geometry": { "type": "Point", "coordinates": [ 141.118567160135257, 38.770462185302364 ] } },
{ "type": "Feature", "properties": { "P29_001": "04213", "P29_002": "D104212130047", "P29_003": "16004", "P29_004": "宮城県築館高等学校", "P29_005": "宮城県栗原市築館字下宮野町浦22", "P29_006": "2", "P29_007": "0", "P29_008": "00", "P29_009": null }, "geometry": { "type": "Point", "coordinates": [ 141.019471857308645, 38.751331262463744 ] } },
{ "type": "Feature", "properties": { "P29_001": "04214", "P29_002": "D104212140018", "P29_003": "16004", "P29_004": "宮城県石巻西高等学校", "P29_005": "宮城県東松島市赤井字七反谷地27", "P29_006": "2", "P29_007": "0", "P29_008": "00", "P29_009": null }, "geometry": { "type": "Point", "coordinates": [ 141.253256519543072, 38.439147198395958 ] } },
{ "type": "Feature", "properties": { "P29_001": "04214", "P29_002": "D104212140027", "P29_003": "16004", "P29_004": "宮城県東松島高等学校", "P29_005": "宮城県東松島市矢本字上河戸16", "P29_006": "2", "P29_007": "0", "P29_008": "00", "P29_009": null }, "geometry": { "type": "Point", "coordinates": [ 141.211394291815992, 38.423742714710002 ] } },
{ "type": "Feature", "properties": { "P29_001": "04215", "P29_002": "D104212150015", "P29_003": "16004", "P29_004": "宮城県古川高等学校", "P29_005": "宮城県大崎市古川南町2-3-17", "P29_006": "2", "P29_007": "0", "P29_008": "00", "P29_009": null }, "geometry": { "type": "Point", "coordinates": [ 140.956745635516626, 38.570560330947913 ] } },
{ "type": "Feature", "properties": { "P29_001": "04215", "P29_002": "D104212150024", "P29_003": "16004", "P29_004": "宮城県古川黎明高等学校", "P29_005": "宮城県大崎市古川諏訪1-4-26", "P29_006": "2", "P29_007": "0", "P29_008": "00", "P29_009": null }, "geometry": { "type": "Point", "coordinates": [ 140.95041265800262, 38.580160673907457 ] } },
{ "type": "Feature", "properties": { "P29_001": "04215", "P29_002": "D104212150033", "P29_003": "16004", "P29_004": "宮城県松山高等学校", "P29_005": "宮城県大崎市松山千石字松山1-1", "P29_006": "2", "P29_007": "0", "P29_008": "00", "P29_009": null }, "geometry": { "type": "Point", "coordinates": [ 141.049275456753492, 38.511699607313162 ] } },
{ "type": "Feature", "properties": { "P29_001": "04215", "P29_002": "D104212150042", "P29_003": "16004", "P29_004": "宮城県古川工業高等学校", "P29_005": "宮城県大崎市古川北町4-7-1", "P29_006": "2", "P29_007": "0", "P29_008": "00", "P29_009": null }, "geometry": { "type": "Point", "coordinates": [ 140.964650631544487, 38.584111345779725 ] } },
{ "type": "Feature", "properties": { "P29_001": "04215", "P29_002": "D104212150051", "P29_003": "16004", "P29_004": "宮城県岩出山高等学校", "P29_005": "宮城県大崎市岩出山字城山2", "P29_006": "2", "P29_007": "0", "P29_008": "00", "P29_009": null }, "geometry": { "type": "Point", "coordinates": [ 140.862038647503482, 38.653778070616248 ] } },
{ "type": "Feature", "properties": { "P29_001": "04215", "P29_002": "D104212150060", "P29_003": "16004", "P29_004": "宮城県鹿島台商業高等学校", "P29_005": "宮城県大崎市鹿島台広長字杢師前44", "P29_006": "2", "P29_007": "0", "P29_008": "00", "P29_009": null }, "geometry": { "type": "Point", "coordinates": [ 141.086036268740543, 38.487538337785374 ] } },
{ "type": "Feature", "properties": { "P29_001": "04215", "P29_002": "D104212150079", "P29_003": "16004", "P29_004": "宮城県田尻さくら高等学校", "P29_005": "宮城県大崎市田尻沼部字中新堀137", "P29_006": "2", "P29_007": "0", "P29_008": "00", "P29_009": null }, "geometry": { "type": "Point", "coordinates": [ 141.053602584391797, 38.597667436091228 ] } },
{ "type": "Feature", "properties": { "P29_001": "04216", "P29_002": "D104212160013", "P29_003": "16004", "P29_004": "宮城県富谷高等学校", "P29_005": "宮城県富谷市成田2-1-1", "P29_006": "2", "P29_007": "0", "P29_008": "00", "P29_009": null }, "geometry": { "type": "Point", "coordinates": [ 140.885780814670795, 38.364822522933764 ] } },
{ "type": "Feature", "properties": { "P29_001": "04301", "P29_002": "D104213010013", "P29_003": "16004", "P29_004": "宮城県蔵王高等学校", "P29_005": "宮城県刈田郡蔵王町大字曲竹字濁川添赤岩1-7", "P29_006": "2", "P29_007": "0", "P29_008": "00", "P29_009": null }, "geometry": { "type": "Point", "coordinates": [ 140.660043450276021, 38.086174439146497 ] } },
{ "type": "Feature", "properties": { "P29_001": "04302", "P29_002": "D104213020011", "P29_003": "16004", "P29_004": "宮城県白石高等学校七ケ宿校", "P29_005": "宮城県刈田郡七ヶ宿町字沢上山4-2", "P29_006": "2", "P29_007": "0", "P29_008": "00", "P29_009": null }, "geometry": { "type": "Point", "coordinates": [ 140.4417143489284, 37.989993701503629 ] } },
{ "type": "Feature", "properties": { "P29_001": "04321", "P29_002": "D104213210011", "P29_003": "16004", "P29_004": "宮城県柴田農林高等学校", "P29_005": "宮城県柴田郡大河原町字上川原7-2", "P29_006": "2", "P29_007": "0", "P29_008": "00", "P29_009": null }, "geometry": { "type": "Point", "coordinates": [ 140.731157306430191, 38.045125700365773 ] } },
{ "type": "Feature", "properties": { "P29_001": "04323", "P29_002": "D104213210020", "P29_003": "16004", "P29_004": "宮城県大河原商業高等学校", "P29_005": "宮城県柴田郡大河原町大谷字西原前154-6", "P29_006": "2", "P29_007": "0", "P29_008": "00", "P29_009": null }, "geometry": { "type": "Point", "coordinates": [ 140.747186534979335, 38.048496791131427 ] } },
{ "type": "Feature", "properties": { "P29_001": "04321", "P29_002": "D104213210039", "P29_003": "16004", "P29_004": "宮城県大河原産業高等学校", "P29_005": "宮城県柴田郡大河原町字上川原7-2", "P29_006": "2", "P29_007": "0", "P29_008": "00", "P29_009": null }, "geometry": { "type": "Point", "coordinates": [ 140.730977867534619, 38.044918976831156 ] } },
{ "type": "Feature", "properties": { "P29_001": "04322", "P29_002": "D104213220019", "P29_003": "16004", "P29_004": "宮城県村田高等学校", "P29_005": "宮城県柴田郡村田町大字村田字金谷1", "P29_006": "2", "P29_007": "0", "P29_008": "00", "P29_009": null }, "geometry": { "type": "Point", "coordinates": [ 140.7213290068822, 38.114566245101578 ] } },
{ "type": "Feature", "properties": { "P29_001": "04323", "P29_002": "D104213230017", "P29_003": "16004", "P29_004": "宮城県柴田高等学校", "P29_005": "宮城県柴田郡柴田町大字本船迫字十八津入7-3", "P29_006": "2", "P29_007": "0", "P29_008": "00", "P29_009": null }, "geometry": { "type": "Point", "coordinates": [ 140.778916832722473, 38.070110917967966 ] } },
{ "type": "Feature", "properties": { "P29_001": "04324", "P29_002": "D104213240015", "P29_003": "16004", "P29_004": "宮城県柴田農林高等学校川崎校", "P29_005": "宮城県柴田郡川崎町前川字北原25", "P29_006": "2", "P29_007": "0", "P29_008": "00", "P29_009": null }, "geometry": { "type": "Point", "coordinates": [ 140.630941918228302, 38.181207853033797 ] } },
{ "type": "Feature", "properties": { "P29_001": "04341", "P29_002": "D104213410019", "P29_003": "16004", "P29_004": "宮城県伊具高等学校", "P29_005": "宮城県伊具郡丸森町字雁歌51", "P29_006": "2", "P29_007": "0", "P29_008": "00", "P29_009": null }, "geometry": { "type": "Point", "coordinates": [ 140.761303514176007, 37.90606422058481 ] } },
{ "type": "Feature", "properties": { "P29_001": "04361", "P29_002": "D104213610017", "P29_003": "16004", "P29_004": "宮城県亘理高等学校", "P29_005": "宮城県亘理郡亘理町字舘南56-2", "P29_006": "2", "P29_007": "0", "P29_008": "00", "P29_009": null }, "geometry": { "type": "Point", "coordinates": [ 140.848995384325264, 38.032925474465735 ] } },
{ "type": "Feature", "properties": { "P29_001": "04401", "P29_002": "D104214010011", "P29_003": "16004", "P29_004": "宮城県松島高等学校", "P29_005": "宮城県宮城郡松島町高城字迎山3-5", "P29_006": "2", "P29_007": "0", "P29_008": "00", "P29_009": null }, "geometry": { "type": "Point", "coordinates": [ 141.072218558296868, 38.389598755377456 ] } },
{ "type": "Feature", "properties": { "P29_001": "04406", "P29_002": "D104214060010", "P29_003": "16004", "P29_004": "宮城県利府高等学校", "P29_005": "宮城県宮城郡利府町青葉台1-1-1", "P29_006": "2", "P29_007": "0", "P29_008": "00", "P29_009": null }, "geometry": { "type": "Point", "coordinates": [ 140.965226200640956, 38.335265230494343 ] } },
{ "type": "Feature", "properties": { "P29_001": "04421", "P29_002": "D104214210019", "P29_003": "16004", "P29_004": "宮城県黒川高等学校", "P29_005": "宮城県黒川郡大和町吉岡字東柴崎62", "P29_006": "2", "P29_007": "0", "P29_008": "00", "P29_009": null }, "geometry": { "type": "Point", "coordinates": [ 140.903605536043699, 38.44179643490483 ] } },
{ "type": "Feature", "properties": { "P29_001": "04444", "P29_002": "D104214440011", "P29_003": "16004", "P29_004": "宮城県加美農業高等学校", "P29_005": "宮城県加美郡色麻町黒沢字北條152", "P29_006": "2", "P29_007": "0", "P29_008": "00", "P29_009": null }, "geometry": { "type": "Point", "coordinates": [ 140.808472966319158, 38.542721388322896 ] } },
{ "type": "Feature", "properties": { "P29_001": "04445", "P29_002": "D104214450018", "P29_003": "16004", "P29_004": "宮城県中新田高等学校", "P29_005": "宮城県加美郡加美町字一本柳南28", "P29_006": "2", "P29_007": "0", "P29_008": "00", "P29_009": null }, "geometry": { "type": "Point", "coordinates": [ 140.853490487441803, 38.568952950893717 ] } },
{ "type": "Feature", "properties": { "P29_001": "04501", "P29_002": "D104215010018", "P29_003": "16004", "P29_004": "宮城県涌谷高等学校", "P29_005": "宮城県遠田郡涌谷町涌谷字八方谷三・1", "P29_006": "2", "P29_007": "0", "P29_008": "00", "P29_009": null }, "geometry": { "type": "Point", "coordinates": [ 141.14496091405428, 38.545267265660442 ] } },
{ "type": "Feature", "properties": { "P29_001": "04505", "P29_002": "D104215050019", "P29_003": "16004", "P29_004": "宮城県小牛田農林高等学校", "P29_005": "宮城県遠田郡美里町牛飼字伊勢堂裏30", "P29_006": "2", "P29_007": "0", "P29_008": "00", "P29_009": null }, "geometry": { "type": "Point", "coordinates": [ 141.054805403131724, 38.555636229818724 ] } },
{ "type": "Feature", "properties": { "P29_001": "04505", "P29_002": "D104215050028", "P29_003": "16004", "P29_004": "宮城県南郷高等学校", "P29_005": "宮城県遠田郡美里町大柳字天神原7", "P29_006": "2", "P29_007": "0", "P29_008": "00", "P29_009": null }, "geometry": { "type": "Point", "coordinates": [ 141.118050699364971, 38.501945094748251 ] } },
{ "type": "Feature", "properties": { "P29_001": "04606", "P29_002": "D104216060015", "P29_003": "16004", "P29_004": "宮城県南三陸高等学校", "P29_005": "宮城県本吉郡南三陸町志津川字廻舘92-2", "P29_006": "2", "P29_007": "0", "P29_008": "00", "P29_009": null }, "geometry": { "type": "Point", "coordinates": [ 141.438744173988027, 38.681077325343587 ] } },
{ "type": "Feature", "properties": { "P29_001": "04101", "P29_002": "D104221010016", "P29_003": "16004", "P29_004": "仙台市立仙台高等学校", "P29_005": "宮城県仙台市青葉区国見6-52-1", "P29_006": "3", "P29_007": "0", "P29_008": "00", "P29_009": null }, "geometry": { "type": "Point", "coordinates": [ 140.833897916457261, 38.281975730812412 ] } },
{ "type": "Feature", "properties": { "P29_001": "04102", "P29_002": "D104221020014", "P29_003": "16004", "P29_004": "仙台市立仙台工業高等学校", "P29_005": "宮城県仙台市宮城野区東宮城野3-1", "P29_006": "3", "P29_007": "0", "P29_008": "00", "P29_009": null }, "geometry": { "type": "Point", "coordinates": [ 140.91769871083298, 38.26043921250124 ] } },
{ "type": "Feature", "properties": { "P29_001": "04102", "P29_002": "D104221020023", "P29_003": "16004", "P29_004": "仙台市立仙台大志高等学校", "P29_005": "宮城県仙台市宮城野区五輪1-4-10", "P29_006": "3", "P29_007": "0", "P29_008": "00", "P29_009": null }, "geometry": { "type": "Point", "coordinates": [ 140.900758031418519, 38.262929975900107 ] } },
{ "type": "Feature", "properties": { "P29_001": "04105", "P29_002": "D104221050017", "P29_003": "16004", "P29_004": "仙台市立仙台商業高等学校", "P29_005": "宮城県仙台市泉区七北田字古内75", "P29_006": "3", "P29_007": "0", "P29_008": "00", "P29_009": null }, "geometry": { "type": "Point", "coordinates": [ 140.87134799914935, 38.324078758027795 ] } },
{ "type": "Feature", "properties": { "P29_001": "04202", "P29_002": "D104222020012", "P29_003": "16004", "P29_004": "石巻市立桜坂高等学校", "P29_005": "宮城県石巻市日和が丘2-11-8", "P29_006": "3", "P29_007": "0", "P29_008": "00", "P29_009": null }, "geometry": { "type": "Point", "coordinates": [ 141.304444004209245, 38.423234997101851 ] } },
{ "type": "Feature", "properties": { "P29_001": "04101", "P29_002": "D104391010017", "P29_003": "16004", "P29_004": "宮城学院高等学校", "P29_005": "宮城県仙台市青葉区桜ヶ丘9-1-1", "P29_006": "4", "P29_007": "0", "P29_008": "00", "P29_009": null }, "geometry": { "type": "Point", "coordinates": [ 140.852936217741416, 38.307995573750482 ] } },
{ "type": "Feature", "properties": { "P29_001": "04101", "P29_002": "D104391010026", "P29_003": "16004", "P29_004": "尚絅学院高等学校", "P29_005": "宮城県仙台市青葉区八幡1-9-27", "P29_006": "4", "P29_007": "0", "P29_008": "00", "P29_009": null }, "geometry": { "type": "Point", "coordinates": [ 140.854942943146256, 38.267269561273977 ] } },
{ "type": "Feature", "properties": { "P29_001": "04101", "P29_002": "D104391010035", "P29_003": "16004", "P29_004": "常盤木学園高等学校", "P29_005": "宮城県仙台市青葉区小田原4-3-20", "P29_006": "4", "P29_007": "0", "P29_008": "00", "P29_009": null }, "geometry": { "type": "Point", "coordinates": [ 140.88976701828949, 38.269565862853788 ] } },
{ "type": "Feature", "properties": { "P29_001": "04101", "P29_002": "D104391010044", "P29_003": "16004", "P29_004": "仙台大学附属明成高等学校", "P29_005": "宮城県仙台市青葉区川平2-26-1", "P29_006": "4", "P29_007": "0", "P29_008": "00", "P29_009": null }, "geometry": { "type": "Point", "coordinates": [ 140.843336189979425, 38.3010897509674 ] } },
{ "type": "Feature", "properties": { "P29_001": "04101", "P29_002": "D104391010053", "P29_003": "16004", "P29_004": "東北高等学校", "P29_005": "宮城県仙台市青葉区小松島4-3-1", "P29_006": "4", "P29_007": "0", "P29_008": "01", "P29_009": null }, "geometry": { "type": "Point", "coordinates": [ 140.884796044982124, 38.286422450621714 ] } },
{ "type": "Feature", "properties": { "P29_001": "04101", "P29_002": "D104391010062", "P29_003": "16004", "P29_004": "聖ドミニコ学院高等学校", "P29_005": "宮城県仙台市青葉区角五郎2-2-14", "P29_006": "4", "P29_007": "0", "P29_008": "00", "P29_009": null }, "geometry": { "type": "Point", "coordinates": [ 140.848841492819929, 38.266007887078359 ] } },
{ "type": "Feature", "properties": { "P29_001": "04102", "P29_002": "D104391020015", "P29_003": "16004", "P29_004": "東北学院高等学校", "P29_005": "宮城県仙台市宮城野区小鶴字高野123-1", "P29_006": "4", "P29_007": "0", "P29_008": "00", "P29_009": null }, "geometry": { "type": "Point", "coordinates": [ 140.943422070892609, 38.276620647654482 ] } },
{ "type": "Feature", "properties": { "P29_001": "04102", "P29_002": "D104391020024", "P29_003": "16004", "P29_004": "仙台育英学園高等学校", "P29_005": "宮城県仙台市宮城野区宮城野2-4-1", "P29_006": "4", "P29_007": "0", "P29_008": "00", "P29_009": null }, "geometry": { "type": "Point", "coordinates": [ 140.904212301184543, 38.261061322686302 ] } },
{ "type": "Feature", "properties": { "P29_001": "04103", "P29_002": "D104391030013", "P29_003": "16004", "P29_004": "聖和学園高等学校", "P29_005": "宮城県仙台市若林区木ノ下3-4-1", "P29_006": "4", "P29_007": "0", "P29_008": "00", "P29_009": null }, "geometry": { "type": "Point", "coordinates": [ 140.904361760881812, 38.252393401652519 ] } },
{ "type": "Feature", "properties": { "P29_001": "04103", "P29_002": "D104391030022", "P29_003": "16004", "P29_004": "聖ウルスラ学院英智高等学校", "P29_005": "宮城県仙台市若林区一本杉町1-2", "P29_006": "4", "P29_007": "0", "P29_008": "00", "P29_009": null }, "geometry": { "type": "Point", "coordinates": [ 140.90281103179322, 38.24386613232484 ] } },
{ "type": "Feature", "properties": { "P29_001": "04104", "P29_002": "D104391040011", "P29_003": "16004", "P29_004": "仙台城南高等学校", "P29_005": "宮城県仙台市太白区八木山松波町5-1", "P29_006": "4", "P29_007": "0", "P29_008": "00", "P29_009": null }, "geometry": { "type": "Point", "coordinates": [ 140.857633790098731, 38.244056818568751 ] } },
{ "type": "Feature", "properties": { "P29_001": "04421", "P29_002": "D104391050018", "P29_003": "16004", "P29_004": "仙台白百合学園高等学校", "P29_005": "宮城県仙台市泉区紫山1-2-1", "P29_006": "4", "P29_007": "0", "P29_008": "00", "P29_009": null }, "geometry": { "type": "Point", "coordinates": [ 140.835560921160493, 38.347867181092091 ] } },
{ "type": "Feature", "properties": { "P29_001": "04105", "P29_002": "D104391050027", "P29_003": "16004", "P29_004": "東北生活文化大学高等学校", "P29_005": "宮城県仙台市泉区虹の丘1-18", "P29_006": "4", "P29_007": "0", "P29_008": "00", "P29_009": null }, "geometry": { "type": "Point", "coordinates": [ 140.871032635015183, 38.303151231891889 ] } },
{ "type": "Feature", "properties": { "P29_001": "04105", "P29_002": "D104391050036", "P29_003": "16004", "P29_004": "東北学院榴ケ岡高等学校", "P29_005": "宮城県仙台市泉区天神沢2-2-1", "P29_006": "4", "P29_007": "0", "P29_008": "00", "P29_009": null }, "geometry": { "type": "Point", "coordinates": [ 140.898390476280639, 38.326561774525821 ] } },
{ "type": "Feature", "properties": { "P29_001": "04205", "P29_002": "D104392050016", "P29_003": "16004", "P29_004": "東陵高等学校", "P29_005": "宮城県気仙沼市大峠山1-1", "P29_006": "4", "P29_007": "0", "P29_008": "00", "P29_009": null }, "geometry": { "type": "Point", "coordinates": [ 141.592806208694299, 38.921119768432511 ] } },
{ "type": "Feature", "properties": { "P29_001": "04212", "P29_002": "D104392120012", "P29_003": "16004", "P29_004": "飛鳥未来きずな高等学校", "P29_005": "宮城県登米市米山町中津山字筒場埣215", "P29_006": "4", "P29_007": "0", "P29_008": "00", "P29_009": null }, "geometry": { "type": "Point", "coordinates": [ 141.178621055362015, 38.611935859725577 ] } },
{ "type": "Feature", "properties": { "P29_001": "04214", "P29_002": "D104392140018", "P29_003": "16004", "P29_004": "日本ウェルネス宮城高等学校", "P29_005": "宮城県東松島市小野字裏丁1", "P29_006": "4", "P29_007": "0", "P29_008": "00", "P29_009": null }, "geometry": { "type": "Point", "coordinates": [ 141.151179440851223, 38.40892825061001 ] } },
{ "type": "Feature", "properties": { "P29_001": "04215", "P29_002": "D104392150015", "P29_003": "16004", "P29_004": "古川学園高等学校", "P29_005": "宮城県大崎市古川中里6-2-8", "P29_006": "4", "P29_007": "0", "P29_008": "00", "P29_009": null }, "geometry": { "type": "Point", "coordinates": [ 140.96588061727212, 38.569828685656034 ] } },
{ "type": "Feature", "properties": { "P29_001": "04215", "P29_002": "D104392150024", "P29_003": "16004", "P29_004": "大崎中央高等学校", "P29_005": "宮城県大崎市古川福沼1-27-1", "P29_006": "4", "P29_007": "0", "P29_008": "00", "P29_009": null }, "geometry": { "type": "Point", "coordinates": [ 140.973777301356165, 38.581448739545472 ] } },
{ "type": "Feature", "properties": { "P29_001": "04302", "P29_002": "D104393020011", "P29_003": "16004", "P29_004": "西山学院高等学校", "P29_005": "宮城県刈田郡七ヶ宿町矢立平4-5", "P29_006": "4", "P29_007": "0", "P29_008": "00", "P29_009": null }, "geometry": { "type": "Point", "coordinates": [ 140.462579935713137, 37.985811594758559 ] } },
{ "type": "Feature", "properties": { "P29_001": "04105", "P29_002": "D104391010053", "P29_003": "16004", "P29_004": "東北高等学校", "P29_005": "宮城県仙台市泉区館7-101-1", "P29_006": "4", "P29_007": "0", "P29_008": "02", "P29_009": "泉校舎" }, "geometry": { "type": "Point", "coordinates": [ 140.798468018437347, 38.311192648309998 ] } }
]
}
